name,address,lat,lon,phone
속리산풍경캠핑장,충북 보은군 속리산면 중판1길 24,36.5132559,127.7997335,010-5628-5077
가평뷰캠핑장,경기 가평군 북면 화악산로 270,37.9050084,127.5603348,
달마당 캠핑장,경기 양평군 지평면 고재길 145,37.4299815395993,127.603305719073,010-5064-0421
양주 탑 관광농원 글램핑장,경기 양주시 어하고개로 48-1 (삼숭동),37.8110787191051,127.101975851425,010-5507-8627
지구별캠프,강원특별자치도 영월군 무릉도원면 무릉법흥로 1104,37.3552884,128.2787348,010-8344-8201
은하수별빛마을,강원특별자치도 홍천군 내촌면 아홉사리로 699,37.8079479290556,128.049522908449,010-4756-5588
양평꿈의글램핑,경기 양평군 청운면 황정2길 98-13,37.5570648791214,127.723939204338,
가평무릉도원캠핑장,경기 가평군 상면 임초밤안골로 207,37.7515462209032,127.368073802881,010-8321-6607
스칸디캠프팜,충청남도 보령시 청소면 신송리 455-4,36.4667860914896,126.569102837161,041-934-8578
공주산림휴양마을,충남 공주시 금학동 140-1 ,36.4235175034587,127.118768521238,041-855-0855
아이올레 인 포레스트 캠핑,제주특별자치도 제주시 구좌읍 덕행로 363,33.5175637264437,126.787517433915,010-4166-1118
덕적도 자연휴양림 야영장,인천 옹진군 덕적면 덕적남로 220,37.2152536653321,126.138036527177,032-899-2860
카라반캠핑 고요,전북특별자치도 무주군 설천면 구천동로 1048-26,35.9068847481654,127.763290156119,062-322-0802
기천풍경캠핑,경기 화성시 봉담읍 건달산로 269,37.1959296060371,126.911740307573,010-8728-6003
구시포글램핑,전북특별자치도 고창군 상하면 진암구시포로 547-21,35.4436610743314,126.435402783137,063-563-2295
성주 LOG 캠핑,경북 성주군 가천면 가천로 179-32,35.8908569014627,128.154382311257,010-8884-1986
포레스트힐링캠프,충북 단양군 가곡면 새밭로 240-1,37.0083295,128.4052894,010-3655-7183
해브펀 캠핑 어라운드,경기 파주시 월롱면 도감로 130,37.7915549,126.8001595,031-949-6565
F1 오토캠핑장,전라남도 영암군 삼호읍 삼포리 1894,34.7367086,126.3935277,1577-2324-
대궐오토캠핑장,경기도 양주시 백석읍 기산로440번길 177 ,37.7687295558095,126.939411456572,031-871-8989
더빌리지캠핑장,충남 태안군 근흥면 마금로 184,36.7490814605777,126.228002780212,0507-1371-6460
더 비치 글램핑,경기 안산시 단원구 대부해안로 297 (대부북동),37.2491360199477,126.562513578866,
연천미라클타운,경기 연천군 군남면 군중로 134,38.1310180,127.0450508,010-8696-7271
누크(NOOK) 글램핑&캠핑,강원특별자치도 홍천군 내면 내린천로 399,37.8283143941053,128.391797267562,
화천마음이머무는곳,강원도 화천군 사내면 포화로 653-76 ,38.0850514753123,127.48696541566,033-441-6066
항도야영장,경상남도 남해군 미조면 송정리 355-20,34.7414660,128.0481857,055-867-6665
화봉캠핑클럽,경북 포항시 북구 기계면 기동지길 255,36.0895815,129.219524,
백덕산 캠핑장,강원 영월군 주천면 중선로 569-4,37.3400050,128.308387,010-3695-5533
캠프빌리지,경남 거제시 장목면 옥포대첩로 1375,34.9725201,128.6947951,055-636-1002
갈현동화마을 오토캠핑장,경남 남해군 삼동면 봉화로372번길 56-8,34.8107353292857,127.998106615319,010-4566-4466
곡식정원(관광농원),전남 무안군 현경면 봉월로 281-11,35.073955495203,126.381382910383,061-453-0024
구릉지캠핑장,경기 여주시 금사면 금품2로 425,37.3782985164698,127.466959564738,010-2452-9442
오후애캠핑,경남 고성군 영오면 영회로 651,35.1155841563301,128.249117076335,010-5642-2918
김천부항댐 산내들 오토캠핑장,경상북도 김천시 지례면 도곡리 722,35.9779879,128.0112684,054-431-2011
망상오토캠핑리조트 제2오토캠핑장,강원 동해시 동해대로 6220 (망상동),37.5903965,129.0938782,033-539-3618
작천정 별빛야영장,울산광역시 울주군 상북면 등억리 18-2 ,35.5516534,129.0955023,052-229-9601
목사골 야영장,전남 곡성군 목사동면 용봉리 425,35.1059221,127.3125246,061-362-8466
늘푸른캠핑장,경상북도 포항시 북구 송라면 중리길14 ,36.2349086,129.3361028,010-6568-1185
캠프포레,경남 양산시 원동면 청수골길 106,35.5217640132366,129.017492275282,010-3571-0875
포레스트벨리캠프,경기 남양주시 수동면 철마산로 388-1,37.7161450,127.259031,0507-1343-0642
오오유캠핑,경남 함안군 산인면 입곡공원길 224-77,35.2579901736078,128.444460077557,
비비드 글램핑,경남 사천시 실안길 292 (실안동),34.951588782625,128.05386482858,010-4520-5533
포레스트사운드 캠핑장,경기 포천시 신북면 포천로 1724,37.9084146479117,127.192882499533,
제주인포항 개별 수영장 카라반,경북 포항시 남구 호미곶면 구만길 198,36.0853088864233,129.554920263924,
장신리 마을관리휴양지,강원 고성군 간성읍 소똥령마을길 32,38.3304976308329,128.378397636287,033-681-8126
학현아름마을오토캠핑장,충북 제천시 청풍면 학현소야로 206,37.0084618,128.2041053,010-3459-5665
원시관광농원,강원도 양양군 현남면 전포매리 90-1 ,37.9425582105956,128.765973349212,
제이제이파크,대전 대덕구 신탄진로115번안길 39-1 (신대동),36.3932347209448,127.416474866125,0507-1351-1794
캠핑 앨리스,경기 양평군 양동면 양동로 1112,37.4732729,127.7326408,031-772-0923
고성 봉수대 원더캠프&비치,강원특별자치도 고성군 죽왕면 봉수대길 10-22,38.3236554203286,128.526564805009,
스므나리 캠핑장,강원특별자치도 횡성군 서원면 월송석화로 253,,,010-8921-3357
라라랜드,충북 제천시 백운면 애련로 748-56,37.104961048911,128.047044588018,043-646-4520
농업회사법인 유한회사 여산보리수,전북특별자치도 익산시 여산면 천호로 103-55,36.0385492417687,127.103741905838,063-833-5675
모모캠핑,강원특별자치도 횡성군 갑천면 외갑천로736번길 2,37.5661632798763,128.084247046415,010-3378-6752
휴심채,충남 보령시 통나무마을1길 48-21 (신흑동),36.3288975463537,126.526982532191,
디지털곤충학습관캠프,경남 창녕군 창녕읍 담안길 33-8,35.5171418570627,128.547535675043,
나홀로캠프,제주특별자치도 제주시 애월읍 곽납로 62-10,33.4427264713839,126.317188910281,
가평 깨비도 글램핑,경기 가평군 가평읍 태봉두밀로 460,37.8164457668772,127.45211817089,
단양청정밸리 캠핑장,충북 단양군 영춘면 남천4길 104-41,37.0381827695281,128.50046037274,
루트113 베이스캠프,울산 울주군 삼동면 보삼길 115,35.4896730203951,129.115575474596,
세그루 캠핑장,경기 안산시 단원구 영전로 329 (대부동동),37.2437786043272,126.615491827782,
밤별생각 낮달이야기,충북 제천시 백운면 덕동로 527-13,37.2129523182569,127.958374250751,
청산캠핑장,강원특별자치도 원주시 호저면 칠봉로 604-5,37.4407063771689,127.893094790745,
늘데이,경기 남양주시 진접읍 경복대로197번길 5-21,37.7153802356655,127.202362270202,
해핑 글램핑,경기 포천시 소흘읍 광릉수목원로 967-1,37.7746191005908,127.138894951413,
에메랄드 글램핑장,강원특별자치도 정선군 남면 자뭇골길 295,37.2382388917382,128.760048045705,
마차박물관 어린이체험 캠핑장,충북 진천군 문백면 농다리로 34-4,36.7796353224726,127.442650325414,
모나팜 캠핑장,충남 아산시 순천향로 623-22 (신인동),36.7532322143845,126.993259124756,
더봄야영장,전남 신안군 압해읍 송림양알길 188,34.8942100619672,126.347908728721,
가야산뷰관광농원캠핑장,경남 합천군 가야면 매화산로 424-20,35.7589027346787,128.123035374822,
화양야영장,경기 양평군 강상면 강상로 422-38,37.4594865098241,127.475433631722,
아이호 캠핌장,강원특별자치도 인제군 상남면 자포대길 550-112,37.8676612873874,128.191426654161,
아싸캠프I,충북 충주시 산척면 인등로 282,37.0736537898854,127.989014803138,
페르마타,경기 가평군 상면 녹수계곡로 30,37.7649682515393,127.394326598057,
싱싱포레 야영장,,,,
문장대 조아 캠핑장,경북 상주시 화북면 문장로 1666-48,36.5553017769791,127.923204155876,
캠프힐 올되다 캠핑장,경북 고령군 덕곡면 덕운로 666,35.7830559600019,128.223581704929,
참외별 캠핑장,경북 성주군 금수강산면 성주로 548-31,35.9229444721579,128.09159198293,
담터 휴 캠핑장,강원특별자치도 철원군 동송읍 담터길 372,38.1639468287004,127.189473689183,
블루모어 글램핑 리조트,경남 남해군 삼동면 죽방로 615,34.8134702692119,127.959926398132,
빵굽는 카라반,경기 포천시 영중면 금화봉2길 75,37.9817327231797,127.237663252433,
동산포 캠핑장,강원도 양양군 현남면 동산리 90-35	,37.9780457140583,128.759440449891,
국립자연휴양림관리소(중미산자연휴양림),경기 양평군 옥천면 중미산로 1152,37.5880186,127.4546124,031-771-1766
유명산힐링캠프,경기 가평군 설악면 어비산길 201-62,37.590898,127.5131851,010-7612-1372
등억알프스야영장,울산광역시 울주군 상북면 등억알프스리 309-1,35.551338,129.094384,052-229-9607
공릉관광지 캠핑장,경기도 파주시 조리읍 장곡로 218 ,37.7498499,126.8335561,031-950-1990
지오클럽,부산 기장군 일광읍 기장해안로 1272,35.2579122,129.2351214,
호수산장관광농원,경기 여주시 가남읍 신해1길 95-52,37.2322552,127.5417531,031-882-9779
백운계곡캠핑장,경기 포천시 이동면 화동로 2318-64,38.0515953576869,127.384485782472,010-9311-0667
벨루아 캠핑장,충북 청주시 청원구 오창읍 성산2길 196-40,36.7439411202931,127.408620689467,
산과 벗 캠핑장,충북 진천군 백곡면 배티로 405,36.9097206666567,127.343459925624,
강주학교캠프,경남 함안군 법수면 장백로 675,35.3223988,128.3298669,010-2501-6750
라바돔힐링타운,인천 옹진군 영흥면 영흥로722번길 36,37.2724933372272,126.456291689348,032-553-9979
내안에 쉼 캠핑파크,강원특별자치도 춘천시 동면 가락재로 1325,37.8629073104704,127.84966358467,033-241-9772
영월별마로펜션캠핑,강원 영월군 무릉도원면 무릉법흥로 1078-22,37.3519894,128.2797022,010-4138-3919
패밀리오토캠핑장(한국전통문화체험학교),충북 제천시 덕산면 월악산로4길 10,36.8922136,128.1375076,043-651-2866
은빛물결캠핑장,경기 가평군 조종면 대보간선로 260,37.8023638820366,127.366610584828,010-6764-5061
산청엔경호강캠핑장,경남 산청군 금서면 동의보감로312번가길 141-70,35.4495208,127.8514190,010-4843-4420
대율저수지 오토캠핑장,전라북도 김제시 금구면 대화리 357-8 ,35.7894513,127.037422,063-543-0202
인제연가리오토캠핑장펜션,강원도 인제군 기린면 조침령로 1418-7 ,37.9739973,128.4349274,
야생초마을아미골,경기 연천군 미산면 숭의전로222번길 140,38.0184602,126.9549544,010-3365-0121
아낌없이주는나무,경기 동두천시 안흥로 78 (안흥동),37.9278782365951,127.042763738579,031-865-1500
밤벌캠핑장,경기 가평군 설악면 어비산길 15-23,37.6010933310507,127.494674238424,
왕산골 관광농원,경북 구미시 고아읍 원대로18길 51-14,36.1921326,128.3210710,
스테이펀 글램핑,전남 영암군 영암읍 기찬랜드로 46,34.7911127855413,126.683268903958,061-472-1550
계절감각글램핑엔카라반,경기 가평군 조종면 운악청계로371번길 83,37.8516952520119,127.349134587738,010-3544-8401
변산오토캠핑장,전북 부안군 변산면 변산로 2054,35.6824139,126.5336697,0507-1366-6867
은빛초원 캠핑장,경기도 화성시 원천동 672-1 ,37.2226794,126.8006489,010-9003-7727
한다리골캠핑장,강원 원주시 소초면 백교길 84-15,37.4261787,128.0634619,
해간도캠핑장,경남 통영시 용남면 해간길 55,34.8674533,128.4682022,010-2788-1610
해간도카라반,경남 통영시 용남면 해간길 55-1,34.8677724127299,128.46762365335,010-2788-1610
별빛갯벌캠핑장,충남 서천군 비인면 갯벌체험로 805,36.110194702513,126.607985610718,010-8114-1914
문암해변캠핑장,강원특별자치도 삼척시 근덕면 초곡리 319-1,37.3103930,129.2862058,010-3418-1357
오크힐캠핑장,경기 의정부시 동일로150번길 116 (장암동),37.7052388556034,127.058253613012,
비원 바베큐&캠핑,경기 여주시 흥천면 문장안길 51-35,37.372299867084,127.522681631061,010-2784-6611
캠프운악Hi,경기 포천시 일동면 영일로 665-5,37.9382210431449,127.275972301942,010-8458-8141
용인 에버베이카라반,경기 용인시 처인구 포곡읍 부곡로 149-5,37.2803879157021,127.206022146424,02-899-7475
도전캠핑장,경기 여주시 강천면 원양1로 732-5,37.3379874107033,127.75135705107,
신스 글램핑,전남 고흥군 과역면 고흥로 3172-11,34.6952605673597,127.362161593915,010-2248-4363
수대울 캠핑장,경기 양평군 서종면 수대울길 147,37.5840814545938,127.357598060266,
아람치 야영장,충남 당진시 석문면 산단9로 56,37.0180882175326,126.580445634545,
인북천 물빛테마공원 캠핑장,강원특별자치도 인제군 서화면 천도양지길 14-57,38.2258503249831,128.206176560152,033-462-8823
자연의꿈2,경기 파주시 법원읍 초리골길 230,37.8551659996065,126.894301267449,
별빛 오토 캠핑장,경남 거창군 북상면 산수병곡길 261,35.7886766514638,127.76415274796,
한밤터,대구 군위군 부계면 한밤8길 147,36.0528422352038,128.646515846892,
천사섬 오션 카라반,전남 신안군 자은면 한운길 151,34.922097284133,126.074852974937,
별의바다 조동캠핑장,충북 영동군 용화면 민주지산로 765,36.046414330169,127.814760740437,
구이PICK,경기 오산시 서랑로 208-13 (지곶동),37.1721587091675,127.021614539629,
잔디마당 자동차 야영장,경북 봉화군 춘양면 춘양로 785-82,36.9764277417805,128.888213590755,
해든,경기 포천시 영북면 비둘기낭길 60-7,38.0746871235999,127.224690957713,
리버백담 캠핑장,강원특별자치도 인제군 북면 황태길 103,38.2035902437173,128.351839686248,
그린델발트 캠핑앤카라반,경기 가평군 설악면 미사리로 828-20,37.7198825590557,127.548149360809,
내포레캠핑장,충남 홍성군 홍북읍 홍북로 626,36.6616790876268,126.703514470766,
사기리134,경북 경산시 하양읍 환성로 339,35.9332324541023,128.771748855319,
흥림호수농원,충남 서천군 종천면 대백제로 1415-124,36.1250122438783,126.686013342914,
토종캠핑장,충북 괴산군 청천면 괴산로 383-11,36.6265859326146,127.796280314483,
화개 캠핑장 쉼,경남 하동군 화개면 쌍계로 185-14,35.2004825538043,127.632847558381,
(주)궁평해윰캠핑장,경기 화성시 서신면 궁평항로 1069-11,37.116158062163,126.683373988865,031-356-7339
올라봄 캠크닉,경기 화성시 향남읍 향봉로 84,37.1419702071512,126.940335690205,
모래알캠핑장,경북 포항시 북구 송라면 봉화길245번길 42,36.2411441785678,129.381062507368,
온온,경기 양평군 단월면 물레골길 24-13,37.641440946874,127.606742171158,
도프앙 캠핑,제주특별자치도 서귀포시 대정읍 도원로26번길 20,33.2752421750316,126.17267682054,
라일락 관광농원,경기 안산시 단원구 선감로 258-34 (선감동),37.2186388700444,126.637715721025,
늘 푸른 사랑농원,충북 충주시 소태면 주치길 396-20,37.1366407303401,127.859875124894,
닻별 캠핑장,경남 산청군 생비량면 상능로 159-93,35.3774628293457,128.053399167169,
그린델발트 글램핑,경기 가평군 설악면 미사리로 828-40,37.7190250772186,127.548312152282,
피톤치드 글램핑장,,,,
멍 캠핑장,강원특별자치도 강릉시 구정면 오독떼기길 20,37.7046940250839,128.889495530804,
연천와캠핑 글램핑,경기 연천군 미산면 청정로 1049,38.0382262687278,126.966020651345,
(주)화원684,전남 해남군 화원면 매봉길 528-8,34.759605,126.291803,061-537-3377
휴랜드관광농원,경기 포천시 이동면 금강로 6159-7,38.0784830,127.3886788,
스타빌,제주특별자치도 서귀포시 안덕면 광평로 34-154,33.3400879,126.3950490,064-793-9100
용대 황지 캠핑장,강원 인제군 북면 진부령로 123,38.2250401,128.3661929,033-462-0745
수인야영장,강원 양구군 양구읍 소양호로 1086-13,38.0244377,127.9363261,
전주 아중호수 캠핑장,전북특별자치도 전주시 덕진구 왜망실길 100 (우아동1가),35.8159681,127.1923083,010-5511-7083
스테리움 제천,충북 제천시 백운면 구학산로 1038,37.2045616,128.0085048,
땅끝황토나라테마촌,전라남도 해남군 송지면 땅끝해안로 1730 ,34.3216232,126.519902,061-533-9822
러브팩토리펜션캠핑장,강원특별자치도 정선군 남면 광락로 521,37.319454722129,128.679631332453,
엘리시안 강촌 캠핑파크,강원 춘천시 남산면 북한강변길 688,37.8161589,127.5919389,033-260-2568
한방자연휴양림,경남 산청군 금서면 동의보감로555번길 186,35.4340358,127.8236808,
간현관광지 캠핑장,강원 원주시 지정면 소금산길 26,37.3648933,127.8325455,033-731-4088
김포예당캠핑장,경기도 김포시 월곶면 문수산로 216,37.7481594,126.5334652,010-7474-3113
소금강마을에코센터 오토캠핑장,강원 강릉시 연곡면 진고개로 1826-11,37.8479465,128.7413289,033-661-0401
함양용추오토캠핑장,경남 함양군 안의면 용추계곡로 491-12,35.6747148700159,127.773398300681,055-962-2943
물고기 관광농원,경기도 김포시 감정동 276-2,37.6262628,126.6910308,
가평자작나무글램핑,경기 가평군 북면 화악산로 729-17,37.9339118,127.5567259,010-3429-4025
시에스타,경북 경주시 안강읍 새안현로 928,35.9505220342164,129.139785057272,
로하스캠핑,경기 연천군 중면 군중로 319-46,38.1321962,127.0256313,010-9669-5573
로하스캠핑,전라북도 정읍시 산내면 종성리 662,35.5338423,127.0819153,
도원야영장,전남 화순군 이서면 도원길 80-30,35.1110285,127.0269073,061-374-1197
변산해수욕장 야영장,전북 부안군 변산면 변산로 2100,35.6786745,126.5303407,063-583-6951
태백산국립공원 소도야영장,강원 태백시 천제단길 181 (소도동),37.1180784,128.9517389,033-553-7441
글램포레 글램핑,경기 포천시 영북면 산정호수로 1008-1,38.0890548919399,127.320977699374,010-2687-8778
하늘캠핑장,강원도 평창군 봉평면 흥정리 93-12 ,37.6570901,128.3078886,070-4755-3362
평창하늘캠핑장,강원특별자치도 평창군 봉평면 흥정계곡4길 71-8,37.6510309261089,128.31559890863,010-2311-2397
달숲스테이,충북 제천시 금성면 산곡3길 151,37.0882141574673,128.189047934853,
사노리숲,경기 구리시 동구릉로459번길 181 (사노동),37.6363036,127.1309851,031-572-4511
펫밀리애견파크타운,경기 가평군 청평면 북한강로 2060,37.6999472988293,127.394841440619,010-7732-7409
포레 앙비떼,강원특별자치도 영월군 무릉도원면 엄둔길 287,37.3215666659907,128.234602900703,
강천섬캠핑장,경기 여주시 강천면 강천리길 88-60,37.2320566284187,127.698021628627,031-881-6903
LAFORESTA(라포레스타),충북 제천시 금성면 산곡3길 153,37.0884867658915,128.188836141834,
세종 합강캠핑장,세종특별자치시 태산로 329 (세종동),36.5158721,127.3371065,044-850-1117
비토 노을숲 글램핑,경남 사천시 서포면 거북길 254,34.9722881228937,127.964142011966,02-1555-6254
구리토평가족캠핑장,경기도 구리시 왕숙천로 11-140,37.5864147,127.1586925,031-550-3788
법흥 캠핑장,강원 영월군 무릉도원면 백년계곡길 14-3,37.3661435701895,128.273805985359,010-7778-8201
얼음골까투리 펜션&캠핑장,경상남도 밀양시 산내면 얼음골로 134-22 ,35.5797758,128.9785338,055-356-8887
영암군 국민여가 캠핑장,전라남도 영암군 영암읍 회문리 산 1번지 ,34.7895733692047,126.691841825935,061-470-2240
진도풍경오토캠핑장,전라남도 진도군 의신면 의신사천길 15-21,34.4653393,126.294498,061-540-1174
하동군 다목적 캠핑장,경상남도 하동군 옥종면 두양리 1073-219 ,35.2454174,127.8901533,
마루한캠핑장,전남 담양군 금성면 상신기길 108,35.3147295376754,127.05875435645,
캠프정감,충남 아산시 송악면 외암로 176,36.6673666,126.9901457,
필리가 캠핑,강원특별자치도 영월군 김삿갓면 두릉골길 11,37.1218328,128.595542,010-9857-5901
청풍호반 캠핑장,충북 제천시 청풍면 용곡길 218,36.9843271440776,128.119158067296,
월계수 캠핑장,경상북도 경주시 산내면 문복로 758 ,35.6967840,129.0575008,010-5592-5253
강원 홍천 알프스밸리 캠핑나라 글램독,강원 홍천군 화촌면 구룡령로 1016-27,37.7478748,128.0439875,033-433-2332
대박캠프,경남 함양군 안의면 용추계곡로 396,35.6740691290432,127.782754762637,
캠프어게인,경북 경주시 내남면 화계로 418-4,35.7735473,129.1689864,
무녀도캠핑장,전북 군산시 옥도면 무녀도2길 19,35.8050722,126.4220801,063-464-4040
우성낚시&캠핑,충남 공주시 우성면 채죽산길 50,36.4729971806817,127.086228738589,010-2709-4580
구조라항캠핑장,경남 거제시 일운면 구조라로 15-2,34.8081136,128.698387,0507-1446-5878
구룡자동차야영장(치악산국립공원),강원 원주시 소초면 구룡마을길 14,37.4081447,128.0454132,033-732-5231
윈드힐글램핑카라반캠핑장,경기 남양주시 수동면 비룡로 1738-23,37.7650323,127.2845480,
판타스틱 캠프닉,경기 시흥시 군자로 125-40 (월곶동),37.3722060,126.7700953,031-497-3355
치올라 캠핑장,강원특별자치도 원주시 소초면 무쇠점1길 52,37.4232757023582,128.053092354648,0507-1450-0946
캐스트라글램핑,경기 가평군 북면 멱골로 398-24,37.9238119252076,127.583809053086,
매봉산 천상의 숲,강원특별자치도 태백시 백두대간로 563 (창죽동),37.2275890590455,128.977261174764,033-249-5873
경주 보문호 글램핑,경북 경주시 보문마을길 28-10 (구황동),35.8384499338061,129.245746800781,
캠핑요기야,경북 김천시 증산면 수도길 208-47,35.8906368924732,128.017689767471,
솔담야영장,대구 군위군 부계면 한티로 2176,36.0625359340086,128.656284898691,
바보온달 리조트,경남 산청군 생비량면 상능로150번길 155,35.3851710245276,128.06558365905,
춘풍원 농촌체험 휴양마을 야영장,경남 합천군 쌍백면 쌍백중앙로 99,35.4443198456598,128.14502995027,
담터 민수 캠핑장,경기 포천시 관인면 담터길 271,38.1572332815387,127.194769015362,
산내들 관광농원,경기 포천시 영북면 산정호수로 688,38.0656151895683,127.326630640024,
제임스글램핑,경기 포천시 이동면 화동로 2406,38.0570160553066,127.385840753332,
강릉 바다내음 캠핑장,강원특별자치도 강릉시 강동면 율곡로 1616,37.7184025431018,129.004494248311,033-640-9826
소백산 별빛감성 캠핑장,충북 단양군 가곡면 새밭로 483,36.9963548229567,128.424225732081,
상무평화공원 캠핑장,전남 장성군 삼계면 영장로 1738-16,35.248299127881,126.671729301602,061-392-1500
덕신야영장,경남 남해군 설천면 남해대로 4110-9,34.9329227904967,127.873923270744,055-864-3524
합천오토캠핑장,경남 합천군 봉산면 월행로 911,35.6124241215639,128.025947110628,
섬진강캠핑장,전북 정읍시 산외면 산외로 445-30,35.6230461,127.0387790,063-537-8688
고도 캠핑장,경북 고령군 대가야읍 신남로 61,35.7122373,128.2651206,054-955-1133
빌리지스톤캠프,경북 고령군 쌍림면 대가야로 446-47,35.6654887,128.2361211,
서진이네 오토캠핑장,전남 광양시 옥룡면 신재로 1479,35.0797949033453,127.603540538234,
캠핑 유유자적,대구 달성군 가창면 우록3길 64-1,35.7134588944037,128.631146851762,010-8588-2730
펫츠런파크,경남 거제시 둔덕면 언양로 83,34.8784100289324,128.539481169206,010-9783-1427
송백농원(이나투캠핑),경북 구미시 산동읍 송백로 674-1,36.2015016949696,128.472586967198,010-3088-4070
메타파크,전남 담양군 금성면 금성산성길 260,35.3707606,127.0215244,010-3625-9457
백미리 희망캠핑장,경기 화성시 서신면 백미길 210-24,37.1473174,126.6828463,031-355-3364
합천 씨파크,경남 합천군 대병면 합천호수로 525,35.5443965,128.0537350,055-815-8883
씨앤씨글램핑카라반오토캠핑,충남 태안군 소원면 구름포길 117,36.8355387638903,126.152716182676,010-5420-5105
북한산 둥글이네 캠핑,경기 고양시 덕양구 북한산로387번길 45-12 (지축동),37.6623783,126.9488461,010-7101-3638
백무동야영장,경상남도 함양군 마천면 강청리 148,35.3580771,127.6813458,055-963-1260
안단테 홍천캠핑장,강원 홍천군 내촌면 가래올길 53-16,37.8072142,128.0826466,033-433-0211
OK가족캠핑장,전남 영광군 대마면 영장로10길 4,35.3168536,126.6011272,
삼인산밸리캠핑장,,,,
태안 안면도 비비애견동반캠핑장,충청남도 태안군 남면 신온리 169-13,36.6133484,126.3038417,
아로니움글램핑,인천 강화군 삼산면 삼산남로 85-11,37.6876952,126.3635132,032-933-5882
자연과함께 펜션캠핑장,강원 영월군 무릉도원면 무릉법흥로 968-31,37.3447591,128.2802974,010-5015-1366
부라보캠프,강원특별자치도 양양군 현북면 법수치길 59,37.9461820298908,128.65764383675,010-8010-3123
글램핑스토리,경남 합천군 가야면 구미가천로 345-1,35.7492671,128.0877518,0507-1378-5239
충주 알프스 캠핑장,충북 충주시 동량면 지등로 1733-2,36.9740868556638,128.049787262541,
다옴 캠핑장,경남 하동군 적량면 동점길 18-71,35.1491675790959,127.7533482726,010-9020-4266
달서별빛캠프 캠핑장,대구 달서구 앞산순환로 248 (송현동),35.8232437,128.5570421,053-667-3191
고흥거금락 한옥펜션캠핑장,전남 고흥군 금산면 거금일주로 3116-19,34.4775892,127.1341211,0507-1346-9695
자연과우리 캠핑장,강원 양양군 현북면 법수치길 277,37.9403186,128.6461312,033-673-1637
송림캠핑장,,,,
사계절랜드파크마검포텐트오토캠핑장,,,,
시선글램핑,경남 남해군 삼동면 동부대로 983-8,34.7885397,128.0496298,
청솔캠핑장,전남 장성군 남면 황토로 220,35.2453760016576,126.796876841074,
양양 고인돌 캠핑장,강원 양양군 서면 고인돌길 200-49,38.0539374809579,128.574197764713,0507-1324-4049
오대천 휴 캠핑클럽,강원특별자치도 평창군 진부면 오대천로 553,37.5333219,128.5666742,
대둔산 수락오토캠핑장,충남 논산시 벌곡면 수락계곡길 274-15,36.1416810975072,127.301682525199,041-733-1661
좌구산오토캠핑장,충청북도 증평군 증평읍 율리 259-1 ,36.7139424,127.6499702,043-835-4557
캠프 포레스트,경북 경주시 산내면 문복로 106,35.6485437082611,129.066568225893,010-2869-7574
능산캠핑스쿨,충북 음성군 삼성면 금율로389번길 30,37.0401855059284,127.538320899991,050-6512-3599
국립화천숲속야영장,강원특별자치도 화천군 간동면 배후령길 1144,38.0103067173771,127.797555507496,033-441-4466
스테이현 캠핑장,전북특별자치도 순창군 동계면 장군목길 394,35.4485410,127.2036786,
모닥모닥 황매산 캠핑장,경남 산청군 차황면 황매산로 860-29,35.4543474378104,127.97339201521,010-2546-4179
우주선캠프,전남 고흥군 동일면 신초길 95-73,34.4949852550375,127.449028598502,010-6748-8083
큐브빌리지글램핑,전남 강진군 대구면 청자로 1339-74,34.5351298,126.8000499,010-6522-2241
호반 캠핑장 & 글램핑 카라반 춘천점,강원특별자치도 춘천시 영서로 3189 (신동),37.9339721,127.7178084,033-263-3304
양주 구암 캠핑장,경기 양주시 남면 휴암로284번길 91-47,37.8830861169451,126.964033555828,031-851-9548
산음 해피데이 캠핑장,경남 산청군 단성면 호암로632번길 14-13,35.3162887125206,127.903068293311,010-4000-3267
글램365,경기 가평군 조종면 운악청계로490번길 47-3,37.8607470500864,127.358910153332,
파주캠핑마을,경기 파주시 탄현면 방촌로628번길 25-57,37.8014497634694,126.722274376663,
안녕 라브리사,경남 창원시 마산합포구 구산면 안녕로 204,35.1187082920882,128.598469287997,
루미너스글램핑,전남 여수시 돌산읍 안굴전길 76-23,34.6953278161863,127.775806917968,
휴파티,경남 김해시 주촌면 동선길 38,35.2394300123322,128.842486021655,
선감 캠핑장,경기 안산시 단원구 개건너길 78 (선감동),37.2205718116667,126.629912157751,
캠퍼디,경기 여주시 북내면 여강로 375,37.3329311722144,127.685994991528,
너우리 캠핑농원,경기 포천시 관인면 숯골길 284,38.1335606579509,127.255779445591,
브라운,인천 강화군 화도면 해안남로 2680-14,37.6345859807983,126.374654787234,
호두마루 캠핑,경남 사천시 서포면 선창부두길 17,34.991245017836,127.973847258383,
금도끼캠핑장,충북 영동군 심천면 이원심천로 336-15,36.240920583939,127.697891110451,
블루웨일,경남 고성군 삼산면 두포5길 113-139,34.9234153655485,128.301477675963,055-673-4994
심학산야영장,경기도 파주시 돌곶이길 57(서패동 178-18번지),37.7139289,126.6966317,
연천 사미천 캠핑장,경기도 연천군 장남면 장백로 330번길 236,37.996091,126.890469,031-833-7796
산유리캠핑장,경기 가평군 가평읍 분자골로 91,37.7584693,127.5040835,
힐링캠핑야영장,충남 태안군 소원면 연들길 22,36.7523095,126.1385368,
남산공원 힐링캠핑장,경남 고성군 고성읍 남산로 6-60,34.9649538625727,128.323190431253,010-3922-9292
보얀트 캠핑,경기 가평군 상면 청군로 273,37.7545994214891,127.40383457965,
강촌관광농원,강원특별자치도 춘천시 남산면 오양골길 125,37.8196122371081,127.601984878738,033-261-8214
노을빛바다 캠핑장,충남 서산시 팔봉면 호리영살길 121,36.8518642,126.3260561,041-666-2433
노을빛바다 캠핑장B,충남 서산시 팔봉면 호리영살길 121,36.8526183,126.3267094,041-666-2433
복골캠핑장,경남 거제시 삼거6길 4-15 (삼거동),34.8482988,128.6531836,010-8098-3377
거창한 밤 캠핑장,경남 거창군 가조면 조금실길 589,35.6600549644546,128.007530114146,
마운틴오토캠핑장,충남 금산군 금성면 마수로 407-22,36.1476363814504,127.464051730066,
팔공산캠핑랜드,대구 동구 용천로 215 (용수동),35.9707275025431,128.67641192565,0507-1390-6620
담양대나무골캠핑장,전남 담양군 월산면 가산길 364,35.3373625160723,126.948172249509,061-381-8502
클릭,강원특별자치도 춘천시 남산면 북한강변길 68-8,37.8330211833404,127.529228984899,
청화산카라반&캠핑,대구 군위군 소보면 소보안계로 646-36,36.306784490602,128.46215602255,010-5828-8200
전월산 국민여가캠핑장,세종특별자치시 전월산길 54 (세종동),36.5140596126976,127.300259933319,044-850-1379
캠앤캠아지트,경남 밀양시 단장면 구천1길 9-16,35.5396942,128.9226331,
신두57캠핑장,충남 태안군 원북면 신두해변길 201-31,36.8416645,126.1920462,
지리산둥지 캠핑장,경남 하동군 화개면 화개로 946-14,35.2626803,127.6370874,055-882-3366
홍천 반딧불캠핑장,강원 홍천군 화촌면 도심리길 181,37.7864808,127.8960472,
자연속 캠핑장,경남 밀양시 산내면 산내용전길 155-17,35.5521172463239,128.862326046742,010-2577-8161
장흥군 수문랜드 블루투어,전남 장흥군 안양면 수문용곡로 159-36,34.6332120,127.0303201,061-863-5990
파티앤카라반,충남 서산시 부석면 천수만로 658-34,36.6238531265773,126.373973197642,0507-1496-0375
오션 포레스트 캠핑장,인천 강화군 길상면 동검길65번길 93-47,37.5877474918768,126.52396539144,
하루종암,충북 청주시 상당구 미원면 종암3길 19,36.6905900431639,127.627967589247,010-8805-2923
개랭이 오토 캠핑장,전남 순천시 별량면 흑가길 6-1,34.8864165,127.3845028,061-742-4041
피노키오 자연휴양림 야영장,강원도 원주시 신림면 황둔리 903 ,37.2583940,128.1654343,033-0764-3007
동당미펜션 야영장,강원 횡성군 서원면 압곡로 195,37.4752749,127.889276,033-345-5857
준삼형제글램핑,경기 연천군 왕징면 왕산로40번길 21,38.0577920,127.0135435,
대포숲캠핑장,경남 산청군 삼장면 덕산대포로245번길 28,35.2963538,127.8302846,
와룡자연휴양림 자동차야영장,전라북도 장수군 천천면 비룡리 632 ,35.6762189,127.4772179,063-353-1404
임진물새롬센터 오토캠핑장,경기 연천군 미산면 청정로1706번길 119,38.0522806,127.017584,010-4697-5939
피노키오관광농원 야영장,강원 원주시 신림면 소야1길 72,37.2598893,128.1638446,010-7165-3007
태안노을숲캠핑장,충남 태안군 남면 마검포길 311-42,36.6070675,126.2911585,
강릉 노추산 힐링캠프,강원 강릉시 왕산면 노추산로 1271-6,37.5715684,128.7418225,010-6375-3333
대기리산촌체험학교야영장,강원도 강릉시 왕산면 대기리 953번지,37.5879453,128.7770882,033-647-2540
횡성동당미계곡캠핑장,강원도 횡성군 서원면 압곡로 203,37.4921427,127.888178,033-345-5857
벳소캠프,강원 횡성군 우천면 전재호수길 66,37.4321541,128.1062214,
대천해수욕장 야영장,충남 보령시 신흑동 2116,36.3032746,126.517905,041-933-7051
와룡자연휴양림 야영장,전라북도 장수군 천천면 비룡로 538-73 ,35.6783687,127.4778765,063-353-1404
경주캠핑,,,,
계룡산두꺼비,,,,
원산도 해수욕장 야영장,충남 보령시 오천면 원산도3길 116-165,36.3638065,126.4278983,
라곰글램핑,충남 금산군 부리면 적벽강로 398,36.0702220,127.5893913,010-5389-5963
모듬내캠핑장,경상북도 고령군 대가야읍 고아리 620-12,35.7106953,128.270097,054-950-7002
드르니캠핑장,강원특별자치도 철원군 갈말읍 지포2길 71,38.1367016,127.2939704,
따봄스테이,충북 괴산군 청천면 사기막길 30-46,36.7041255662755,127.838037696894,010-3665-7606
화랑 캠핑장,경기 가평군 북면 가화로 1073-162,37.8865138690602,127.541019665719,
더숲 캠핑&글램핑,전남 장성군 북하면 단풍로 1285,35.3830605633922,126.855077438744,061-393-1009
음성농촌관광농원(농업회사법인 하나주식회사),충북 음성군 원남면 상경로 53-42,36.880951970918,127.706967154934,
세모,경북 청도군 청도읍 사기점길 44,35.6110814076738,128.772365826924,
구봉산 숲속야영장,전남 광양시 제철로 1197 (황길동),34.9256413902273,127.662147474334,
내포캠핑스퀘어2,충남 홍성군 홍북읍 용봉산1길 25-1,36.6439225730261,126.660321123386,
사계돔글램핑,경기 양평군 서종면 황순원로 414-47,37.5799211321286,127.386693564598,
밤하늘별캠프,강원특별자치도 양양군 서면 고인돌길 200-13,38.0541598795625,128.578396847726,
신불산 베이스캠프 관광농원,울산 울주군 삼남읍 자수정로 127,35.5370810634874,129.097725129254,
언덕침소캠핑장,충남 태안군 고남면 큰장돌길 273-1,36.4226569367385,126.36264939353,
오션블루스캠핑장,충남 태안군 남면 청포대길 121,36.6442990136604,126.300453639315,
포레스테이,경북 청도군 운문면 운문로 1328-11,35.6779448806279,128.984715386255,
선돌느티나무캠핑마을 영농조합법인,충남 공주시 유구읍 입석길 50-10,36.5920008610579,126.967256634607,
가산산성 야영장,경상북도 칠곡군 동명면 한티로 1034 ,36.0188551,128.6201675,054-979-6093
문수골 힐링캠핑장,경기 김포시 월곶면 문수산로 104-107,37.7403496,126.5355921,031-997-8959
용두해수욕장 숲속야영장,충남 보령시 남포면 용두욕장2길 40,36.2633533,126.5479489,041-933-4005
제주파인비치 카라반,제주특별자치도 서귀포시 남원읍 태위로 976-10,33.2873616,126.7482931,064-764-2918
마장호수 휴 캠핑장,경기도 파주시 광탄면 기산리 459-6,37.7721753,126.9275139,
두리캠핑장,인천시 계양구 귤현동 28-1,37.5705242,126.7630615,010-3824-0426
아지트글램핑,경기 포천시 화현면 화동로477번길 1,37.9088103,127.3073038,
문암생태공원,충북 청주시 흥덕구 무심서로 1097 (문암동),36.6744104,127.4477438,043-200-7741
올덴리조트카라반 울진점,경북 울진군 기성면 망양1길 22-7,36.8406034547668,129.434703865489,
단아하우스,강원 양양군 강현면 진미로54번길 12-1,38.1495719,128.6029164,033-6727-4888
남해에코촌,경상남도 남해군 이동면 무림리 1164-3,34.8047858,127.9548970,0507-1406-3837
더예감스테이,경남 산청군 단성면 호암로 702-22,35.3212687,127.9031091,055-972-9900
계림정야영장,경남 산청군 삼장면 친환경로 967,35.3518707,127.8416895,010-6789-7143
느티나무야영장,경남 산청군 삼장면 대원사길 807,35.3715548,127.7816670,010-4873-7859
둘레길관광농원,경상남도 산청군 시천면 신천리 225-1 ,35.2435760,127.7919829,
산청지막계곡캠핑장,경남 산청군 금서면 왕등재로 307 ,35.3850747,127.8190127,055-974-2800
BABO글램핑,경남 산청군 생비량면 상능로150번길 178,35.3843285,128.0664068,010-3862-5960
가족쉼터,경기 남양주시 수동면 비룡로 1603,37.7548248,127.2720936,031-591-1585
빙계얼음골 야영장,경북 의성군 가음면 빙계계곡길 51,36.2279812,128.7505513,054-833-5101
호두나무캠핑장,충남 천안시 동남구 광덕면 해사동길 15,36.6744096,127.0361375,041-567-0613
섶마리농촌체험휴양마을,경북 청도군 금천면 선암로 455-23,35.6765318603066,128.892029662586,
늘푸른 체험학교,경상북도 영천시 대창면 영지길 100 ,35.8580130,128.9198158,010-4152-1788
반하면 오토캠핑장,충남 공주시 유구읍 명곡2길 149-6,36.6153947,126.953126,
십리포힐링카라반,인천 옹진군 영흥면 영흥북로 376,37.2810341,126.486667,
글램하이 글램핑,인천 옹진군 영흥면 영흥로525번길 63-116,37.2567873,126.450580,507-1482-1094
JH웨스턴 글램핑,경기 가평군 가평읍 북한강변로 326-430,37.7579539,127.5407866,010-8718-6549
해이든 지앤에스,인천 강화군 내가면 고비고개로 663,37.7260868,126.4184451,032-933-9001
캠프 노마드,인천 옹진군 영흥면 영흥로757번길 280,37.2633423,126.4497582,070-8835-6820
금동휴양림캠프3,경기 포천시 신북면 탑신로1112번길 7-105,37.9441168,127.1304054,
포천예담가족캠핑장&글램핑,경기 포천시 관인면 뗏마루길 251-9,38.1085377,127.2524744,0507-1384-6280
해그림 캠핑장,인천 강화군 삼산면 삼산동로 165,37.6688263,126.3751375,
마음껏 남해,경남 남해군 창선면 연곡로 13,34.8702018,128.0407328,055-867-2021
금동휴양림캠프1,경기 포천시 신북면 탑신로1112번길 7-91,37.9455083,127.1304994,
홍천태극캠핑장,강원 홍천군 남면 응아지길 267,37.6777200,127.7590151,
오션빌 글램핑,인천 강화군 화도면 해안남로 2421-227,37.6217822,126.3768692,
흑석산 자연 휴양림,전라남도 해남군 계곡면 산골길 306 ,34.6719718,126.6152381,061-530-5738
STX오토캠핑장,경북 문경시 농암면 청화로 509,36.5681230,127.9639407,054-460-5220
해가빛 캠핑장,충남 서천군 서면 갯벌체험로 56-14,36.1465183,126.5490636,010-5050-5404
둥지펜션 캠핑장,경북 청도군 운문면 운문로 1212,35.6733526,128.9927325,054-372-8468
청천 화양동관광농원 초롱이캠핑장,충청북도 괴산군 청천면 다보길 8 ,36.6436068,127.8849600,043-833-4900
캠퍼휴 태성리 캠핑장,충북 괴산군 칠성면 각연길 136,36.7728894812033,127.904458387476,
복하천 제3수변공원 캠핑장,경기 이천시 경충대로 2434 (진리동),37.2685799348099,127.459716437926,031-645-3807
상세동야영장,,,,
썬글램핑텔,전남 화순군 동면 규봉로 450,35.0786150207587,127.056406645707,
바우어 글램핑,충북 영동군 양산면 금강로 734,36.122603644627,127.600613645848,
여수남파랑캠비치,전남 여수시 화양면 연말길 46,34.6781888369029,127.555242185396,
후영캠핑장,충북 괴산군 청천면 도경로 299,36.7002893352058,127.8040768834,
캠프더쉼,전북특별자치도 완주군 동상면 송광수만로 1079-15,35.9297837238673,127.26884594753,
낙동강 자전거이야기촌 오토캠핑장,경북 상주시 사벌국면 국제승마장로 48,36.4575515470119,128.236879669603,
주식회사캠프온,강원특별자치도 영월군 영월읍 청령포로 227,37.183440175448,128.440631318951,
갯골캠핑장,경기도 시흥시 월곶동 520-240 ,37.3894791,126.7619624,031-488-6998
인천대공원 캠핑장,인천광역시 남동구 장수동 456,37.4552656,126.7499954,032-467-2123
국립중앙과학관,대전 유성구 대덕대로 481 (구성동),36.3754845,127.3751836,042-601-7934
바다물결캠핑장,충남 태안군 원북면 학암포길 21-22,36.8980172260425,126.208669866507,010-5769-6399
도봉야영장,경기 의정부시 창포원로 81 (호원동),37.6953511,127.0468991,
플레이방 월드,경북 안동시 와룡면 이하오산로 96,36.6153463,128.7165625,
메이트 캠핑,강원특별자치도 원주시 신림면 성남로 310,37.2710840,128.0829876,033-766-2747
별빛 오토캠핑장,강원특별자치도 양양군 현북면 법수치길 782,37.9192339,128.6293745,0507-1353-0984
때뿌루해수욕장 야영장,인천 옹진군 덕적면 소야로202번길 86,37.2128747487062,126.174626661344,032-831-6969
휘게캠피크,경기 화성시 우정읍 궁평항로 81-70,37.0521916160824,126.759485766609,
강변나루캠핑장,경기 연천군 군남면 솔너머길 43-75,38.1026463966388,127.019078235249,
독차지 캠핑,강원특별자치도 인제군 기린면 방동약수로 37,37.9486208937761,128.385989415677,
소담(sodam) 캠프닉,전남 담양군 담양읍 내다길 5-34,35.319318972009,126.959501657471,
자파리 캠핑,제주특별자치도 제주시 애조로 866 (노형동),33.4636161051081,126.474722732074,
DMZ 캠핑장,강원도 철원군 철원읍 독서당길 225-134 ,38.2201219,127.1806653,010-4761-7283
구룡레저타운야영장,강원도 원주시 소초면 치악로 3403 ,37.4400428,128.0546124,
그날카라반,전라북도 무주군 설천면 심곡리 651 ,35.9112979,127.7548605,010-4488-5119
금대자동차야영장,강원도 원주시 판부면 영원산성길 372 ,37.2936167,128.0184745,033-763-5232
나봄야영장,전라북도 장수군 천천면 남양리 299-2,35.7027696,127.5132564,063-353-8880
백운산체험농장,경기 평택시 월곡길 124-272 (월곡동),37.0247568,127.1484646,010-5450-8713
용인랜드 숲속캠핑장,경기 용인시 처인구 양지면 한터로454번길 33-17,37.2588591,127.2580518,031-336-3838
청송캠핑장,강원 영월군 무릉도원면 무릉법흥로 1278-8,37.3683199,128.2674725,
국토정중앙천문대야영장,강원도 양구군 남면 국토정중앙로 127 ,38.068868,128.0298507,033-480-7256
바라산자연휴양림 야영장,경기도 의왕시 학의동 북골안길 96 ,37.3732590,127.0163316,031-345-3841
순창향 관광농원 오토캠핑장,전라북도 순창군 구림면 구림로 3-2 ,35.4317796,127.0591936,063-652-9288
양평 베이스캠프,경기도 양평군 경강로 2277-21 ,37.4943740,127.5314361,02-2207-0909
다덕약수관광지 캠핑장,경상북도 봉화군 봉성면 우곡리 500번지 ,36.915984,128.828080,
캠프타임 캠핑장,충남 보령시 청소면 송덕신송길 219,36.4615458,126.5702452,507-1494-419
더 숨 포레스트,경남 창원시 마산합포구 구산면 해양관광로 2010,35.0584996,128.5616160,507-1494-6200
바다풍경관광농원,충남 태안군 소원면 모항파도로 398-76,36.7497892,126.1346367,
포애뜰,경기 포천시 화현면 화동로 218-28,37.8882561,127.303544,
서산클럽아일랜드,충청남도 서산시 운산면 용장리 81-1 ,36.7922112,126.5888167,
아름다운 신수도,경남 사천시 대구길 60 (신수동),34.8939456,128.0747677,
도담2캠핑장,충남 태안군 남면 진산1길 277-104,36.7202954,126.2752562,
태안머드오토캠핑,충남 태안군 남면 진산1길 277-111,36.7219443,126.2736136,
별숲글램핑,울산 울주군 삼동면 산현출강길 73,35.4929626,129.1711880,070-8709-6285
오즈캠핑,충남 보령시 오천면 원산도2길 95,36.3741155,126.4174411,041-934-1201
해미 모꼬지 캠핑장,충남 서산시 해미면 관터로 458,36.7512598,126.5498383,010-7287-8540
광이멀스테이 풀빌라 글램핑,제주특별자치도 제주시 한림읍 월각로 151-2,33.4058384,126.3056599,064-796-8811
야크마을 제주,제주특별자치도 서귀포시 색달중앙로 162 (색달동),33.2694822,126.4169176,064-760-1901
러빙포카라반,경남 통영시 사량면 내지길 22-23,34.8546445,128.1815961,055-646-7787
파도와노을캠핑장,충남 태안군 소원면 아치내길 60-70,36.7335154,126.1309267,507-1446-9688
신두리세븐패밀리캠핑장,충남 태안군 원북면 신두해변길 244,36.8364340,126.1925789,
캠핑 돗가비,경남 밀양시 산내면 임고6길 13-19,35.5728961,128.8713538,
가로림만라모스야영장,충남 태안군 태안읍 안도내길 28-5,36.8125041,126.330090,
청포대솔밭야영장,충남 태안군 남면 청포대길 69-10,36.6405282,126.301775,041-977-3131
에스이(SE)클럽관광농원야영장,충청남도 태안군 이원면 내리 503-31 ,36.9332918,126.294057,
선셋코스트,제주특별자치도 서귀포시 대정읍 노을해안로 232,33.2459661,126.205129,064-794-7065
해씨유,충청남도 보령시 오천면 원산도리 1671-79 ,36.369412,126.399548,
태봉왓,제주특별자치도 서귀포시 대정읍 가파로 101,33.1683488,126.2757007,
선흘리캠핑장,제주특별자치도 제주시 조천읍 중산간동로 1063-24,33.4975998,126.6896961,
제주올레캠핑,제주특별자치도 제주시 애월읍 평화로 2032-18,33.4037073,126.3851334,507-1402-9922
체로키캠핑장 (Cherokeycamp),충남 태안군 남면 진산1길 277-143,36.7243810,126.2723008,
캠프뽀미에,경남 밀양시 산내면 발례로 163,35.5687948,128.8893600,055-355-5255
오오유맨손캠핑,경남 고성군 마암면 당항만로 389,35.0337609,128.374197,0507-1373-8774
무지개카라반,경남 사천시 석양길 196 (대포동),34.9871545,128.0444627,055-834-1008
쉬어가조,경남 거제시 사등면 가조로 232,34.9330260,128.5239646,055-636-7979
초록여울 캠핑장,경남 창녕군 고암면 창밀로 991-6,35.5608157,128.5641568,
도시별장,경남 김해시 김해대로2324번길 37 (봉황동),35.2238949,128.8792575,070-7576-1557
금오산 관광농원,경남 하동군 진교면 구고속도로 374-30,35.0160365,127.8613047,
플라움,경남 김해시 한림면 김해대로1499번길 25-19,35.2801597,128.8383144,055-326-9025
사천 씨씨 카라반 캠핑,경남 사천시 서포면 자구로 60,35.0017058,128.0143163,
상리면어울림문화센터야영장,경남 고성군 상리면 척번정7길 64,35.0001347,128.1877567,
밀양밸리캠핑장,경남 밀양시 단장면 표충로 1077,35.5248575,128.9313334,
쉼표 글램핑&캠핑,경남 거제시 하청면 석포3길 1,34.9573342,128.6032373,0507-1329-1737
와따캠핑장,경남 사천시 서포면 다평로 370-101,34.9942512,127.966808,
회룡농촌체험휴양마을,경남 남해군 서면 남서대로 2645,34.8743402,127.828089,055-863-8888
청학동별빛캠핑장,경남 하동군 청암면 청학로 1688,35.2078872,127.775317,
통영해뜰캠핑농원,경남 통영시 산양읍 산양중앙로 206,34.8015338,128.406404,
더멍스테이,경남 의령군 의령읍 수암로 278-152,35.3150729,128.218464,507-1410-8205
하크베리빌 글램핑 리조트,경남 사천시 석양길 160 (노룡동),34.9841963,128.044775,1661-7160-
언덕캠핑장,경남 고성군 구만면 구만로 1082,35.1004199,128.362965,
숙호야영장,경남 남해군 남면 남면로 219-25,34.7552059,127.9050794,055-860-8605
해브솔캠핑,경남 밀양시 용평로5길 163 (용평동),35.4866735,128.7809233,
호수랑 오토캠핑장,경남 의령군 지정면 함의로 1360-5,35.3745605,128.4025310,
작가캠핑,경남 남해군 창선면 서부로1305번길 106,34.9186204,128.0129322,
노을캠핑장,경남 통영시 평인일주로 327 (인평동),34.8485279,128.3740460,
온새미로 오토캠핑장,경남 함안군 산인면 입곡공원길 291-12,35.2617575,128.4500126,055-580-3423
거창 신원 양지마을 야영장,경남 거창군 신원면 밤티재로 1,35.5847386,127.9583770,055-944-3000
별이랑 달이랑 글램핑,경남 밀양시 단장면 표충로 826-24,35.5214007,128.905434,
더 글래드 글램핑,경남 합천군 대병면 신성동길 50-58,35.5226165,128.0082170,0507-1374-4551
황매산 숲속야영장,경남 합천군 가회면 황매산공원길 263,35.4869844,127.9856823,055-933-4766
초이휴캠핑장,경기 하남시 초이로99번길 49-32 (초이동),37.5426858,127.1676655,507-1336-6
오도산 관광농원,경남 합천군 봉산면 권빈계산로 294,35.6146314,128.0728906,
북한산 둘레캠프,서울 은평구 연서로 608-2 (진관동),37.6479268,126.9389557,02-382-3392
산정호수 마루글램핑 카라반,경기 포천시 영북면 산정호수로 1012-28,38.0892062,127.3212452,
서초바글(바베큐글램핑),서울 서초구 청계산로15길 4 (신원동),37.4431922,127.0591484,
청춘별곡,경남 진주시 금산면 금산순환로587번길 113,35.2090586,128.1535802,55-755-3205
방목리 BBQ 캠핑장,경남 산청군 단성면 석대로281번길 231,35.3248484,127.9242825,
지리산하이웨이 캠핑장,경상남도 산청군 시천면 신천리 8 ,35.2434456,127.8031017,0507-1391-3764
버드오토캠핑장,전북 군산시 강변로 3 (금암동),35.9867330,126.7248310,
한코관광농원야영장,경기 용인시 처인구 백암면 한택로 18,37.0957446,127.4056191,
포레스트 도일,경기 평택시 원릉군길 171-2 (도일동),37.0551560,127.1104547,
글램핑 봄,경기 평택시 팽성읍 계양로 561,36.9413172,126.9915467,031-655-5120
고기하이캠핑장,경기 이천시 백사면 청백리로 217,37.3088885,127.4837977,
글래머스글램핑,경기 포천시 일동면 화동로 1544-123,37.9897026,127.3541650,
포천 몽롱한노을 카라반 캠핑장,경기 포천시 일동면 운악청계로1480번길 90-183,37.9364030,127.3511222,0507-1316-3748
도마치 자연그대로 캠핑장,경기 포천시 이동면 화동로 2318-34,38.0516112,127.3905922,
더히로플레이그라운드펜션&글램핑,경기 포천시 화현면 봉화로 201-89,37.8658797,127.2764931,010-5299-2944
파이브이모션관광농원,경기 용인시 처인구 백암면 고안로181번길 14-29,37.1273582,127.4195315,0507-1494-2051
초이스캠프,경기 포천시 화현면 화동로499번길 58,37.9128452,127.3046847,
농업회사법인 시즌온 주식회사,경기 파주시 적성면 윗배우니길 441-127,37.9620611,126.9626724,
우니메이카 포천점,경기 포천시 창수면 포천로2811번길 148,37.9939584,127.1600998,
휴 캠핑장(승건 관광농원),경기 용인시 처인구 원삼면 보개원삼로 1361-2,37.1183210,127.305982,
서운산캠핑장,경기 안성시 서운면 월구리길 3-80,36.9199956,127.272421,
노블글램핑,경기 포천시 군내면 청군로 2800,37.8655763,127.251061,031-536-3655
(주)캠핑야미,경기 용인시 처인구 남사읍 전궁로95번길 89,37.1071194,127.144519,0507-1441-4644
꿈드림 글램핑,경기 포천시 화현면 봉화로 447,37.8879128,127.278306,
파주 천지연캠핑장,경기 파주시 파평면 파평산로 485-155,37.9035816,126.8267360,010-4038-0026
아웃사이드,경기 파주시 법원읍 자운서원로 110,37.8585034,126.8725673,
하늘향기캠프,경기 포천시 일동면 사기막길 214,37.9600689,127.3515246,
쿠나 글램핑,경기 포천시 이동면 성장로 1118-7,38.0183869,127.3590210,0507-1382-3635
평택항 국민여가캠핑장,경기 평택시 현덕면 장수리 369-3번지,36.9332113,126.8963786,031-686-9428
숲에서 만난 바다 글램핑,경기 포천시 화현면 봉화로 246,37.8718936,127.282304,
안성운모석캠핑장,경기 안성시 서운면 월구리길 3-85,36.9208185,127.2718594,031-674-5070
클럽아일랜드 글램핑카라반,경기 포천시 신북면 지동길 199-10,37.9305369,127.1223147,070-7719-6882
베네치아캠핑장,경기 포천시 신북면 포천로2721번길 197-87,37.9696141,127.1758998,
포천롯지카라반캠핑장,경기 포천시 일동면 화동로 795-40,37.9374342,127.3040000,
코알라캠핑장,경기 동두천시 천보산로 565-1 (탑동동),37.8805886,127.0949657,010-2933-2340
두리랜드 공룡카라반파크,경기 양주시 장흥면 권율로 120-1,37.7248187,126.9516084,
소호랑계곡 캠핑장,울산 울주군 상북면 소호로 463,35.6864863714728,129.085657968273,
느티포레 캠핑바베큐장,경기 양주시 평화로1257번길 57 (산북동),37.8038074,127.0425044,
워크안산 피크닉,경기 안산시 상록구 수인로 923 (건건동),37.2985037,126.9067495,
임진강 캠핑장,경기 연천군 미산면 청정로 1764-14,38.0534961,127.0152797,0507-1364-2069
푸르른 캠핑장,경기 양평군 단월면 향소서정길 13,37.5647187,127.6549613,507-1345-6115
팔현 캠핑1,경기 남양주시 오남읍 팔현로175번길 284-1,37.6999559,127.2598853,
양명힐링캠프,경기 양주시 남면 삼육사로327번길 425,37.9225286,126.9855422,031-858-1004
집 밖으로,경기 양평군 단월면 석산로 832,37.5995199,127.6060217,
베르아델 승마클럽,경기 안산시 단원구 부흥로 376 (대부남동),37.2131933,126.6081985,032-882-2255
글램포레스트 대부도,경기 안산시 단원구 선감로 14 (선감동),37.2335570,126.6260608,
왕모래 카라반 캠핑장,경기 안산시 단원구 대부북동 1688-90,37.2649684,126.5598075,
워크 안산 BBQ,경기 안산시 상록구 수인로 919 (건건동),37.2976689,126.9073211,0507-1373-2237
에코이글루,경기 양평군 청운면 삼백골길 28,37.5520281,127.7903051,507-1382-2025
글로우글램핑,충남 공주시 반포면 원전말길 57-38,36.3844940,127.2623870,041-855-3658
양주잼잼 글램핑&카라반,경기 양주시 장흥면 권율로 60,37.7204202,126.9457605,
든해솔 계곡캠핑장,경상남도 산청군 신등면 정곡척지로 475번길 142-12,35.4026731,127.9639396,055-974-2110
포천그린별캠핑장,경기 포천시 신북면 탑신로 1431,37.9566202,127.1230004,
테토양평캠핑장,경기 양평군 단월면 분지울2길 6-4,37.6152164,127.6701829,02-525-3925
개명연수원 캠핑장,경기 양주시 장흥면 권율로309번길 317-19,37.7483276,126.9450894,
다문188캠핑장,경기 양평군 용문면 예술인마을1길 79,37.4707727,127.6001017,010-9008-0842
다올 오토캠핑장,경기 양평군 양동면 원양1로 155,37.3851964,127.743982,
딩동댕캠핑장,경기 가평군 상면 임초밤안골로 247-14,37.7499061,127.3650999,507-1390-9562
숲속에햇살캠핑장,경기 가평군 상면 아랫벌길 26-316,37.7912891,127.3340639,0507-1397-7281
낭만캠핑장,경기 양평군 서종면 배치골길 99,37.6552473,127.4301733,
만월글램핑,경기 가평군 상면 깃대봉길 17-27,37.7549432,127.4010875,
구르미의 오션,경기 김포시 월곶면 문수산로 174-19,37.7448598,126.5323266,0507-1308-9553
별숲캠핑장,경기 가평군 조종면 연인산로 727-15,37.8625438,127.3924483,
하늘숲빌리지글램핑,경기 가평군 가평읍 태봉두밀로 319,37.8149511,127.4651416,0507-1480-0635
숲속다람쥐 캠프,경기 가평군 설악면 봉미산안길13번길 156,37.6283489,127.5328442,
클라우드 나인,경기 가평군 상면 수목원로386번길 30,37.7471543,127.350715,
포쉬카라반,경기 가평군 조종면 연인산로 670-272,37.8546307,127.401070,
디프라이빗가평 (D. private Gapyeo g),경기 가평군 북면 논남기길 466-35,37.9680289,127.4165944,
(주)너의아지트가되어줄게,경기 가평군 설악면 묵안로 746-20,37.6170972,127.5184552,
운양캠프,경기 김포시 김포한강11로255번길 107 (운양동),37.6600269,126.6787751,0507-1352-1232
중랑가족캠핑장,서울 중랑구 망우로87길 110 (망우동),37.6049896,127.1093075,
완도 명사십리 오토캠핑장,전남 완도군 신지면 해양치유길 54,34.3298246,126.8117379,061-552-3179
트라움 풀 빌라 글램핑&카라반,경기 가평군 상면 임초리 92-2,37.7696680,127.3777376,0507-1398-3223
명달 야영장,경기 양평군 서종면 화서로 854-17,37.6291745,127.4429839,
캠프1975,경기 가평군 조종면 연인산로 606,37.8554167,127.3854556,
산마을글램핑,경기 가평군 가평읍 태봉두밀로 530-21,37.8138727,127.4439452,
캠핑포유야영장,경기 가평군 북면 싸리재길 66-8,37.8975905,127.5738844,
2918캠핑스테이,경기 가평군 가평읍 당목가일길 473-47,37.8734493,127.5619131,
필(FEEL) 캠핑장,경기 화성시 서신면 해양공단로100번길 34-28,37.1764861,126.6710696,031-355-2802
탐선골캠핑장,경기 가평군 설악면 탐선길 15-1,37.6761274,127.4818839,
일칠일관광농원,경기 가평군 청평면 우무내길 77,37.7455834,127.4370014,0507-1417-0493
포레스트,경기 가평군 가평읍 가화로 440-147,37.8538186,127.508954,
한알캠핑장,경기 가평군 설악면 어비산길 211,37.5919079,127.5114138,
까사스위스 캠핑장,경기 가평군 설악면 다락재로 231-14,37.6655057,127.4518123,0507-1411-9079
유명산 계곡 캠핑장,경기 가평군 설악면 어비산길 201-41,37.5918631,127.5137288,
가평 쉼 캠핑장,경기 가평군 북면 화악산로 686-23,37.9376239,127.5592656,
돌궁캠핑장,경기 가평군 설악면 어비산길 53,37.5980162,127.4977299,070-4364-9567
아워 포레스트,경기 가평군 가평읍 가화로 440-117,37.8551282,127.5090231,010-3794-1166
그로브,경기 가평군 설악면 유명로 1007-93,37.6260016,127.4845500,
우프캠프,경기 화성시 향남읍 양석골길 40-39,37.1104571,126.9379512,0507-1452-1535
캠프봉봉,경기 가평군 설악면 미사리로 666-30,37.7098381,127.5421034,507-1458-7752
매향리 캠핑장,경기 화성시 우정읍 고온리안길102번길 31,37.0379638,126.746212,
별빛사이,강원특별자치도 평창군 용평면 금당계곡로 2195,37.5771918,128.4038228,010-5061-7079
라만차의 돈키호테 캠핑장,강원특별자치도 정선군 화암면 그림바위길 1-23,37.3454591,128.7891948,507-1381-5830
평창바샘캠핑장,강원특별자치도 평창군 봉평면 봉평북로 324-27,37.6159993,128.3453184,507-1396-540
정선 달별빛 캠핑장,강원도 정선군 여량면 유천리 723-5 ,37.5160612,128.7118944,
산마을 풍경,강원 평창군 봉평면 흥정계곡4길 233-9,37.6605247,128.308241,507-1364-1145
우니메이카 정선,강원 정선군 남면 광락로 74-27,37.3231524,128.707724,033-1668-3972
코끼리마을,강원 평창군 미탄면 평창동강로 416-55,37.3068414,128.530809,033-336-0591
600마지기 가는길 야영장,강원특별자치도 평창군 미탄면 청옥산길 243,37.3613156,128.4903624,033-333-3886
이루다글램핑,강원특별자치도 철원군 근남면 하오재로 1203-16,38.1715472,127.4600097,
대부도(영흥도)산촌카라반,인천 옹진군 영흥면 영흥남로 138-38,37.2451922,126.462589,
도원리 마을관리휴양지 야영장,강원 고성군 토성면 도원2길 50,38.2671967,128.4686535,
마루지 캠프,강원 평창군 봉평면 진조2길 437,37.5652344,128.3045324,
O2카라반,강원 삼척시 근덕면 초곡길 370,37.3094410,129.2877333,
가곡 유황온천 국민여가캠핑장,강원 삼척시 가곡면 가곡천로 1512,37.1521016,129.207975,033-574-1700
평창 국민여가캠핑장,강원 평창군 방림면 뇌운계곡로 829,37.4275606,128.385870,033-339-9039
솔비알 캠핑장,강원특별자치도 평창군 봉평면 진조2길 281,37.5561405,128.3168811,
월드클래스,강원특별자치도 홍천군 두촌면 부채들길 41,37.8349899401199,128.017710436621,033-434-6565
야단법석,강원특별자치도 영월군 무릉도원면 도원운학로 920-3,37.2932339,128.2018657,
청우재 캠핑장,강원특별자치도 영월군 무릉도원면 백년계곡길 133,37.3763565,128.2712728,
하우스 캠핑장,강원특별자치도 영월군 무릉도원면 무릉법흥로 968-23,37.3444892,128.2807503,010-3063-2255
더좋은날 캠핑,강원특별자치도 영월군 무릉도원면 도원운학로 1624-6,37.3410282,128.1959014,010-3441-4625
키즈락 캠핑장,강원특별자치도 원주시 신림면 송계리 320-4 ,37.2913986,128.200246,
(주)산들링크,강원특별자치도 영월군 북면 막골길 131,37.2957533,128.4774093,
㈜어메이징캠프,강원특별자치도 영월군 무릉도원면 도원운학로 867,37.2935370,128.2041680,
구름품은 캠핑장,강원 영월군 김삿갓면 솔숲길 503,37.1448561,128.6041696,
힐링인더 포레스트,강원 영월군 주천면 신흥동길 212,37.2717921,128.2256755,0507-1377-8972
리버사이드 영월,강원 영월군 무릉도원면 아래골길 20-9,37.2925618,128.276024,0507-1401-9009
동강 산수 캠핑장,강원 영월군 영월읍 둥글바위길 10,37.2010690,128.506247,
꿈꾸는 강 펜션 & 카라반,강원 영월군 영월읍 동강로 1515,37.2729363,128.528906,033-375-0780
꼬꼬토피아 캠핑,강원 영월군 주천면 황산벌길 186,37.2195171,128.277926,
충남 금산 캠핑놀이터 캠핑장,충남 금산군 부리면 창덕로 26,36.0685000854533,127.536096506185,0507-1362-0673
초록빛마을 관광농원 야영장,강원특별자치도 화천군 간동면 오봉산길 133-9,38.0179406,127.8172107,
조이파크,경기 양평군 용문면 용문삼성로20번길 73-2,37.4675086,127.565133,
가평 제이캠핑장,경기 가평군 북면 화악산로 938-16,37.9384235587285,127.540803540377,
신림스테이캠프,강원특별자치도 원주시 신림면 신림황둔로 604,37.2502467,128.1297347,10-2028-1845
원주 우리 캠핑장,강원특별자치도 원주시 신림면 신림황둔로 972,37.2486796,128.1675391,
또와또 오토캠핑장,강원특별자치도 화천군 상서면 만산동로 930,38.1395281,127.6165096,
횡성 태기산 별밤 캠핑장,강원특별자치도 횡성군 청일면 청일로 607,37.5815087,128.1934123,
월강캠프,강원특별자치도 횡성군 강림면 월강길 100,37.3552714,128.1522911,
산수향 야영장,강원특별자치도 횡성군 서원면 옥계6길 66,37.4403198,127.8544648,
칠봉 송정 캠핑장,강원특별자치도 원주시 호저면 칠봉로 533,37.4403237,127.8865536,033-732-1162
별보는 마을,강원 원주시 귀래면 고청길 9,37.2241423,127.863467,
봉바위돌집 캠핑장,강원특별자치도 원주시 호저면 칠봉로 758,37.4524911,127.8918446,33-732-9143
라하 글램핑,강원특별자치도 원주시 소초면 상초구길 35-17,37.3807591,128.0069232,0507-1322-7886
팜스프링 야영장,강원특별자치도 횡성군 우천면 전재호수길 168,37.4255903,128.1141013,010-4869-8831
가자 GO캠핑 야영장,강원특별자치도 원주시 신림면 신림황둔로 806,37.2489014,128.1518076,
원주두리캠핑장,강원 원주시 신림면 신림황둔로 974,37.2485550,128.1687676,010-3806-8469
비체올린,제주특별자치도 제주시 한경면 판포리 725 ,33.3496453,126.2178999,064-773-0000
새말캠핑장,강원 횡성군 우천면 봉화로 281,37.4642355,128.1019177,
귀촌 야영장,강원 횡성군 갑천면 병지방길 237,37.6181407,128.0811950,
오클라 캠핑장,강원도 횡성군 갑천면 삼거리 227-29 ,37.5645980,128.0643113,
동지화캠핑장,강원 화천군 화천읍 노신로 241-45,38.1282888,127.6977063,010-4983-4720
가평캠핑장마운틴뷰,경기도 가평군 상면 행현리 491-16 ,37.757373821239,127.360172713843,010-7376-6733
느티나무 캠핑장,강원도 영월군 김삿갓면 내리계곡로 1061 ,37.0901044,128.7130461,070-8064-5833
힐링브릿지캠프,강원특별자치도 춘천시 남면 박암관천길 511-24,37.7230596,127.5363981,
(주)소풍앤리조트,강원특별자치도 춘천시 동산면 윗성골길 38-1,37.7589184,127.8460249,033-432-6006
가평 글램스테이 글램핑 카라반 펜션,경기 가평군 조종면 연인산로474번길 91-82,37.8444704,127.386859,031-584-7755
블포 풀글램핑 (베토벤마을),강원특별자치도 홍천군 서면 한서로 1590,37.6463144,127.6431610,507-1492-4889
바나나 캠핑장,강원특별자치도 홍천군 내면 을수길 183,37.8153402,128.4629017,
생슐피스,강원특별자치도 홍천군 내촌면 경신들길 133-13,37.8073704,128.0651488,0507-1394-3695
제제캠프,충북 청주시 흥덕구 강내면 사곡1리태양길 3-43,36.582285523243,127.325016149498,
캠핑엔조이,경기 파주시 적성면 윗배우니길 68,37.9738770226566,126.948075888053,
와우파크,강원 강릉시 사천면 공회당길 7-13,37.8410451,128.8724917,033-651-0202
굿나잇 캠핑장,강원 홍천군 화촌면 도심리길 151,37.7841138,127.8966678,0507-1341-1604
마운틴87,강원 홍천군 북방면 도사곡길 260,37.7139017,127.8222027,
캠프 어라운드,강원 홍천군 서석면 피리골길 505,37.6651559,128.243168,
비발디캠핑파크 미루나무점,강원 홍천군 홍천읍 미루나무길 208,37.6549718,127.865036,0507-1339-3593
반디캠프,경기도 파주시 광탄면 기산로 207,37.7751154,126.9217065,
거제 순수 풀앤뷰,경남 거제시 거제면 거제남서로 4411,34.8280952544236,128.515133713329,010-3260-0497
농다리캠핑장,충북 진천군 문백면 평산3길 35,36.81863426048,127.476548463983,010-7243-7358
별빛가득 야영장,경북 성주군 선남면 도성3길 22-27,35.8837844,128.3709665,054-931-2489
캠프나인,강원특별자치도 춘천시 남면 충효로 1752,37.7606322,127.570460,0507-1322-2025
햇살글램핑,강원 인제군 남면 자작나무숲길 140-25,38.0154805,128.145252,033-463-6662
템플 온더 비치,강원 양양군 현남면 창리길 19-1,37.9701526,128.759065,010-3149-1900
원대리751 글램핑,강원 인제군 인제읍 자작나무숲길 870-3,38.0066351,128.206461,507-1401-1420
인제 스테이 밸리 캠핑,강원특별자치도 인제군 남면 부평정자로 608,37.9646343,128.1309056,507-1390-7662
갯골자연휴양림 야영장,강원특별자치도 인제군 인제읍 남북리 709 ,38.0822505,128.125936,033-463-3511
스테이NAMU(스테이나무),강원 양양군 현남면 임호정길 110-24,37.9195448,128.7914264,0507-1395-2516
모모글램핑,경기 가평군 북면 가화로 1462-40,37.8979196099545,127.508299885944,0507-1411-2417
오페라838,경기 포천시 영북면 산정호수로 838-2,38.0775622220114,127.325103766306,
이티성 더 글램핑,충북 청주시 상당구 미원면 미원초정로 970-9,36.698187642083,127.607129631054,
라일락정원 캠핑장,경기 포천시 영중면 성장로 219-10,38.0250866462104,127.283421499635,
하늘숲 야영장,전북특별자치도 익산시 금마면 황금로 862,36.0098401935782,127.017996508753,
산정원,경기 안성시 양성면 양성로 349-27,37.0851430317802,127.202487785423,0507-1317-2807
항상 Village 캠핑장,경기 가평군 조종면 운악청계로 1089,37.9030817184248,127.343858638736,
신포 힐링타운 야영장,강원특별자치도 춘천시 사북면 신포길 114-13,38.0211414065023,127.653504503668,
하늘숲 오토캠핑장,경북 포항시 북구 죽장면 죽장로 1086,36.2109499704803,129.178956396057,
강화 오션 뷰 캠핑,인천 강화군 길상면 해안남로 779-13,37.6056630320999,126.479867531901,
리틀 포레스트,경북 경주시 양남면 신대로 202,35.6684137181605,129.398285158187,
곡신야영장,대구 군위군 부계면 치산효령로 1174-2,36.0925781717234,128.682198634783,
뮬리아 글램핑,전남 여수시 돌산읍 돌산로 3065-23,34.6959191822823,127.76224380639,0507-1388-0344
레드우드캠핑장,경기 가평군 북면 가화로 2841,37.9747402372373,127.441416312091,
비토애럭셔리글램핑,전남 여수시 돌산읍 안굴전길 59-13,34.6953663970225,127.773253914915,
다목적광장 야영장,경기 양평군 양동면 계정점말길102번길 195,37.4392941,127.7871673,031-240-8923
할매야영장,경남 하동군 청암면 청학로 1825-8,35.2111212,127.7640257,
자유캠핑장,경남 하동군 옥종면 옥단로 1795-17,35.2447534,127.8852610,
감이야기 캠핑장,경북 청도군 운문면 신원4길 18,35.6659701,129.0012250,
민주지산자연휴양림,충북 영동군 용화면 휴양림길 89,36.0537718,127.8268382,043-740-3346
버디버디,충남 태안군 남면 진산1길 277-200,36.7245804,126.2728859,041-674-2566
별밤 야영장,경기 안성시 삼죽면 개나리길 138-20,37.0484473,127.3742318,010-8583-3451
(주)밀모빨강치마자동차야영장,전라북도 무주군 적상면 밀모길 79-30,35.9324066,127.6696108,063-322-7000
별빛캠핑장,강원도 영월군 양지마을길 38-11 ,37.3457004,128.2030616,010-7341-5858
제천공전자연캠핑장,충북 제천시 봉양읍 의암로 345,37.1143359,128.0794279,
옥수골계곡펜션야영장,전북 무주군 적상면 옥소동길 52,35.966889,127.7162935,063-324-8833
힐링캠프 제이앤엘(J&L),경기 가평군 상면 수목원로 300-82,37.7545758,127.3574604,
에코관광농원,경북 구미시 산동읍 인덕1길 132-20,36.1737123802006,128.467665598252,
정화네불한증막 힐링캠프,전북 정읍시 고부면 덕신강길 148-4,35.6015085,126.7615335,063-535-2552
백운산수련관 야영장,전남 광양시 옥룡면 동곡리 4-6,35.0692864,127.6320322,061-790-4929
백운제 농어촌테마공원 자동차 야영장,전남 광양시 봉강면 지곡길 212,35.0067685,127.581401,061-797-3538
더 라이온 글램핑,경기 가평군 가평읍 태봉두밀로 165,37.8120874969365,127.473493112948,010-3114-4427
사선대캠핑장,전북 임실군 관촌면 춘향로 3441-26,35.6681237,127.2669720,
고성 장좌리 캠핑장,경남 고성군 동해면 구절로 200,35.0096808,128.4495543,
캠프 해놀,충남 태안군 원북면 옥파로 1023,36.8873191460121,126.200997270995,
레끄레오캠핑장,경북 청도군 금천면 선암로 387-116,35.6748689,128.8875854,070-4261-4347
청도 글램핑 소굽놀이,경북 청도군 금천면 교동길 59-49,35.7252790,128.8501385,
리라 캠프,강원 양양군 서면 남대천로 855,38.0202460,128.613344,
북분솔밭캠핑장,강원특별자치도 양양군 현남면 북분리 2-18 ,37.9860295,128.750316,
달꿈 오토캠핑장,충남 천안시 동남구 병천면 관성3길 320-1,36.8206670457926,127.348865372909,0507-1390-5728
캠프1361,경기 용인시 처인구 원삼면 보개원삼로 1361,37.1156146470814,127.308034920208,
간절곶풍차,울산 울주군 서생면 해맞이로 1236-28,35.3603971806404,129.356808961853,010-2353-0275
신대리야영장(주식회사 태기산마을 농업회사법인),강원특별자치도 횡성군 청일면 청일로737번길 10,37.5871284,128.2055262,010-3469-7675
블루베리캠핑장,경기 동두천시 쇠목길 356-19 (광암동),37.9083489,127.112740,0505-007-1055
다올 캠핑장,충북 진천군 백곡면 백곡로 699-15,36.8829557154086,127.355604846199,
강변사리 캠핑장,전라북도 임실군 덕치면 강동로 865-20,35.4952009,127.1900106,063-642-5351
하늘구름길 캠핑장,전라북도 임실군 성수면 왕방길 199-4 ,35.6259446,127.3878958,
방길낚시캠핑장,전북 임실군 신덕면 삼길1길 155-77,35.6822033,127.1321874,0507-1375-9057
성수산 왕의숲 국민여가캠핑장,전북 임실군 성수면 성수산길 374,35.6376897,127.4078863,063-642-6068
제주 자연인 글램핑,제주특별자치도 제주시 아란서길 110-0 ,33.4687254,126.5399565,010-3207-0018
휴정원글램핑,전남 해남군 삼산면 가재길 48,34.5389869574026,126.617712479472,
달천공원오토캠핑장,경상남도 창원시 의창구 북면 달천길 150 ,35.2822939,128.5998171,055-297-9000
세이지힐 패밀리캠핑장,강원특별자치도 홍천군 남면 남노일로 479-22,37.6444068619485,127.771070079242,033-432-8259
성수 캠핑장,경기 파주시 탄현면 방촌로628번길 25-97,37.8008089241319,126.723198091256,031-935-6113
캠핑808,충북 충주시 동량면 미라실로 689-1,37.0097947,128.0485467,010-4474-8089
인제나르샤파크캠핑장,강원특별자치도 인제군 인제읍 비봉로44번길 81,38.0605052,128.1678329,033-461-0141
정선군생태체험학습장야영장 펫 동반 캠핑장,강원도 정선군 정선읍 동강로 2908,37.3600097,128.6257603,033-560-3471
앙티브,경기 가평군 상면 수목원로 262-34,37.7551124,127.3589249,031-584-2400
포천두꺼비,경기 포천시 신북면 포천로 2447,37.9666339,127.1902824,0507-1434-3082
남서야영장,경상북도 울릉군 서면 남서리 63-1 ,37.4704559,130.8338106,
탄금호 피크닉 공원,충북 충주시 중앙탑면 중앙탑길 150,37.0240369,127.8621570,070-4282-0276
부엉캠핑클럽,전북특별자치도 완주군 운주면 산북신복길 125-62,36.0854667077136,127.354752852786,
풀글램핑&펫글램핑,경북 포항시 남구 호미곶면 일출로 606-37,36.0430264,129.5804904,0507-1319-4411
선재담 글램핑&카라반 리조트,인천 옹진군 영흥면 선재로226번길 130-37,37.2559514520782,126.524510252637,032-880-9903
포천 글램파크 글램핑 카라반,경기 포천시 이동면 화동로 1925-47,38.020013227585686,127.36911105356124,
세이지힐 오토캠핑장,강원 홍천군 남면 남노일로 479-24,37.6442148,127.7700099,033-432-8259
정원워케이션,전라남도 순천시 해룡면 대안리 1054-1 ,34.9296985,127.5095455,061-746-2963
포항 서숲 오토캠핑장,경북 포항시 북구 기계면 기계로212번길 34,36.0786188410106,129.199223410444,070-4270-3296
팔공산국립공원 도학 야영장,대구 동구 팔공산로237길 47 (도학동),35.9817163022279,128.703356093483,053-984-8418
초정216,충북 청주시 청원구 내수읍 미원초정로 1238,36.7126713,127.6088597,0507-1492-8273
오로라 카라반,경북 경주시 동방안1길 47 (동방동),35.8058887,129.2661835,
예천패밀리파크,경상북도 예천군 호명읍 산합리 84-3 ,36.5711993,128.490728,
솔맹이캠핑장,충북 괴산군 청천면 문장로 3097-1,36.6712087,127.862292,
국립김천숲속야영장,경북 김천시 대덕면 조룡길 865,35.9489008163705,127.95427307283,054-435-7257
숲캠핑장,충북 괴산군 청천면 금평로 18-1,36.6768467864025,127.75787870771,
천왕산 가족캠핑장,서울 구로구 연동로12길 149 (항동),37.4800812,126.8316073,02-2066-7004
영흥도어울림캠핑장,인천 옹진군 영흥면 영흥서로 452-67,37.2827113,126.4552180,0507-1409-8686
영도 마리노 오토캠핑장,부산광역시 영도구 청학동 330-119 ,35.1021476,129.0613840,051-412-9114
SOL Campi g,충북 괴산군 연풍면 원풍로새터길 68,36.8032645,128.0235752,
계룡산 갑사자동차야영장,충남 공주시 계룡면 갑사로 451,36.3729373,127.1781203,041-881-3007
평화누리캠핑장,경기 파주시 문산읍 임진각로 148-40,37.8920434,126.7447929,0507-1402-8338
북한산농바위캠핑장,경기 고양시 덕양구 북한산로387번길 180 (지축동),37.6672044,126.9498632,010-9002-9140
구곡폭포 국민여가 캠핑장,강원 춘천시 남산면 강촌구곡길 324,37.7949223,127.6086596,033-261-7230
소요별앤숲테마파크,경기 동두천시 평화로2922번길 76 (상봉암동),37.9501496127196,127.06598663528,031-865-6105
삼강나루캠핑장,경북 예천군 풍양면 삼강리길 47-14,36.5643444,128.3007398,054-652-5554
어반캠핑 마장호수,경기 파주시 광탄면 기산로 367,37.7745163,126.9325290,010-7291-3565
덕유대 자동차야영장,전라북도 무주군 설천면 삼공리 산60-5 ,35.8927071,127.7765373,063-322-3173
소백산삼가야영장,경상북도 영주시 풍기읍 삼가로 476,36.926357,128.502086,054-638-6196
증산수도계곡캠핑장,경북 김천시 증산면 수도길 25,35.8612594,127.9964744,054-434-2565
학동자동차 야영장,경남 거제시 동부면 거제대로 981,34.7774188,128.6415014,055-635-5421
금은모래 캠핑장,경기도 여주시 강변유원지길 107 ,37.2939603,127.6658520,031-880-4095
대호레져글램핑,충북 충주시 동량면 미라실로 691,37.0090121,128.0490433,043-852-4118
더 하루만 캠핑장,충북 괴산군 청천면 괴산로상신5길 6-10,36.6344992,127.7823824,
도깨비캠핑장,충남 공주시 의당면 요골길 46-5,36.5246100,127.136483,
깨비깨비,충남 천안시 동남구 성남면 신사1길 28-3,36.7452269293829,127.235192225153,0507-1469-0185
초정힐링캠핑장,충북 청주시 청원구 내수읍 신기초정로 696,36.7196086770306,127.596960793701,0507-1393-8492
솔바비큐 야영장,경기 이천시 경충대로 2900 (사음동),37.2942962938698,127.422278321909,
아리아글램핑,경기 양평군 서종면 노문길96번길 16-42,37.6371344671961,127.421614972324,
별빛담은캠핑,경기 가평군 조종면 명지산로 337-321,37.9071587603962,127.380313954896,0507-1378-2368
다온숲 노을 캠핑정원,경기 파주시 탄현면 새오리로339번길 77-27,37.8159711553968,126.688266329186,0507-1365-3214
화성리프레시글램핑,경기 화성시 서신면 안벼슬길102번길 205,37.1586486565969,126.742919788574,0507-1374-4472
거창산림레포츠파크,경남 거창군 고제면 빼재로 2099-35,35.8591124419584,127.829752746525,
자작 캠핑장,충북 제천시 의병대로 986 (자작동),37.1151040147618,128.292337902853,
밀양캠프밸리 관광농원,경남 밀양시 산내면 얼음골옛길 284-26,35.5766360607856,128.97599898673,0507-1477-8035
강천산 오토캠핑장,전북특별자치도 순창군 팔덕면 강천산길 5,35.4091373668239,127.078048177632,
단양 글램핑&펜션,충북 단양군 단성면 선암계곡로 1080-33,36.8924939667472,128.308237029038,
치악산자연휴양림 야영장,강원특별자치도 원주시 판부면 휴양림길 66,37.2558743720056,128.031373702479,
디뮤어 카라반,강원특별자치도 강릉시 연곡면 부연동길 619,37.8549473043731,128.629199431548,0507-1372-8110
숲202글램핑,경기 포천시 소흘읍 죽엽산로447번길 24-30,37.7915075114241,127.169800772521,
나무와 쉬리,경기 파주시 적성면 율곡로 1571,37.9619854926841,126.861318561977,0507--7658
텐파크캠핑장,강원특별자치도 춘천시 남산면 북한강변길 80,37.83426399379,127.529479256228,
갤럭시엑스 스페이스 캠핑,강원특별자치도 평창군 봉평면 거품소길 269,37.558311283636,128.389581389691,0507-1353-4334
솔모닝캠핑,경기 가평군 상면 수목원로 193-1,37.7612452685805,127.363045761871,
디여라 야영장,경북 안동시 도산면 가송길 134,36.765218199894,128.891469663168,
빨래터캠핑장,경북 고령군 덕곡면 지사동길 95,35.7623305292829,128.247002336156,
힐링캠프,경기 양주시 광적면 쇠장이길 755-64,37.7980674095575,126.917058468105,0507-1312-3002
오시오 캠프,경남 남해군 설천면 강진로 655,34.9378033951294,127.909096143622,
금강호 국민여가 캠핑장,전북특별자치도 군산시 성산면 성덕리 409-1 ,36.0202772651684,126.763564242219,
라온,경북 경주시 천북면 갈곡성지길 174-42,35.8917547443898,129.291147937382,
계수나무 힐링숲,강원특별자치도 춘천시 남면 대곡길 20-69,37.743424360864,127.568355235226,
물멍 캠프,경기 가평군 조종면 명지산로 327-55,37.9006025607285,127.36978736787,
가온휴양빌리지 계곡 글램핑 카라반 캠핑,강원도 홍천군 서면 한서로 1304,37.6432921,127.6200504,033-433-9942
하너미 캠핑장,충북 충주시 앙성면 하너미로 501-3,37.0840605,127.7479529,043-854-0054
황우거주식회사,강원 횡성군 공근면 창봉1길 117,37.5639929,127.9447428,
북한산 사기막야영장,경기 고양시 덕양구 북한산로618번길 130 (효자동),37.6762165,126.9646347,02-388-3301
보령교육가족체험장,충남 보령시 주포면 향교말길 129,36.4091488,126.5981631,
낙화담캠핑장,경북 칠곡군 지천면 지천로 395-70,35.9720178,128.4852755,0507-1472-7032
산아래 글램핑,전남 여수시 율촌면 서부로 1330,34.8365752,127.558209,0507-1428-3430
별빛정원,전북특별자치도 정읍시 하북1길 101 (하북동),35.593164398512,126.854468006116,
원더 포레스트,충북 괴산군 청천면 도경로여사왕2길 4-67,36.7408630607933,127.758761808543,
사천파인트리캠핑장,경남 사천시 축동면 화당산로 10-13,35.096271812248,128.043458681976,070-8828-3214
교래자연휴양림 야영장,제주특별자치도 제주시 조천읍 남조로 2023 ,33.4416045,126.6646731,064-784-7314
안성맞춤 캠핑장,경기 안성시 보개면 남사당로 198-5,37.0343735,127.3088548,031-677-8267
포안캠핑,강원특별자치도 영월군 무릉도원면 두산길 125,37.3120736701298,128.178516353167,010-8674-1426
홍천높은터캠핑장,강원 홍천군 홍천읍 높은터로 235,37.6483474,127.8457640,
해랑해관광농원 캠핑장,충남 태안군 이원면 사관로 264-78,36.8639895,126.3012525,010-9682-2250
진수캠퍼스,경남 양산시 원동면 어곡로 562,35.3580815794812,128.988661656746,
오도치 캠핑장,강원특별자치도 홍천군 서면 오도치길 427,37.6539801322415,127.705664820505,010-2891-5624
호랑이캠핑 한탄강점,경기 포천시 영북면 방골길 507-1,38.0705914435223,127.228256273192,070-4114-3258
정양레포츠공원 오토캠핑장,경남 합천군 대양면 정양리 613,35.5581982,128.1667524,055-933-7729
낙동강 레포츠밸리 강변오토캠핑장,대구광역시 달성군 구지면 오설리 873,35.6727715693727,128.368177221338,053-659-4153
성북동 숲속야영장,대전 유성구 성북로 463 (성북동),36.3151801492719,127.281517146125,042-825-3807
주막거리캠프,경상북도 영주시 부석면 영부로 871 ,37.0398878,128.6684064,010-3540-0470
글램킹 글램핑,전남 함평군 함평읍 장년길 40,35.0941925,126.4768727,
비앙드팜,경기 양평군 강하면 강하1로 380-6,37.4554428,127.3929138,031-8027-6667
파이브이모션,경기 가평군 설악면 자잠로282번길 72-95,37.7000072,127.4999433,
닮다  담다 153,대구 달성군 유가읍 본말리 1010,35.6427432912673,128.481057907537,
은하수 캠핑장,경기 양주시 남면 감악산로514번길 468-8,37.9220570,126.9667082,010-4663-0774
H campi g,강원특별자치도 홍천군 서면 팔봉산로 994,37.6978167919343,127.688796733399,
산오마켓,경기 여주시 금사면 금품1로 468,37.4052299058585,127.48132441545,0507-1437-7767
더쉼 글램핑,전남 고흥군 도덕면 천마로 735,34.5281863033568,127.199400327272,
단밀오토캠핑장,경북 의성군 단밀면 도안로 734,36.3504774149274,128.304921033364,
파주발랑캠핑타운,경기 파주시 광탄면 부흥로 593,37.8063985202741,126.908573503886,1555-5580-
유토피아 오토캠핑장,충청남도 논산시 벌곡면 수락로 669-54 ,36.1964729,127.2919424,041-733-1002
내소힐링캠프,전북특별자치도 부안군 석포리 314-3,35.6101781896942,126.582366271517,
코티지 캠핑,제주특별자치도 서귀포시 안덕면 감산서로 55,33.2584306,126.349892,
보광농촌체험휴양마을,강원 강릉시 성산면 보현길 5,37.7373336,128.8071822,033-641-7890
BE HAPPY,경북 문경시 가은읍 죽문길 206,36.6541198979948,127.99417280342,
내원야영장,경상남도 산청군 삼장면 대포리 산 106-2 ,35.2967767,127.8124104,055-972-7775
골짜구니 캠핑장,강원 양양군 서면 구룡령로 1807,37.9639747,128.5159794,
에코밸리 캠프,경북 경주시 산내면 문복로 506-16,35.6790175,129.0510546,
화장산 캠핑장,울산 울주군 상북면 향산다개로 136-116,35.586111664433,129.118161543926,0507-1315-7839
메이플 포레스트,강원 양양군 현남면 북죽로 110-25,37.9808572,128.7402176,
큰집 관광농원 감성 캠핑,충남 아산시 음봉면 산정길9번길 32,36.8549138705179,127.005421700445,
삼밭골글램핑,경상북도 영천시 삼밭골길 107 ,35.9898702,128.9404502,010-6822-8807
소나무 캠핑장,충북 단양군 가곡면 새밭로 794,36.9889688,128.4548777,010-3061-8329
월성 산아래 글램핑,전라남도 장성군 북하면 월성안길16-33,35.3504375,126.8629648,061-392-6307
케이블카파크랜드 오토캠핑장,경남 통영시 발개로 172-24 (도남동),34.8235945,128.4226330,055-645-2245
더담다 캠핑장,전남 화순군 이양면 람덕길 28-46,34.8520417,127.0497672,061-375-5678
원산도 소록도 (한시) 일반야영장,충청남도 보령시 오천면 원산도리 1860-6 앞 공유수면 ,36.3628195,126.4341187,
가평조이글램핑,경기 가평군 북면 멱골로272번길 9,37.9132053,127.5766743,
초전바다숲야영장,경남 남해군 미조면 동부대로14번길 34,34.72768563018,128.033646773935,
팜데이,충북 제천시 탑안로 291-10 (고암동),37.1569887441054,128.233308992811,0507-1484-9770
코튼 글램핑장,경기 가평군 청평면 북한강로 1929,37.6897802543971,127.388040266308,0507-1346-1603
갈화오토캠핑장,경상남도 남해군 고현면 갈화리 222-5,34.8975078731964,127.840613275216,
몽산포해변캠핑장,충청남도 태안군 남면 신장리 355-63  -64  -84 ,36.6707521559233,126.288545496281,
수푸로 카라반,강원특별자치도 속초시 장성천길 61-25 (장사동),38.2076649345092,128.551117524765,
Lazy Joe,경기 양평군 서종면 거북바위1길 58-17,37.571125076249,127.42201186603,
방산면 송현리 캠핑장,강원특별자치도 양구군 방산면 송현리 1095-28 ,38.2210148116006,127.956256331754,
메리글램핑,인천 옹진군 영흥면 영흥로525번길 63-124,37.2569570436018,126.449991864348,0507-1391-6734
가평 까사 힐 395 캠핑장,경기 가평군 청평면 솥틀로 54-85,37.7645228936267,127.43180728949,
신암저수지 숲속야영장,경기 양주시 남면 감악산로514번길 242,37.9156311624017,126.966273182504,
교룡공원 숲속야영장,전북특별자치도 남원시 산성길 172 (산곡동),35.4280741141655,127.365468366965,0507-1358-6476
죽도캠핑장,경남 통영시 한산면 죽도길 15-9,34.7340317319652,128.532263786168,
네츄럴 밸리,경기 가평군 상면 임초밤안골로 137,37.7570261355815,127.371893878239,
캠핑 도래,경남 밀양시 단장면 도래재로 332,35.5492481351007,128.936058453824,
석양길 518,경남 사천시 용현면 석양길 530,35.0114448439051,128.049283760687,
삼계리주말농원캠핑장,경북 청도군 운문면 신원3길 74,35.676399,129.0067097,
안성허브마을캠핑장,경기 안성시 삼죽면 국사봉로 641-4,37.0645704,127.3589916,031-671-6969
단양팔경투어,충북 단양군 단양읍 단양노동길 492,36.9855790,128.3805148,043-421-7721
집보다 캠핑장,경기도 안성시 양성면 도라지길 29-22,37.7504085,127.5320818,
오름집,제주특별자치도 서귀포시 보목동 보목포로65번길 6 ,33.2404153,126.6081516,
영월계곡 느티별캠핑장,강원도 영월군 김삿갓면 내리계곡로 1106 ,37.1040435,128.6786909,070-4578-9292
캠핑플레이스 포천점 글램핑&바베큐,경기 포천시 내촌면 내촌로183번길 28-7,37.7970616,127.2320417,031-536-8647
배나무꽃 캠핑장,경기 파주시 법원읍 술이홀로1333번길 128,37.8825957,126.8722898,0507-1436-4679
구미 캠핑장,경북 구미시 낙동제방길 200 (양호동),36.1311328,128.3679960,054-480-2184
캄비오 캠핑장,대구 동구 팔공로 1473 (능성동),35.9632584319361,128.737465384836,
남파랑캠핑장&스테이,경남 남해군 창선면 흥선로 1462,34.8468825408395,128.059500070053,0507-1406-9622
팔봉산관광지 야영장,강원도 홍천군 서면 한치골길 1122-48 ,37.7018759,127.6953124,033-430-4281
북한산 캠핑장,서울 은평구 북한산로 232-1 (진관동),37.6517679,126.938478,02-381-3947
숲속애캠핑장,경남 함양군 백전면 함양남서로 2655,35.578704636633,127.62796915911,010-3012-5476
단양 별마루캠핑장,충북 단양군 매포읍 삼곡길 234,37.0743987,128.256395,010-7605-0202
제니캠핑장,강원특별자치도 횡성군 서원면 서원서로 652,37.5092216,127.801307,010-5049-1127
고기팜키즈캠핑장,경북 경주시 대추밭안길 128-36 (조양동),35.7729111,129.284273,070-8866-4040
서천 금빛노을 서울캠핑장,충청남도 서천군 장선리 128-3,36.0455656,126.7189118,
강나루 오토캠핑장,경상남도 함안군 칠서면 이룡리 998,35.3930913,128.5085477,055-586-2510
횡성 온새미로 캠핑장,강원도 횡성군 청일면 봉명로593번길 76-11,37.6699973,128.1256866,010-3479-6688
에제르파크,인천 남동구 만의골로 155 (장수동),37.4570283,126.7719438,010-2286-4858
웰니스 권역 야영장,충남 공주시 우성면 무성산로 296,36.5010715,127.0888462,
봉포레이크 글램핑 오토캠핑장,강원특별자치도 고성군 토성면 봉포5길 32-13,38.2502646,128.5606297,010-8289-2626
남양캠핑장,경기 화성시 남양읍 신남서길71번길 4,37.1908134169778,126.807977462838,
에덴글램핑,경기 가평군 가평읍 북한강변로 154,37.7468279,127.5254273,031-581-0201
별빛오토캠핑장,경기 가평군 설악면 묵안로 219-15,37.6476195,127.5005264,
소노휴 양평,경기 양평군 개군면 신내길7번길 55,37.4692252,127.5325829,010-7901-5572
채송화글램핑,경북 영천시 화북면 천문로 2118,36.1006799,128.9118199,
양지뜰캠핑장,전북 무주군 설천면 보안길 88,35.9076467,127.7680715,0507-1321-0532
솔밭캠핑장,전북 완주군 운주면 운주로 243-68,36.0976057,127.2641852,
송현 캠핑장,경기 여주시 산북면 금품2로 208-73,37.3780190741333,127.446412800898,
에가톳 캐빈,제주특별자치도 서귀포시 안덕면 상창리 147,33.2988968261301,126.374210809075,
고흥만 수변노을공원 오토캠핑장,전남 고흥군 도덕면 고흥만로 1106,34.6475274,127.1970855,1668-1141-
유포리아 캠핑장,강원특별자치도 평창군 봉평면 수림대길 343,37.5277421,128.355005,
당사현대차오션캠프,울산 북구  당사동 378-4,35.5845026,129.4567240,052-291-0805
왕방산 암벽공원 야영장,경기 포천시 신북면 깊이울로 71,37.9238045,127.1753182,0507-1309-3554
하비비캠핑장,충북 충주시 금가면 오미기2길 120-2,36.9979252,127.8853871,043-851-3308
예손농원캠핑장,경기 포천시 영북면 여우고개로 7,38.0618030,127.3273369,031-531-1255
일영무두리캠핑장,경기도 양주시 장흥면 유원지로 176-77 ,37.7005282,126.9471166,031-855-6102
지리산 포레스트 카라반 파크,전남 구례군 토지면 피아골로 567-12,35.2390289,127.589235,
인주캠핑장,충남 아산시 인주면 대음북길 39,36.8531160,126.852476,
오캄캠핑,경기 연천군 신서면 합내로 483-100,38.1616738490787,127.066264116711,0507-1355-5246
남한산성 캠핑장,경기 광주시 남한산성면 남한산성로 144,37.4550879,127.2350577,031-747-9488
조이포레,충남 당진시 신평면 부곡길 11,36.8855557353387,126.748705868042,
광민이네 오토캠핑장,강원특별자치도 고성군 간성읍 탑동길 469,38.3450015541049,128.456771142296,0507-1382-0636
주식회사 헤리티지글램핑,경남 창원시 마산합포구 구산면 안녕로 427,35.1013382274468,128.601982223355,0507-1487-5629
정동진 캠핑파크,강원특별자치도 강릉시 강동면 율곡로 1010-17,37.6816147654059,129.024721173282,0507-1469-9052
에잇시즌즈,강원특별자치도 홍천군 서면 팔봉산로 909-17,37.6903335078303,127.688009953352,0507-1422-9707
모닥모닥,경기 평택시 이화로 266-7 (월곡동),37.017529573643,127.134201161747,0507-1386-8969
산정호수 맑은물캠핑장,경기 포천시 영북면 산정호수로 976,38.0862741947961,127.319633610466,031-531-0801
더 클리프 카라반 캠핑장,경기 포천시 일동면 영일로 234,37.9548720619375,127.256904913684,0507-1347-8696
그루잠,경기 가평군 상면 물골길 175-73,37.8356574672629,127.310011622511,
해뜨고 달뜨고,경북 칠곡군 지천면 용산로 170-72,35.8909090822755,128.503373576319,
캠핑산 야영장,강원특별자치도 횡성군 서원면 양서동로 377,37.4592093887739,127.7976522064,
달너머 캠핑장,강원특별자치도 강릉시 연곡면 진고개로 1687,37.8493532666684,128.72470617876,0507-1331-8762
에잇시즌스 카바나,강원특별자치도 홍천군 서면 팔봉산로 909-21,37.6901648139089,127.687506027095,
별바람 야영장,경남 밀양시 초동면 방동길 126,35.4514101258359,128.703933817523,
산속정원캠핑장,경기 연천군 전곡읍 양원로 346-61,37.9684017202273,127.038196139697,
청춘양구 소양호 뱃길 나루터,강원특별자치도 양구군 양구읍 소양호로 2522,38.0415043635168,127.968787886234,
밸리 버튼 Valley Butto ,강원특별자치도 양구군 방산면 평화로 5629,38.2259503895413,127.971514537047,
캠프그라운드 화우,경기 안성시 원곡면 천덕산로 857-2,37.0680770523029,127.173675274116,0507-1341-3109
캠프그라운드 성지,경기 안성시 원곡면 천덕산로 857-1,37.067443697591,127.173114983046,
하하호호 캠핑장,충북 청주시 상당구 가덕면 금거내암로 200,36.5677797100727,127.594570262623,
하루,충남 아산시 선장면 삼봉산길 28-7,36.7675100923177,126.884327696301,0507-1316-9151
웅포야영장,경북 울릉군 북면 현포2길 22,37.5265025771656,130.820342616416,
동글감나무캠핑장,전남 영암군 금정면 활성산길 21,34.8259933240698,126.745795594111,0507-1461-8785
캠핑노리,충남 공주시 정안면 느진묵길 91,36.5554286807012,127.081777482451,
유포리아 글램핑,경기 가평군 상면 축령로45번길 40-200,37.7705862581556,127.356372687878,
무지개글램핑,경기 가평군 북면 꽃넘이길 115-60,37.9000741015723,127.518116598146,
어도숲 캠핑장,경기 화성시 송산면 어섬길259번길 64,37.2446687502115,126.652457017192,
파주스(PAJUS),경기 파주시 탄현면 새오리로161번길 100-17,37.8011454668184,126.683395723598,
서해캠핑장,충남 보령시 천북면 하학로 740,36.4348563739399,126.502132043369,
벙커 캠핑,강원특별자치도 양양군 강현면 진미로 588-8,38.1124438124965,128.57477516059,
미로나라정원 글램핑장,강원특별자치도 삼척시 미로면 고내로 276,37.428475710804,129.06694786551,
강촌달머리캠핑장,강원 춘천시 서면 율장길 123-39,37.850929,127.5732255,010-8983-4040
원동자연휴양림,경상남도 양산시 원동면 내포리 산171 ,35.3977583,128.9389714,055-382-5839
은지가족야영장,경기 고양시 덕양구 흥도로 281-1 (도내동),37.6311820,126.8571360,031-965-5852
럭셔리글램핑라피네,경북 안동시 남후면 암산1길 18,36.5030261,128.6772366,0507-1324-3343
산디마을 생태공원 캠핑장,대전광역시 대덕구 장동 685-1 ,36.3969703,127.4385337,070-4158-3360
청양 동강리 오토캠핑장,충남 청양군 청남면 금강변로 868-135,36.3394000,126.9797750,041-940-2706
리아띠캠핑장,충북 제천시 봉양읍 국사봉로 287,37.1120099195619,128.11268084418,
월악산레트로캠핑N민박,충북 제천시 덕산면 월악산로5길 18-1,36.8831031,128.1503074,010-2665-4767
구시포 노을 캠핑장,전라북도 고창군 구시포안길 38,35.4421056,126.4347866,
어반파크 캠핑장&바베큐,경북 경주시 다불로 195-10 (용강동),35.8647898,129.235356,
큰마당 오토 캠핑장,충남 논산시 벌곡면 수락로 901-35,36.1955792,127.263510,
신두리 오렌지 캠핑장,충남 태안군 원북면 두웅로 356-123,36.8419916164755,126.197457924102,041-675-7727
웰니스,경남 고성군 삼산면 두포5길 193,34.9232109,128.2987845,
광덕그린농원 야영장,강원 화천군 사내면 검단길 213-31,38.1101225,127.4708715,010-4691-6813
람보 캠핑장,충북 제천시 금성면 청풍호로37길 25,37.0299961,128.180043,1522-3405-
오매기744,경기 의왕시 오매기백운산길 54-11 (오전동),37.3562916060931,126.998610976752,
너아라 캠핑장,인천 옹진군 영흥면 영흥서로 238,37.275360505385,126.477194233209,
임하호 수상레저타운캠핑장,경상북도 안동시 임동면 중평리 1040,36.5666883,128.9210806,054-822-1212
월현 포레스트,강원 횡성군 강림면 월안길 251,37.3696206,128.1780646,010-3044-0251
연곡해변 솔향기캠핑장,강원 강릉시 연곡면 해안로 1282-10,37.8588053,128.8533563,033-662-2900
서정카라반펜션,강원특별자치도 강릉시 사천면 해안로 938,37.8335750,128.8734160,0507-790-0879
미소가든펜션야영장,충북 제천시 봉양읍 옥전리 59-4번지,37.171724,128.1153075,
루파니애견캠핑장,충북 괴산군 감물면 감물로 362-54,36.8591986,127.8758459,010-3431-5879
개울가에캠핑관광농원,경기 포천시 신북면 청신로1196번길 112,37.9479305,127.1541668,
이안힐링랜드,충남 보령시 성주면 심원계곡로 334,36.3465930,126.677749,0507-1468-2520
서현농원 야영장,경기 의왕시 왕림길 85-1 (왕곡동),37.3427468,126.990357,
글램코티지,경북 영천시 임고면 포은로 175-32,35.9941656,128.9631484,054-927-0077
스테이123,강원특별자치도 강릉시 구정면 구정중앙로 155-8,37.7142387,128.8737650,
아빠의 캠프,경북 청도군 매전면 당호강변길 49-7,35.6694294,128.8635180,010-5334-5085
성동 서울숲 여름캠핑장(임시캠핑장),서울 성동구 뚝섬로 273 (성수동1가),37.5430701,127.0417991,
안면도마린오토캠핑장,충남 태안군 안면읍 방포항길 95,36.5051901,126.3347168,
팔공산국립공원 갓바위야영장,경북 경산시 와촌면 갓바위로 596,35.9858308,128.7486933,053-851-2225
포도길 캠핑장,경기 안성시 대덕면 신령로 255,37.0312621,127.224129,0507-1418-1931
봄이네 캠핑장,강원특별자치도 횡성군 서원면 옥계6길 25,37.4376362334469,127.853455535203,010-2200-0942
정담은 캠핑&글램핑,전남 장성군 북하면 남창로 407,35.4595089562915,126.840693256155,061-394-5535
화명 오토캠핑장,부산 북구 낙동강자전거길 1425 (덕천동),35.2179424,128.998423,051-337-2262
연화동권역 야영장,경상남도 의령군 낙서면 여의리 287-5 ,33.4915495,126.9071173,
쌍근오토캠핑장,경남 거제시 남부면 남부해안로 1054,34.7639995,128.5839805,010-2502-4115
대봉캠핑랜드,경남 함양군 병곡면 원산지소길 192,35.5881828,127.6790131,055-963-2026
렛 힐리스 아트캠핑,경남 산청군 금서면 동의보감로312번가길 141-70,35.4495279,127.851432,
비토어촌체험휴양마을,경남 사천시 서포면 거북길 447,34.9675224,127.9718060,055-852-7870
아빌라 더 오아시스,경남 사천시 해안관광로 68-20 (실안동),34.9479382,128.0411279,
용소유원지 야영장,경남 사천시 사남면 계양길 132,35.0143576,128.1334570,
시간의바깥,경남 남해군 이동면 보리암로 154,34.7745708,127.9757635,055-863-4666
보물섬 글램핑,경남 남해군 남해읍 선소로76번길 41-20,34.8455994,127.9112388,0507-1489-7756
해해해 캠핑장,경남 고성군 거류면 화당로 379,34.9804076,128.4405666,055-674-5780
대권오토야영캠핑장,경남 통영시 용남면 지도동부길 10-119,34.9182172,128.4740957,
합천해피캠핑,경남 합천군 대병면 서부로 2228,35.5343931,127.9998733,010-9310-6688
소나무 풍경 펜션 야영장,경남 창녕군 계성면 계성화왕산로 161,35.4903530,128.5264809,055-536-3889
좋은 카라반,경남 밀양시 삼랑진읍 행곡3길 65-34,35.4304607,128.9096784,1899-3790-
배티하우스,경남 합천군 쌍책면 황강옥전로 1062-50,35.6088000,128.2671014,
유곡면 농촌체험랜드,경남 의령군 유곡면 청정로 2278,35.4322552,128.3179136,
선바위야영장,강원 인제군 북면 미시령로 1796,38.2208245,128.4029221,
지리산 하루해 야영장,경남 하동군 악양면 악양서로 669-24,35.1896268,127.7171281,010-8539-2812
경호강 카라반,경남 산청군 단성면 호암로1320번길 88-4,35.3573671,127.9154486,010-2188-4287
지리산리조트 글램핑,경남 산청군 시천면 지리산대로511번길 11-33,35.2973379,127.7553318,010-5039-5002
용추글램핑&펜션,경남 함양군 안의면 용추계곡로 479,35.6733182,127.7736152,055-963-2255
아름빌,경남 양산시 원동면 어영로 204 ,35.4287102,128.934443,055-383-5566
엄마랑놀자키즈글램핑,경남 밀양시 초동면 초동중앙로 18,35.3867534,128.6707325,010-9461-9290
궁농오토캠핑장,경남 거제시 장목면 거제북로 2633-16,35.000663,128.7028142,010-8217-4977
의령 거장산 오토캠핑장,경남 의령군 궁류면 청정로5길 43-2,35.4375182,128.2596474,010-9649-0453
캠프라임,경남 양산시 원동면 원동로 1837-2,35.3919168,128.9211412,010-4621-8717
버드하우스 캠핑장,경남 남해군 창선면 서부로 1455-10,34.9186753,128.0211419,010-7298-8702
합천글램핑,경남 합천군 대병면 석장1길 61-15 (합천성은타운),35.5085760,128.0148684,055-931-6600
화왕산자연휴양림,경남 창녕군 고암면 청간길 128-126,35.5419122,128.5649672,055-533-2332
황매산 국민여가 캠핑장,경남 합천군 가회면 황매산공원길 331,35.4819189,128.0036224,055-932-5880
황산문화체육공원 국민여가캠핑장,경남 양산시 물금읍 황산공원5길 13,35.3017511,128.989598,055-379-8690
바람흔적 글램핑 앤 카라반,경남 합천군 가회면 대기1길 15-9,35.4596918,128.0049666,010-2045-3115
밀양아리랑 오토캠핑장,경상남도 밀양시 하남읍 명례리 1046-2,35.3545101,128.7593248,055-359-4636
지리산 벚꽃 카라반 캠핑장,경상남도 하동군 화개면 화개로 946-8 ,35.2628208,127.6367669,055-883-2606
통제영오토캠핑장,경상남도 통영시 한산면 한산일주로 171  한산도통제영테마마을,34.8005495,128.4745360,010-7259-8253
주은캠핑장,경상남도 거창군 북상면 덕유월성로 1642 ,35.7646898,127.7642655,
지리산백무동파크야영장,경남 함양군 마천면 가채길 15,35.3929733,127.6612496,010-3090-2131
천하마을야영장,경남 남해군 미조면 남해대로397번길 18,34.7243850,128.0136055,010-4619-3827
천하장사골야영장,경남 의령군 대의면 신전리 276 277 ,35.3814083,128.1756466,055-574-1109
초전마을 캠핑장,경남 남해군 미조면 동부대로14번길 27-21,34.7293609,128.0342924,
카라반 르 몽드,경상남도 김해시 어방동 991 ,35.2525643,128.8908908,055-311-5588
파라다이스 캠핑장,경남 통영시 욕지면 유동길 111,34.6191286,128.2430788,010-6235-2355
캠핑배내,경남 양산시 원동면 청수골길 43-21,35.5235475,129.0093185,052-264-1999
승봉도 캠핑장,인천광역시 옹진군 자월면 승봉리 771-1번지 ,37.1686608,126.3087528,
신어산자연숲캠핑장,경남 김해시 상동면 장척로462번길 140,35.2771149,128.9245414,055-333-7845
아이비오토캠핑장,경상남도 밀양시 산내면 원서3길 47 ,35.6067305,128.9245914,
에이원 글램핑 관광농원,경남 통영시 산양읍 산양중앙로 270-91,34.8007878,128.4063818,055-649-7783
에이원 글램핑장 리조트,경남 통영시 산양읍 산양중앙로 168,34.8008903,128.4063767,
오도산 자연휴양림,경상남도 합천군 봉산면 오도산휴양로 433 ,35.6686289,128.0542099,055-930-3733
휴식관광농원캠핑장,경남 밀양시 산외면 엄광리 1198-1,35.5367129,128.8000508,055-355-9988
밀양댐 스쿨캠핑장,경남 밀양시 단장면 고례2길 3,35.4922214,128.9293859,010-8546-4622
밀양스쿨오토캠핑장,경상남도 밀양시 산외면 단산길 2-5 ,35.5108577,128.8409016,
밀양유원지 오토캠핑장,경남 밀양시 단장면 고례로 855,35.4931562,128.9285863,055-351-0088
백산금빛캠프장,경남 밀양시 하남읍 백산5길 12-1,35.3707487,128.7538477,010-4635-5088
비토애 럭셔리 글램핑 산청점,경남 산청군 신안면 둔철산로 575-26,35.3818781,127.9649409,010-2002-4677
보물섬 캠핑장,경상남도 남해군 남면 남면로1229번길 10-34 ,34.7445445,127.8602586,055-862-8623
비토섬오토캠핑장,경남 사천시 서포면 토끼로 245-5,34.9844680,127.9664143,055-855-1176
사촌해수욕장야영장,경상남도 남해군 남면 남면로1229번길 44,34.7435549,127.8563405,
산여울캠핑장,경상남도 밀양시 산외면 밀양대로 3480 ,35.5430289,128.8566995,055-356-3456
설뫼충효테마파크야영장,경남 의령군 부림면 입산로 22-2 ,35.4565999,128.3519947,055-574-7577
달빛고운병곡캠핑장,경남 거창군 북상면 병곡길 448,35.8097226,127.7753583,010-5729-6666
당항포관광지 오토캠핑장,경남 고성군 회화면 당항만로 1116,35.053844,128.3952321,055-670-7410
지리산 대경 오토 캠핑장,경상남도 산청군 시천면 동당리 577,35.2727502,127.7781867,
대운산 자연휴양림 야영장,경상남도 양산시 용당동 탑골길 208-124 ,35.4172798,129.2098495,055-379-8670
대장경오토캠핑장,경상남도 합천군 가야면 야천리 896,35.7666465,128.1309314,
도둑골 야영장,경남 하동군 옥종면 호계천로 210,35.1969208,127.8596035,055-883-8887
두모마을야영장,경상남도 남해군 상주면 양아로533번길 18 ,34.7412176,127.9580998,
(주)양촌여울체험캠프,경상남도 창원시 마산합포구 진전면 의산삼일로 60,35.1365006,128.3753007,055-271-2012
W글램핑,경남 산청군 산청읍 웅석봉로285번길 80-20,35.3928227,127.886091,055-974-3642
가야랜드달빛야영장,경남 김해시 신어산길 67 (삼방동),35.2589749,128.9056121,055-332-9100
포시즌스 오토캠핑장,경기 포천시 신북면 탑신로 1259-68,37.9508415,127.1163168,031-535-8585
방주캠핑장,강원특별자치도 홍천군 화촌면 도심리길344번길 8,37.7985651,127.887880,0507-1372-4756
소담캠핑장,강원특별자치도 화천군 사내면 포화로 322,38.0864213,127.462263,010-9913-8253
위고고 제천점,충북 제천시 금성면 청풍호로 1507,37.0329842,128.179471,
머물고싶은곳 캠핑장,경기 포천시 신북면 깊이울로 234-21,37.9191057,127.166697,
숲속야영장 수만리캠핑,전남 화순군 화순읍 안양산로 616-65,35.0884051,127.021857,061-374-1121
황산 관광농원,충남 아산시 신정로 200-125 (초사동),36.7378372,126.973695,
참새둥지야영장,강원특별자치도 속초시 설악산로 239-28 (도문동),38.1629155,128.579743,0507-1376-9860
위더스 캠핑장,경남 창원시 마산합포구 진전면 적석산2길 130,35.1124325,128.359074,
나곡해수욕장,경북 울진군 북면 나실길 24,37.1261322,129.370657,054-781-7203
금산 뮤지엄B캠핑장,충남 금산군 복수면 구만길 52,36.2590092,127.382606,041-751-6617
월악 새터 캠핑장,충북 제천시 덕산면 월악로 1842,36.9177727,128.112790,
에테르야영장,경기 가평군 상면 녹수계곡로 107-10,37.7729149,127.392968,
더아리웃집 모롱공간,경기 가평군 조종면 운악청계로491번길 133,37.8513607,127.346820,
별누리 천문펜션 야영장,강원특별자치도 횡성군 우천면 전재호수길 133,37.4277681,128.111835,
감포송아캠핑장,경북 경주시 감포읍 감포로 395,35.8215353,129.507355,0507-1307-9577
거목 글램핑,전남 담양군 용면 가마골로 394,35.4253147,127.031918,
에이디디(ADD)캠핑장,경남 사천시 서포면 사천대교로 334,35.0058447,128.018398,055-854-6060
별빛스테이,강원특별자치도 영월군 영월읍 둥글바위길 5,37.2009539,128.506797,0507-1427-2503
안성용설호 관광농원 야영장,경기 안성시 죽산면 용설호수길 131-34,37.0531524,127.454039,
남양관광농원,경기도 용인시 처인구 포곡읍 삼계리 675 ,37.2935713,127.235817,
에버오토캠핑장,경기도 용인시 처인구 포곡읍 삼계리 677 ,37.2922359,127.236748,0507-1377-5354
수락 힐스테이,전남 구례군 산동면 수락길 71,35.3467517,127.458479,
썬스테이,경기 안산시 단원구 천신로1길 61 (대부남동),37.2196025,126.555710,
해달별 캠핑장,경남 하동군 고전면 공설운동장로 626,35.0303959,127.786691,
달산 글램핑,충청남도 태안군 남면 달산리 1302-16,36.6835337,126.299495,
포림관광농원,경남 함안군 여항면 진함로 797,35.1870947,128.461248,055-583-7970
두물머리 IC 캠핑장,경기 양평군 양서면 목왕로617번길 30-5,37.5631775,127.379372,
후정해수욕장,경북 울진군 죽변면 후정2길 74,37.0703033,129.4157073,
고래불해수욕장(병곡지구) 야영장,경상북도 영덕군 병곡면 병곡리 58-5 ,36.59681505402054,129.40958851964086,
고래불해수욕장(영리지구) 야영장,경상북도 영덕군 병곡면 영리 119-17 ,36.5939422,129.4092523,
장사해수욕장 야영장,경북 영덕군 남정면 동해대로 3592,36.2824268,129.3755831,
썬캠프,강원 인제군 인제읍 한석산로 767-19,38.0774371,128.2528737,
낭만글램핑,광주 광산구 풍영철길로 106-4 (운남동),35.1678865,126.819060,010-4447-3413
대강오토캠핑장,충북 단양군 대강면 사인암로 683-77,36.9192982,128.3551343,043-421-7880
진부리 마을관리휴양지,강원 고성군 간성읍 진부리길 10,38.2918408,128.3627889,
동막리 마을회,인천 강화군 화도면 해안남로 1481,37.5928288,126.4581512,
송림오토캠핑장,경북 경주시 감포읍 동해안로 2015,35.7869284,129.4906359,054-775-4984
휴림,경기 여주시 주어로 204,37.4159894,127.4272904,010-3786-0373
정선골민박캠핑장,강원도 정선군 남면 광락로 643 ,37.3206541,128.6746585,033-5911-9100
왕피천모래언덕 펜션/캠핑장,경북 울진군 근남면 왕피천로 534-1,36.9287439,129.3460923,054-783-0625
득량만풍광휴식센터,전라남도 고흥군 대서면 안남리 산 195,34.7533561,127.2522858,061-834-8191
백담설화캠핑장,강원 인제군 북면 황태길 76-6,38.2015573,128.3501726,
선재해림 카라반,인천 옹진군 영흥면 선재로226번길 107-34,37.2529825,126.5271596,032-880-1688
천동오토캠핑장,충북 단양군 단양읍 다리안로 534,36.9744049,128.4187431,043-423-3589
소선암 오토캠핑장,충청북도 단양군 단성면 선암계곡로 1656 ,36.9203379,128.3118591,043-423-0599
매월대폭포 캠핑장,강원특별자치도 철원군 근남면 매월동길 133,38.1961647,127.478970,
스테이 107,전남 곡성군 삼기면 곡순로 1120,35.2248428,127.231374,010-5541-5870
포천 화적연 캠핑장,경기 포천시 관인면 사정리 76-1,38.1173648,127.2625592,031-531-0575
구름포해변캠핑장,충남 태안군 소원면 의항리 154,36.8358940,126.150928,
디노글램핑,전남 보성군 득량면 공룡로 822-51,34.7074834,127.1963573,010-3767-7762
횡성산울림오토캠핑장,강원 횡성군 청일면 청일로895번길 127,37.6022615,128.2230161,010-3060-0161
횡성초보캠핑장,강원 횡성군 서원면 취석2길 187,37.4708557,127.8930241,010-5364-3718
숲속의 정든집 야영장,강원도 횡성군 둔내면 용현로 422,37.534951,128.256343,033-344-0472
또보리 캠프,강원도 횡성군 서원면 옥계리 167-3 ,37.4191198,127.8624505,
경주옴파로스카라반,경북 경주시 천북면 천강로 227,35.9103539,129.2784835,
힐링스토리,강원 횡성군 서원면 금대1길 24-68,37.5142324,127.9059162,010-5227-3579
동상 힐링 캠핑장,전북 완주군 동상면 동상주천로 160-27,35.9597889,127.3068406,010-3163-7603
참나무숲 오토캠핑장,경상북도 청도군 운문면 운문로 1033-33,35.6620348,129.003485,054-371-3203
캠핑어클락,경기 가평군 조종면 연인산로474번길 27,37.8472754,127.3775713,031-585-3501
상동 장산 야영장,강원 영월군 상동읍 태백산로 3707,37.1093509,128.8660833,033-370-2878
여수굴전여가캠핑장,전라남도 여수시 돌산읍 돌산로 3017-15 ,34.6921448,127.7650695,1588-3896-
무학봉 야영장,경상북도 봉화군 소천면 현동리 702-11,36.9428180,129.0015380,
양양캠프장,강원특별자치도 양양군 손양면 송평길 28,38.0905758,128.654679,0507-1446-3702
아그로랜드 캠핑장,충남 예산군 고덕면 몽곡상몽길 373-7,36.8019058,126.7082707,041-356-3154
청라캠핑파크,인천 서구 첨단서로 190 (청라동),37.53808,126.61677,032-567-4968
스테이네이처,경기 양평군 단월면 곱다니길 97,37.5113797,127.658887,031-771-2700
어은돌캠프캠프,충남 태안군 소원면 모항파도로 398-84,36.7493998,126.134763,010-9922-6556
애플캠핑장,경북 성주군 금수면 성주로 548-9,35.9232092,128.093576,010-4480-5072
지지벨리 유명산 오토캠핑장,경기 가평군 설악면 유명로 794-46,37.6166201,127.4921883,010-8082-4074
울란팍 카라반 캠핑장,경기 가평군 조종면 운악청계로 424,37.8530888,127.356475,
어게인 스쿨,강원특별자치도 횡성군 강림면 주천강로 488,37.3491106,128.158166,070-4159-0070
유치 자연휴양림,전라남도 장흥군 유치면 휴양림길 154 ,34.7691476,126.8328031,061-863-6350
엔더스뷰,강원특별자치도 춘천시 남면 한덕발산길 447-21,37.7027020,127.623743,033-432-3355
엘모로캠핑,경기 양평군 양동면 고세기길 58-31,37.4085139,127.736826,
캠블리 캠핑,강원특별자치도 영월군 김삿갓면 김삿갓로 497-35,37.1010812,128.604410,010-5707-1157
바이올린글램핑&카라반,경기 가평군 가평읍 북한강변로 443,37.7670128,127.539378,1688-8347-
세울터 오토캠핑장 & 펜션,충남 홍성군 서부면 홍남서로362번길 46,36.5392250,126.5147531,041-642-9953
대둔산 캠핑랜드,충남 금산군 진산면 대둔산로 206,36.1260059,127.3490720,
소백산 꽃가람야영장,경북 영주시 풍기읍 삼가로 407-7,36.9195221,128.5091564,010-9363-7163
수기해수욕장 야영장,인천 옹진군 북도면 시도로86번길 291-48,37.5443102,126.4317500,010-6888-7500
캠프202,충북 충주시 앙성면 남한강변길 112,37.1087371,127.8111562,0507-1312-8172
포천탑글램핑장,경기 포천시 소흘읍 광릉수목원로874번길 51,37.7807608,127.142516,010-5127-8627
내포캠핑스퀘어,충남 홍성군 홍북읍 용봉산1길 15,36.6439190,126.661849,041-634-9977
모든날오토캠핑장,경남 고성군 회화면 구만로 1126-7,35.0992492,128.366893,0507-1444-8329
우드로더 캠핑장,대구 군위군 부계면 원효길 60-46,36.0431814,128.661333,0507-1350-7930
장미길 테마 야영장,경남 밀양시 상동면 구곡길 54-33,35.5396869,128.760563,0507-1365-5192
더 스타일,경기 남양주시 수동면 비룡로 1673,37.7601576,127.278578,
양주 장흥 브이아이피 캠핑장,경기 양주시 장흥면 권율로 102-26,37.7221898,126.948322,0507-1361-8105
골드문 오토캠핑장,경북 경주시 감포읍 경감로 2807-15,35.7854688,129.473867,
에코캠핑장,전북특별자치도 익산시 금마면 신용리 476-2,36.0063736,127.056032,063-859-4970
글램핑 더마루,전남 보성군 득량면 공룡로 909-2,34.7164844,127.193966,0507-1447-7650
캠피언 카라반 글램핑 캠핑장,경북 경주시 새골길 49-107 (구정동),35.7885645,129.300214,0507-1365-9815
베네치아 야영장,광주 동구 지호로124번길 14 (지산동),35.1481074,126.942157,
수동길 170 캠핑,강원특별자치도 횡성군 갑천면 수동길 170-1,37.5581824,128.154974,033-511-4711
산수유자연휴양림 숲속야영장,전라남도 구례군 산동면 탑정리 산 20-3 ,35.3008993,127.463828,061-780-8023
더360캠핑장,경북 고령군 덕곡면 덕운로 1109-243,35.7883023,128.192965,0507-1414-6280
페리도트 풀빌리지,경북 포항시 북구 송라면 동해대로 3149,36.2434441,129.366689,
찬누리,경기 양평군 서종면 약수터길 83-1,37.6123391,127.447859,
포레스트리 캠핑장,강원특별자치도 원주시 신림면 웃갈곡길 97-6,37.2411657,128.060734,0507-1471-9936
일랑일랑 애견캠핑 인제주,제주특별자치도 제주시 애월읍 유수암북길 19-36,33.4461611,126.397974,0507-1375-6615
월성 무지개 펜션 앤 캠핑,경남 거창군 북상면 계수나무길 97,35.7592578,127.740207,0507-1402-3081
산울림 캠핑장,경북 청도군 운문면 운문로 1076,35.6679281,129.002936,
법흥계곡캠핑오늘,강원특별자치도 영월군 무릉도원면 무릉법흥로 1088,37.3538395,128.279103,0507-1347-2703
숲속도마치계곡캠핑장,경기 포천시 이동면 화동로 2318-36,38.0515654,127.389925,
피구지 관광농원,충청남도 태안군 이원면 내리 966-14 ,36.9126415,126.289894,0507-1308-3460
맑을 청,충북 진천군 진천읍 김유신길 340-35,36.8490684,127.364492,
자연과 숲,인천 강화군 내가면 고비고개로 515-1,37.7302301,126.431449,
서울승마힐링캠프,경기 의정부시 동일로192번길 28-67 (장암동),37.7054193,127.061587,
제령포레스트 캠프,경기 가평군 북면 제령아랫말길 67-61,37.8870240,127.542012,
파인 관광농원,경기 여주시 가남읍 경충대로 1483-25,37.2143767,127.5317816,031-883-7103
백담정 캠핑장,강원 인제군 북면 백담로 126,38.1920549,128.3560104,010-5746-8171
대진해수욕장 야영장,경북 영덕군 영해면 영덕대게로 2840,36.5645165,129.4267012,
단양 도담캠핑장,충북 단양군 단양읍 노동장현로 530-25,36.9501462,128.3667436,
아날로그데이,대구 군위군 부계면 원효길 1,36.0499435,128.6547756,010-3510-3499
아리움캠핑장,경기 가평군 상면 왕대벌길 147,37.7691377,127.3731841,031-584-1279
완주달빛카라반,전북특별자치도 완주군 동상면 밤티길 38-23,35.8766580,127.315110,0507-1435-5031
가평아지트캠핑장,경기 가평군 가평읍 당목가일길 139-120,37.8682026,127.5254645,010-8725-2513
르벙쓸레브,제주특별자치도 제주시 한경면 청수서5길 1-13,33.3036182,126.256659,
제이와이카라반캠핑장,경기 가평군 가평읍 잎너비길 25,37.8475850,127.508752,010-9789-2664
솔바람야영장,강원도 양양군 서면 얼음골길 76 ,37.9581423,128.5132557,033-673-2040
얼음골야영장,강원 양양군 서면 얼음골길 45,37.9601729,128.5157115,010-3771-8424
써니밸리오토캠핑장,충북 괴산군 청천면 화양로 715,36.6808452,127.8009144,
우니메이카 춘천점,강원특별자치도 춘천시 남산면 서백3길 115,37.8077416,127.5641105,
백담계곡오토캠핑장,강원특별자치도 인제군 북면 만해로 197,38.1925487,128.323355,033-462-2838
우리두리글램핑장,강원 영월군 무릉도원면 백년계곡길 15-5,37.366578,128.272440,010-4245-7233
포레스트 소울,경기 가평군 조종면 명지산로 206-15,37.8917181,127.3683603,031-585-3966
저스트글램핑,전북 임실군 강진면 이윤길 76,35.5632846,127.1471108,
럼버잭 캠핑,강원특별자치도 양양군 현북면 송이로 321,38.0111994,128.6901378,0507-1432-0650
별자리 캠핑랜드,경북 경주시 반구대로 3501-34 (배동),35.7892926,129.1987347,0507-1342-2108
무주 구천동 캠핑장,전북 무주군 설천면 원심곡1길 11,35.9313087,127.7576923,063-322-5632
구화산바베큐,경북 김천시 구화산길 64-7 (교동),36.1469180,128.1027106,054-430-8585
가평 물소리 캠핑장,경기 가평군 조종면 명지산로 345,37.9026163,127.3740963,
고릴라캠핑 i  속리산,충북 보은군 속리산면 사내1길 13-12,36.5269646,127.816666,
노문 야영장,경기 양평군 서종면 갈문길 22-17,37.6462611,127.4336945,
서동생태관광지,전북특별자치도 익산시 금마면 금마호수길 37,36.0067573,127.0553797,063-838-3491
여주 카라반 체험장,경기 여주시 점동면 선사길 321,37.2380775,127.6841889,02-2002-9895
이우캠핑장,경기도 가평군 원흥길 77-42 (주)이우 ,37.8155511,127.3239698,031-585-8740
여우별꽃캠핑장,경기 양주시 백석읍 기산로 614,37.7806156,126.9548241,031-871-6699
황토와들꽃세상,전남 함평군 해보면 올림픽로 1036-7,35.1632005,126.5451433,
별난독서문화체험장,경기 파주시 법원읍 술이홀로 1315,37.8849729,126.8777653,031-959-9560
무창포오토캠핑장,충청남도 보령시 웅천읍 관당리 806-9번지  ,36.2412036,126.5357239,041-936-3563
천안 몽각산 힐링뷰 캠핑장,충남 천안시 동남구 동면 덕성1길 147,36.8155872,127.3609711,
몽키캠핑장,충남 천안시 동남구 북면 삼방로 1163-1,36.8471705,127.2491962,070-4268-5260
서천 힐링 캠핑장,충남 서천군 비인면 성검로 135,36.1511523,126.6094913,010-5437-4411
춘천 금병산 캠핑장,강원특별자치도 춘천시 동내면 영서로 1543-86,37.8137609,127.7581717,0507-1358-7120
속초해변 국민여가 캠핑장,강원 속초시 해오름로 186 (조양동),38.1901406,128.6035914,033-638-6231
모래재캠핑장,충북 괴산군 사리면 모래재로 483-12,36.8119599,127.6659405,043-838-7780
상족암군립공원 오토캠핑장,경남 고성군 하이면 덕명5길 53-7,34.9109321,128.1566535,070-4252-1316
산들캠핑파크,경남 의령군 칠곡면 한티로5남길 53-6,35.3558369,128.1577606,
속리산알프스캠핑장&펜션,충북 보은군 산외면 속리산로 1842-12,36.5743651,127.7790833,010-3709-6708
젠틀펫 파라다이스,경북 문경시 문경읍 문경대로 2430,36.7423188,128.0820639,
렛츠캠핑,경북 청도군 매전면 관하실길 28-42,35.7089713,128.818137,0507-1486-2000
파인포레스트 글램핑,경기 가평군 가평읍 당목가일길 645,37.8779288,127.5778836,070-4279-5074
경주 다다 글램핑,경북 경주시 대추밭안길 128-32 (조양동),35.7726922,129.2840582,0507-1475-0757
모란골관광농원,강원 인제군 북면 모란골길 131,38.1423929,128.2683006,
남해 에덴 캠핑장,경남 남해군 창선면 동부대로 2058-12,34.8405593,128.0111647,
돈내코 야영장,제주특별자치도 서귀포시 돈내코로 114 (상효동),33.3002470,126.5847692,064-733-1584
가덕카라글램핑,부산 강서구 가덕해안로821번길 90-84 (천성동),35.0281616,128.8210310,
경상남도교육청 종합복지관 분원 미숭산교직원휴양원,경남 합천군 야로면 미숭산로 341,35.7278949,128.1932813,055-932-6705
워터사이드 캠핑장,충북 진천군 백곡면 배티로 22-10,36.8870620,127.3662493,043-930-3400
해빛뜰마을,경북 울진군 기성면 망양1길 7,36.8428667,129.4337480,054-782-0606
난지섬 쭈꾸미 캠핑장,충남 당진시 석문면 난지2길 84,37.0388199,126.4520534,
청평카라반캠핑장,경기 가평군 청평면 잠곡로 120-80,37.7369410,127.4352970,0507-1403-8814
히어위고 글램핑&바베큐,충남 공주시 정안면 느진묵길 89,36.5552332,127.0820814,0507-1302-3748
구슬내마을 야영장,강원특별자치도 횡성군 서원면 옥계리 484 ,37.4453305,127.8505370,
이유캠핑,경북 영천시 자양면 별빛로 829,36.1404956,129.0105100,0507-1429-7511
인더풀 글램핑,경기 가평군 조종면 운악청계로 1038-9,37.8990501,127.3467722,
캠프 아리울,경기 가평군 상면 청군로 1857,37.8299378,127.3056289,
돌담캠핑장,대구 군위군 부계면 원효길 171,36.0414301,128.6681701,
하동플레이,경남 하동군 금남면 금정길 73-23,34.9798196,127.8491826,
인제나들목캠핑장,강원특별자치도 인제군 상남면 내린천로 3252-7,37.9130448,128.2923059,
조은캠핑,경북 경주시 장골길 63 (동방동),35.8158313,129.2586043,
망고땡 글램핑,강원특별자치도 춘천시 남산면 북한강변길 46-2,37.8315548,127.5280807,0507-1380-4308
붉은노을,전북특별자치도 무주군 안성면 외당길 3-53,35.8548018,127.6948852,
가자 캠핑장,전북특별자치도 진안군 백운면 임진로 1807-25,35.7173816,127.3917495,
스윗피크닉,경기 가평군 상면 청군로 1567,37.8222461,127.3205736,
숲내음에 머물다,전남 광양시 봉강면 신촌길 129,35.0623303,127.5539440,0507-1399-9042
마마루스 야영장,강원특별자치도 춘천시 동내면 거두길 276-23,37.8606602,127.7866999,033-261-3338
아름다운 캠프,강원특별자치도 동해시 대진1길 47-2 (대진동),37.5746187,129.1133423,010-7446-9417
여울애꽃물들인,강원 철원군 근남면 하오재로 1455,38.1913792,127.4635922,010-7252-5108
천보산자연휴양림 캠핑장,경기도 포천시 동교동 원동교길 303 ,37.8536701,127.1211769,031-538-3342
무주 향로산 자연휴양림,전북 무주군 무주읍 무학로 153-36,36.0241408,127.6698805,063-320-2416
수산하늘풍경,강원 인제군 남면 무학길 34,37.9727633,128.0187909,010-6381-8265
스테이아웃,충북 제천시 금성면 청풍호로 1623,37.0236278,128.1777080,0507-1389-1623
가평명지산카라반글램핑,경기 가평군 북면 가화로 2932-23,37.9814614,127.4474625,031-582-0008
수피다 캠핑장,강원 화천군 상서면 갈목길 17-1,37.7807003,127.2887655,
캠플레이 캠핑장,경기 가평군 상면 비룡로 1610-15,38.1647214,127.6160072,
열린캠핑장,충청북도 충주시 앙성면 지당리 241 ,37.1074280,127.7235065,
창바우마을 해송피크닉장,경북 포항시 남구 장기면 동해안로 3450,35.8889477,129.5247927,054-276-5588
더클라우드,강원특별자치도 평창군 미탄면 청옥산길 454-5,37.3686498,128.4903857,
첫물내기 캠핑장,강원 영월군 무릉도원면 무릉법흥로 524-2,37.3178616,128.2603527,010-4852-0653
남해 포레스 오토캠핑장,경남 남해군 설천면 설천로695번길 35,34.9238914,127.9110081,010-5106-8138
드림이벤트,경남 합천군 봉산면 서부로 4326,35.6254421,128.0422844,
담터오지캠핑장,경기 포천시 관인면 담터길 409,38.1663719,127.1877272,033-455-7064
서천해양캠핑장,충남 서천군 서면 서인로 288-19,36.1449612,126.5021901,041-952-2347
여주참숯마을 캠핑장,경기 여주시 강천면 걸촌동길 40,37.2887630,127.6997936,031-886-1119
별비담캠핑장,강원특별자치도 동해시 비천길 49 (이로동),37.5056251,129.0464575,
레이크힐 캠프,충북 제천시 청풍면 청풍명월로 770,37.0073678,128.1228937,043-646-1424
휴레스트 글램핑앤카라반,경기 포천시 이동면 화동로 2440-34,38.0598067,127.3875797,070-7719-6894
7BLOCK(세븐블럭),경기 포천시 해룡로 50-109 (설운동),37.8601168,127.1387216,010-3457-9821
캐닌힐스(CANINHILLS),강원 홍천군 서면 가일길39번길 35,37.6636713,127.6056251,010-9804-4669
평창 별내림계곡캠핑장,강원특별자치도 평창군 봉평면 수림대길 309,37.5273811,128.3602753,0507-1424-1049
노산팔경 캠핑장,경기 양평군 서종면 노문길 42,37.6360636,127.4272842,010-5556-2654
서산벌천포캠핑장,충남 서산시 대산읍 벌천포길 93-25,36.9701571,126.3356760,0507-1336-5807
문장대 사계절캠핑장,경북 상주시 화남면 문장로 1011,36.5012508,127.9238643,010-2632-1024
양지생태마을캠핑장,경남 거창군 마리면 진산길 157,35.6951254,127.8605163,055-943-9343
무지개펜션&캠핑,인천 옹진군 영흥면 영흥남로9번길 355-20,37.2411795,126.4744529,032-887-7677
팔공산금화자연휴양림,경북 칠곡군 가산면 가산로 323,36.0517597,128.5637769,054-971-1551
내리 캠핑장,경기 평택시 팽성읍 내리길 64-23,36.9752549,127.0325593,031-618-8446
산정호수글램핑,경기 포천시 영북면 산정호수로 1012-30,38.0894660,127.3214047,010-5768-3868
편백힐 치유의숲 야영장,전라남도 장성군 북하면 하남실길 212,35.3795806,126.8971743,010-3236-3001
베이스캠프,강원 강릉시 사천면 해안로 940-12,37.8343179,128.8735922,033-642-7171
HJ글램핑&쌤초이글램핑,경기 포천시 이동면 금강로 6169,38.0788343,127.390164,1688-0872-
하이드온부쉬,강원특별자치도 춘천시 서면 경춘로 1068,37.8233357,127.6250222,033-261-3174
대암 팜트리,경남 진주시 집현면 진산로 1205-36,35.2718828,128.0815238,
섬바위캠핑장,전라북도 진안군 안천면 안용로 832-23 ,35.9530123,127.5283557,063-433-7737
강별캠핑장,강원특별자치도 영월군 김삿갓면 강변로 1167-18,37.1153889,128.5083070,0507-1459-1442
랜드캠핑장 글램핑,전북특별자치도 무주군 설천면 구천동로 1092-48,35.9075159,127.7619346,
계곡과소나무 캠핑장,경기도 포천시 일동면 무리울길 299,37.9516198,127.3598873,010-4842-2689
국립두타산자연휴양림,강원 평창군 진부면 아차골길 132,37.5597958,128.5760528,033-334-8815
여차울 캠핑장,강원 홍천군 내면 여차동길 745-41,37.8605695,128.2799685,010-4854-1407
젤리캠핑장,경기 안산시 단원구 중우물1길 12 (대부남동),37.2186984,126.5577340,010-8558-9057
강천캠핑장,경기 여주시 강천면 강천로 265,37.2417692,127.7169022,070-7797-7891
비타민 팜 오토캠핑장,경남 밀양시 산내면 남명리 4,35.5805279,128.9775932,055-352-0045
그라디언트,경북 칠곡군 동명면 구남로 93,35.9868722,128.5742267,
김포한강오토캠핑장,경기 김포시 하성면 월하로912번길 64,37.7030591,126.6544393,031-989-1000
봉구 캠핑장,경상북도 청도군 운문면 신원리 1132,35.6870730,128.9603793,
별천지 캠핑장,경남 남해군 창선면 흥선로 1920,34.8460604,128.0284052,010-5212-3260
희락농원,경기 포천시 소흘읍 고모루성길 195,37.7931589,127.1534962,
밀양 도래재 자연휴양림 야영장,경남 밀양시 단장면 도래재로 462,35.5564676,128.9393577,055-355-0200
블루밍 캠프,강원특별자치도 영월군 무릉도원면 백년계곡길 124,37.3754434,128.2714478,
햅어꿉데이,경북 경주시 북군4길 40-68 (북군동),35.8573531,129.2574071,0507-1363-8534
대이산 숲속 캠프,경기 안성시 양성면 성하길 76,37.0359535,127.1754463,
짐스토리,경기 안성시 금석길 124 (금석동),37.0323408,127.2636514,0507-1319-1616
어메이징 캠프 거창,경상남도 거창군 남하면 대야리 945-5 ,35.6416944,127.9978104,
연꽃빌리지 관광농원,경기 양주시 광적면 권율로 1496-28,37.8150024,126.9784195,0507-1450-3705
봄이오는 캠프,경기 양주시 백석읍 양주산성로 469-55,37.7834203,127.0018803,0507-1369-4485
재리캠핑,충남 아산시 둔포면 충무로 1258-30,36.8841353,127.0321441,041-542-3450
바베큐팩토리캠핑장,경기 용인시 처인구 포곡읍 마성로 357,37.2852371,127.2110022,0507-1401-6115
러블레싱,전남 순천시 땅고개길 156 (와룡동),34.9429977,127.4632820,0507-1331-7273
푸른숲,강원특별자치도 평창군 봉평면 흥정계곡4길 161-15,37.6564610,128.3076217,
캠프히어,전북특별자치도 전주시 완산구 외원당길 10 (대성동),35.8010252,127.1657404,
동방캠핑하우스,경북 경주시 망덕1길 75 (동방동),35.8110552,129.2541665,010-8794-6962
웅포관광지 캠핑장,전라북도 익산시 웅포면 강변로 25 ,36.0658097,126.8754394,063-862-1578
울주해양레포츠센터 야영장,울산 울주군 서생면 해맞이로 1560,35.3788732,129.3439809,052-239-4700
연포제1야영장,충남 태안군 근흥면 연포2길 57,36.6939853,126.2082449,041-674-0909
괴강국민여가캠핑장,충북 괴산군 괴산읍 충민로검승3길 10,36.8067614,127.8252917,010-9257-2904
유메모리 캠핑,강원특별자치도 강릉시 성산면 보현길 125,37.7374275,128.7947580,033-823-1014
천안 디디글램핑,충남 천안시 동남구 광덕면 광풍로 723,36.6965799,127.0936171,0507-1350-7213
그린바움캠핑장,경기 여주시 흥천면 금대울로 203-15,37.3640267,127.5346770,0507-1441-9036
괴강관광농원 ,충북 괴산군 칠성면 괴강로 354-14,36.7985563,127.8244031,010-5171-5941
가든글램핑 캠핑장,충남 태안군 원북면 신두로 690-97,36.8364280,126.1899268,
가리점캠핑장,충북 단양군 단양읍 노동1길 14-1,36.9509528,128.3752413,0507-1427-1718
보리캠핑장,강원 횡성군 둔내면 용현로 112,37.5317670,128.2259010,
마실야영장,전남 장성군 북하면 담장로 1127-54,35.3925938,126.9065949,
주식회사 수피아 캠핑체험장,대전 유성구 갑동로15번길 32 (갑동),36.3623491,127.2868240,042-822-6876
풀비치카라반,경북 포항시 북구 청하면 해안로 2272,36.1956732,129.3725609,0507-1346-3925
하이락카라반,전남 여수시 돌산읍 마상포길 40-1,34.7100833,127.7689898,061-641-1515
오숲도숲,경북 포항시 북구 흥해읍 사방공원길 583,36.1612144,129.3954653,054-262-6622
별그리다 캠핑장,강원 영월군 무릉도원면 무릉법흥로 549,37.3201674,128.2577718,
서천 국민여가 캠핑장,충남 서천군 마서면 장산로 856,36.0184355,126.7385344,041-957-8910
수도캠핑장,경남 창원시 진해구 수도로40번길 5 (수도동),35.0851757,128.7474132,
가네골농원,강원 정선군 정선읍 군언길 133,37.3699725,128.6102834,
수복캠핑장,강원 춘천시 사북면 화악지암길 297-19,37.9765019,127.5944939,
마의태자용소마을캠핑장,강원 인제군 상남면 김부대왕로 2390,37.8811096,128.2572351,
산들바람 글램핑,전남 보성군 벌교읍 조정래길 248-5,34.8611511,127.3408829,0507-1398-2050
가야지캠핑장,강원 평창군 용평면 궁항동길 106-27,37.5631755,128.4455984,
태백고원자연휴양림 자동차야영장,강원 태백시 머리골길 153 (철암동),37.1235926,129.0603818,033-550-2849
오로라,대전 서구 장안로 604 (장안동),36.2100482,127.3372700,
라온아이 오토캠핑장,충남 예산군 응봉면 응봉서로 280,36.6354348,126.7638091,0507-1324-0151
삼가농촌체험관,충북 보은군 속리산면 삼가구병길 9,36.4909510,127.8600380,043-540-4461
북암농촌체험관,충북 보은군 속리산면 속리산로 1220-6,36.5408770,127.7864468,043-544-0738
원탑캠핑장,충북 괴산군 청천면 화양로 834-12,36.6804947,127.8123942,010-5487-4319
청정 캠핑장,경기 가평군 북면 화악산로 300,37.9064231,127.5632786,
산내캠핑일기,경북 경주시 산내면 오봉로 368,35.7836413,129.0238387,0507-1384-8240
영동 한울 캠핑장,충북 영동군 상촌면 민주지산로 2314,36.1338012,127.8626692,
돌담숲,경북 청도군 매전면 청려로 3180,35.6986330,128.8242261,0507-1310-6058
자작자작 캠핑장,강원 횡성군 청일면 봉명로 375-4,37.6489593,128.1392045,
342 camp,강원 강릉시 구정면 새끼미길 53-11,37.7245870,128.8873785,
(주)청도 프로방스 글램핑,경북 청도군 화양읍 이슬미로 272-23,35.6841012,128.7181845,1661-5740-
노리터 키즈 캠핑장,충북 청주시 상당구 낭성면 산성로 845,36.6440067,127.5631131,0507-1306-0604
향수 오토캠핑장,충북 옥천군 청산면 청산관기로 507,36.3711291,127.8161161,0507-1385-8204
도기도기캠프,강원 횡성군 서원면 서원서로150번길 11,37.4803585,127.8216064,
사천5901캠핑장,경남 사천시 서포면 조도로 208,35.0318145,127.9850116,
별하숲캠핑장,경북 문경시 가은읍 작약로 656,36.6056014,128.0476426,0507-1370-8018
안도마을 협동조합,전남 여수시 남면 안도해변길 81,34.4849901,127.8056797,061-662-6664
279캠핑장,강원 양양군 현북면 어성전길 279,37.9401714,128.6683751,
스마일 캠핑장,경북 경주시 산내면 대현길 309,35.7080671,129.0755743,
산산캠핑,강원 영월군 무릉도원면 두산길 17,37.3126368,128.1863243,033-374-0115
논논캠프,경북 칠곡군 가산면 학하들안3길 36,36.0948795,128.4903101,0507-1379-0172
서천 장항글램핑장,충남 서천군 장항읍 장항산단로34번길 48-40,36.0251116,126.6645073,0507-1331-7948
스테이 인터뷰 금산,충남 금산군 진산면 휴양림로 2423,36.1385162,127.3969260,0507-1383-4866
내린천 글램핑,강원 인제군 인제읍 내린천로 6184,38.0421569,128.2097380,
캠프하다,강원 홍천군 서면 개야마을길 68-27,37.6929172,127.6318623,0507-1315-8336
moo (문글램핑),대전 동구 산내로 237 (하소동),36.2080859,127.4396138,
한계2리 솔밭야영장,강원 인제군 북면 한계리 896,38.1349696,128.2682307,
숩쏙캠핑장,충남 논산시 벌곡면 벌곡로330번길 29-44,36.2198813,127.2985063,0507-1307-5701
봉봉카라반,강원 동해시 석두골길 32 (망상동),37.5968555,129.0774234,
운일암개미캠핑장,전북 진안군 주천면 삼거길 13,35.9847692,127.3877629,063-432-7696
하늘소리 캠프,경북 상주시 은척면 성주로 162-79,36.5271193,128.0177792,
파라반,강원 화천군 화천읍 평화로 623-13,38.1019364,127.7585889,010-2839-8550
꿈꾸는바다캠핑장,충남 태안군 남면 청포대길 57-4,36.6390774,126.3019495,0507-1329-1940
버드글램핑,전북 군산시 강변로 29 (금암동),35.9857213,126.7268994,063-446-3355
캠핑에 바나나,충북 충주시 산척면 광동길 106-9,37.0914932,127.9749458,0507-1358-6993
소백산자연누리야영장,경북 영주시 풍기읍 삼가로 290,36.9120262,128.5161807,0507-1338-4935
동작휴스테이,충남 태안군 안면읍 중신로 343,36.4530720,126.3510400,041-673-7907
노블레스 글렘핑 카라반,강원 철원군 근남면 하오재로 991,38.1557117,127.4620960,
라온밸리캠핑장,충북 제천시 백운면 덕동로 561,37.2149585,127.9514463,
온새미로,강원 영월군 무릉도원면 무릉법흥로 1166,37.3605310,128.2751704,
바다랑캠핑장,충남 태안군 이원면 원이로 2142-7,36.9155549,126.3033543,
Y글램핑,충남 아산시 송악면 강당로115번길 12,36.7231734,127.0188057,041-544-8800
알프스캠핑,경북 경주시 산내면 대현길 323,35.7073081,129.0762639,
세모글램핑장,경북 경주시 산내면 문복로 850-24,35.7068123,129.0588293,070-4376-6437
은성낚시공원캠핑장,충북 제천시 봉양읍 논골로 242-4,37.1057650,128.1287101,
토우마루캠핑장,강원 정선군 화암면 거미대길 86-1,37.3526430,128.7445964,
더힐링식물원 야영장,충남 홍성군 홍동면 충절로344번길 62-42,36.5582996,126.7328430,
오호(OHO!) 캠핑장,강원 고성군 간성읍 고성중앙길 9,38.3300349,128.5269305,033-680-3357
칠봉두루뭉캠핑장,강원도 원주시 호저면 산현리 513-17 ,37.4399144,127.8924615,
그리고 캠핑장,충남 보령시 미산면 내평봉성길 342,36.2273436,126.6942453,0507-1335-1046
무흘구곡펜션 야영장,경북 성주군 금수면 성주로 322-10,35.9176577,128.0756550,054-932-5341
북두칠성캠핑장,충북 괴산군 칠성면 칠성로10길 27,36.7661834,127.8453420,0507-1301-7352
그린글램핑,전남 여수시 화양면 옥천로 998,34.7397301,127.5888938,
캠핑힐(Campi g hill),충남 홍성군 서부면 서부서길 506,36.5868877,126.4644882,
십승지힐링캠핑장,경북 상주시 화북면 중벌1길 26-6,36.6040423,127.8261064,054-537-7719
리버파크,강원 평창군 봉평면 금당계곡로 1468,37.5283194,128.3996582,033-333-3335
주천강 캠핑장,강원 영월군 주천면 무릉법흥로 15,37.2790310,128.2727962,
블루아일랜드 캠핑장,충남 서천군 한산면 송마길 171,36.1065014,126.8101946,
노을숲캠핑장,전북 부안군 변산면 격포로 453-49,35.6064092,126.4876383,010-7458-7784
산중계곡캠핑장,경남 거창군 북상면 송계사길 76,35.8297842,127.8053203,0507-1370-5028
육백고지 캠핑장,충남 금산군 남이면 휴양림로 1135,36.0699659,127.3881197,
비발디 캠핑파크 설악오색점,강원 양양군 서면 관대문길 31,38.0748589,128.4973179,
수피아글램핑펜션,충북 제천시 봉양읍 배론성지길 64,37.1571502,128.1028433,043-646-1347
돌고래 오토 캠핑장,경북 상주시 화서면 문장로 503-7,36.4726621,127.9582601,0507-1344-0537
아산스파포레,충남 아산시 음봉면 아산온천로157번길 67,36.8556847,126.9807073,041-539-2069
금산 자연 오토캠핑장,충남 금산군 남이면 휴양림로 375-15,36.0424130,127.4309057,
알지캠프266,강원 홍천군 내촌면 광석로 262,37.8348945,128.1019097,
문두리 캠핑장,경북 경주시 산내면 문복로 333-42,35.6636390,129.0542404,
pause 글램핑,경북 청도군 각북면 송내길 89-52,35.7232424,128.5675514,
도담캠핑장,강원 홍천군 서면 개야로 357-18,37.6918974,127.6399153,
신월리 오토캠핑장,전북 완주군 동상면 동상주천로 359,35.9463761,127.3175080,
무지개캠핑장,경북 성주군 금수면 성주로 828,35.9249781,128.1209562,054-932-5233
홀통183 캠핑장,전남 무안군 현경면 홀통길 183,35.0606220,126.3332752,0507-1481-0272
하조대 슈퍼카라반,강원도 양양군 현북면 하광정리 632-1 ,38.0225122,128.7232360,033-672-7687
밤부 사운드 캠핑장,경북 경주시 천북면 갈곡삼막길 14-31,35.8857674,129.2882486,054-772-8015
소리의섬,충북 충주시 앙성면 남한강변길 218-5,37.1153591,127.8045652,0507-1343-2933
캠핑드림캠핑장,충남 태안군 근흥면 용도로 410-80,36.7024877,126.2327666,
그로브(grove)캠핑,경북 청도군 운문면 신원3길 2-4,35.6723432,129.0017429,
스탈릿캠핑펜션,강원 평창군 용평면 신약수로 261,37.6719793,128.4968730,
녹고뫼캠핑장 관광농원,제주특별자치도 제주시 애월읍 유수암평화10길 175-78,33.4131549,126.4185384,
올레유,충남 태안군 원북면 동해길 201,36.8157295,126.2374834,
청도자연휴양림,경북 청도군 각북면 비슬산길 111-25,35.7090812,128.5496911,054-371-9200
라라랜드,충남 금산군 제원면 신안사로 487,36.1612297,127.5539574,070-4376-6424
명암539펜션오토캠핑장,충북 제천시 봉양읍 명암로 546,37.1900564,128.1403357,
더자리,경북 포항시 남구 호미곶면 호미로 1200,36.0629398,129.5725198,054-254-0005
용화산테마파크 캠핑장,강원 춘천시 사북면 용화산로 76-72,38.0004100,127.7442277,
두더지CAMP,충북 제천시 한수면 봉화재길 711,36.9498317,128.1209091,010-5483-8807
벅스글램핑,전남 곡성군 입면 청계동로 989-16,35.3138926,127.2184210,
어반티지 캠핑장,인천 강화군 내가면 연촌길 115-10,37.7324327,126.4113627,
보랏빛오토캠핑장,강원 인제군 상남면 아홉사리로 2848,37.8433982,128.2429555,
청도 사계절 캠핑장,경북 청도군 운문면 운문로 1436-23,35.6839484,128.9743429,
윈드힐캠핑장,인천 강화군 화도면 해안남로 1145-1,37.6136457,126.4573084,
선도리 갯벌 글램핑장,충남 서천군 비인면 갯벌체험로 428-13,36.1328472,126.5828149,041-952-5212
리우 캠핑장,경북 문경시 농암면 청화로 886-402,36.5492750,127.9927925,
대둔산 양촌 벤자민 글램핑,충남 논산시 양촌면 바랑산2길 139-18,36.1333092,127.2823378,
상동 선바위골 국민여가캠핑장,강원 영월군 상동읍 선바위길 72,37.1385799,128.8084158,033-370-2543
포레스트캐빈앤캠프,충북 제천시 덕산면 월악산로5길 17-141,36.8884588,128.1454080,0507-1377-7313
온드림캠프,전북 완주군 운주면 금고당로 677,36.0572217,127.3432703,
camp 80,경북 경산시 와촌면 갓바위로 67-25,35.9656207,128.7879888,053-851-8012
산너미목장,강원 평창군 미탄면 산너미길 225-36,37.3639934,128.4702695,
대야산 오토 캠핑장,경북 문경시 가은읍 대야로 1306-22,36.6760292,127.9590065,0507-1323-5476
산바다 캠핑장,경북 경주시 양남면 동남로 622,35.6682252,129.3940373,0507-1440-1379
펜캠2495체험학교,경북 포항시 남구 동해면 호미로 2495,36.0234201,129.5031419,0507-1334-6004
스테리움 서천,충남 서천군 마서면 삼연길64번길 19,36.0367984,126.7152080,1670-0556-
또바기캠핑장,경북 봉화군 소천면 구마동길 483,36.9842311,128.9679815,0507-1366-2778
산들내캠핑장,전북 정읍시 산외면 종운로 260,35.6067201,127.0624224,
청포대 일등캠핑장,충남 태안군 남면 청포대길 125,36.6440495,126.3004803,
삼척안뜰캠핑장,강원 삼척시 근덕면 내평길 267,37.3250388,129.2316940,
프라이빗 캠프닉,충북 충주시 살미면 월악로 1233,36.9135361,128.0673384,0507-1339-1334
소풍,충북 진천군 광혜원면 화랑길 64-11,36.9961147,127.4358060,0507-1467-8342
팜앤투어 캠핑장,충남 예산군 광시면 시목1길 70-41,36.5424617,126.7882536,
부항댐 생태휴양펜션,경북 김천시 부항면 부항댐길 777,35.9727065,127.9814267,054-421-1652
코코캠핑,충북 충주시 대소원면 외동길 192,36.9201374,127.8413806,
고든남 글램핑 & 셀프바베큐,충남 서산시 인지면 서해로 3013,36.7691306,126.4162019,0507-1356-7869
한자루체험농원(휴앤아크),강원 인제군 기린면 방동약수로 68,37.9467875,128.3885380,
어은돌오토캠핑장,충남 태안군 소원면 모항파도로 398-70,36.7504829,126.1345572,
포유카라반파크,경북 포항시 남구 구룡포읍 동해안로4176번길 12,35.9409187,129.5312614,054-286-0770
오솔길 오토 캠핑장,경북 경주시 산내면 상목길 108-3,35.7421181,129.0752812,0507-1314-9974
K-글램핑 애월점,제주특별자치도 제주시 애월읍 소길남길 120,33.4242393,126.3763973,
토마스캠프&레드캐빈,충북 청주시 상당구 낭성면 단재로 2254,36.6237486,127.6425294,0507-1333-8927
어은돌힐링야영장,충남 태안군 소원면 연들길 84,36.7536802,126.1319656,
캠프 애니말,강원 양양군 현북면 말곡길 53-12,38.0299309,128.6889562,
하선암 카라반 야영장,충북 단양군 단성면 선암계곡로 1369-1,36.9105982,128.3078304,043-422-5062
고성 탑 글램핑 농원,강원도 고성군 간성읍 탑동리 129 ,38.3474780,128.4665513,
누리별 캠핑장,경북 김천시 부항면 부항로 1087-12,35.9921294,127.9330717,0507-1365-7407
별빛뜰애,경북 봉화군 명호면 갈골길 227,36.8232707,128.8645883,0507-1319-0838
제천J글램핑,충북 제천시 백운면 운학길 326-9,37.2270515,127.9984882,0507-1341-8237
부싯돌 캠핑,충남 천안시 동남구 북면 양곡1길 233-40,36.8524255,127.2854063,0507-1314-3275
해그라미,전남 고흥군 금산면 평산길 98,34.4909618,127.1769142,
캠핑스토리,제주특별자치도 제주시 애월읍 하소로 746,33.4175616,126.3949476,
여수경도펜션카라반,전남 여수시 대경도5길 25-8 (경호동),34.7086285,127.7216264,0507-1337-8460
사계오토캠핑장,경북 포항시 남구 구룡포읍 일출로 203-20,36.0123975,129.5757391,010-5454-6582
속리산365캠핑장,경북 상주시 화북면 용화로 208-4,36.5956006,127.8457045,0507-1306-4324
약초농원 야영장,경북 청도군 운문면 운문로 1074-27,35.6675970,129.0050405,
솔내음캠핑장,충북 제천시 봉양읍 명암로 466-11,37.1880139,128.1331513,043-646-1600
꽃댕이오토캠핑장,충북 제천시 백운면 화당로2길 176,37.1852340,127.9920708,
글램조이(GLAMJOI),인천 강화군 양도면 해안서로 689,37.6886470,126.3898723,
가델관광농원,충남 아산시 신정로 200-116 (초사동),36.7379925,126.9720671,041-533-5177
원산도비치캠핑장,충남 보령시 오천면 원산도4길 59,36.3650274,126.4343379,041-935-1182
황토둥지캠핑체험장,충북 제천시 청풍면 비봉5길 45-22,36.9925197,128.1338466,043-641-6834
휘명빌리지,경북 영천시 신녕면 신화로 120,36.0459750,128.8007247,054-335-0217
경상북도교육청 영덕오토캠핑장,경북 영덕군 영덕읍 창포길 2-11,36.4095938,129.4279817,070-8230-4700
진천포레스트캠핑장,충북 진천군 백곡면 백곡로 778,36.8849707,127.3644199,0507-1486-7843
숲에안기다,경북 고령군 덕곡면 야로덕곡로 483-68,35.7718959,128.1777964,0507-1362-7446
나정고운모래해변 오토캠핑장,경북 경주시 감포읍 동해안로 1976,35.7835746,129.4906609,070-4284-0140
마린힐캠핑장,충북 제천시 수산면 옥순봉로 503-1,36.9538742,128.2239348,
일상화 글램핑,충북 보은군 산외면 성암가고로 235-6,36.5851392,127.6977627,043-543-2626
금옥골 숲속작은마을,강원 춘천시 동면 금옥1길 28-22,37.9153876,127.8031661,
대장이랜드 농촌체험휴양마을,충남 공주시 계룡면 갑사로 307,36.3687213,127.1652627,041-881-1662
공둘 캠핑장(02),충남 서천군 서면 주원로 59,36.1592093,126.5754967,010-6486-0548
월명612,경북 김천시 남면 운봉1길 11-39,36.0555660,128.2535291,0507-1378-0972
심천치유자연휴양림야영장,충남 금산군 남일면 신동길 239-123,35.9908677,127.4857778,041-751-9772
배방관광농원,충남 아산시 배방읍 솔치로 17-31,36.7460591,127.0520643,041-545-1731
거금도 청석 오토캠핑장,전남 고흥군 금산면 거금일주로 1883,34.4536023,127.2181649,
영덕 디아로 글램핑장,경북 영덕군 영덕읍 영덕대게로 625-168,36.4034212,129.4149456,0507-1453-4433
쿠 야영장,경남 창원시 마산합포구 구산면 해양관광로 1767,35.0746231,128.5655440,
물마루 캠핑장,강원 영월군 무릉도원면 두산길 106,37.3121647,128.1800362,
충주카누캠핑장,충북 충주시 동량면 지등로 1276-4,36.9758362,128.0209169,010-4479-5587
펫앤트리,충남 서산시 팔봉면 호리중말길 13,36.8411777,126.3284546,041-669-8500
너와나 야영장,강원 영월군 무릉도원면 백년계곡길 193,37.381619,128.2706209,
돌배야영장(제1야영장),강원 인제군 북면 만해로 163-23,38.1924742,128.3220762,033-463-3555
매봉힐링캠프,강원 원주시 신림면 창촌길 132,37.2604897,128.1386278,033-761-2282
은고개 캠핑장,경기 광주시 남한산성면 엄미길 171,37.4750048,127.2224468,031-795-1100
송지호 오토 캠핑장,강원도 고성군 죽왕면 동해대로 6090 ,38.3381838,128.5054975,033-681-5244
풀문캠핑앤글램핑리조트,경기 가평군 상면 청군로 1487,37.8194432,127.3282548,031-585-3063
명파 해변 오토캠핑장,강원 고성군 현내면 명파4길 47,38.543611,128.405619,
자작도캠핑장,강원 고성군 죽왕면 삼포해변길 94,38.3116696,128.5386255,010-2103-9688
백도오토야영장,강원 고성군 죽왕면 문암항길 133,38.3017339,128.5464673,010-2176-0743
선택적고립캠핑장,경기 가평군 상면 축령로70번길 106,37.7576449,127.3578425,
소나무세상,강원특별자치도 춘천시 사북면 사여골길 101,38.0117532,127.7446047,
천왕봉캠핑장,경남 산청군 시천면 구미길 5,35.2441597,127.7893149,
80포레스트카라반캠프,대구 군위군 부계면 한티로 1525-6,36.0298746,128.6307242,0507-1445-7550
스테이635,경기 포천시 이동면 화동로1724번길 60,37.9993732,127.3705635,0507-1488-1617
사목힐링캠프 태안캠핑농원,충청남도 태안군 이원면 내리 958-2,36.9198291,126.2929339,
바람부리 별밤 캠핑장,강원 강릉시 왕산면 바람부리길 69,37.6025709,128.7210128,010-9095-6333
토리글램핑,경남 사천시 서포면 토끼로 215,34.981405,127.964447,055-855-2255
약수동산,경기 양평군 옥천면 약수동산길 86,37.50762979396307,127.45514704825574,031-771-4664
아메리카 RV CAMP PARK,경남 창녕군 유어면 우포1대로 285-1,35.5179743,128.3816442,1566-6154-
장수자연관광농원,경기 용인시 처인구 원삼면 보개원삼로1462번길 14-23,37.1244409,127.3144633,
포시즌 캠핑장,경기 가평군 상면 청군로 1640,37.8270925,127.3203681,010-3201-3940
존제산 하느제 캠핑장,전남 보성군 벌교읍 옥전1길 480,34.8436228,127.2331278,061-857-1544
백년펜션 야영장,강원 영월군 무릉도원면 백년계곡길 177,37.3799533,128.2711531,010-8288-3646
청옥산깨비마을 야영장,강원 평창군 미탄면 수리재길 21,37.3674464,128.4852031,
케이 캠핑장(K캠핑장),경기 가평군 가평읍 경반안로 229,37.8272509,127.4824771,031-581-8806
힐링캠프Su set,인천 중구 선녀바위로 70,37.439587,126.379427,
클럽레스피아,강원도 홍천군 구룡밭길 24-30 ,37.6856375,127.7276930,010-7709-0114
영월키즈캠핑장,강원 영월군 무릉도원면 무릉법흥로 1208-7,37.363858,128.2733941,033-374-1746
연천 당포성 캠핑장,경기도 연천군 미산면 마동로 38-50,38.0215200,126.9873618,010-9910-0064
백운힐링 캠핑장,경기 포천시 이동면 포화로 320-1,38.0762131,127.4182271,031-536-3754
상양관광농원,충청남도 보령시 주교면 문화마을길 178-58 ,36.3697240,126.5918380,
예다움 캠핑장,강원 영월군 김삿갓면 내리계곡로 1162-1,37.1097398,128.6709712,
우리 캠핑장,경기 포천시 이동면 금강로 6280,38.0884838,127.391479,031-535-7614
은사시캠핑장,경기 파주시 적성면 자장로 115,37.9565003,126.8446011,031-959-4795
제천워터파크캠핑랜드,충북 제천시 봉양읍 용두대로40길 172-22,37.1590072,128.1404996,043-653-0333
달빛글램핑장,경기 포천시 일동면 사기막길 67-6,37.964975,127.3380864,010-9030-3294
하얀숲 오토&글램핑,경기 포천시 관인면 담터길 123,38.1481318,127.2068434,033-456-2200
깊이울관광농원,경기 포천시 신북면 깊이울로 139-8,37.9239705,127.1759170,031-532-9787
무릉도원 캠핑장,강원특별자치도 영월군 무릉도원면 고일길 15-5,37.345278,128.195825,
문경수예리오토캠핑장,경상북도 문경시 가은읍 작약로 576,36.5999957,128.0537121,010-2353-8046
하늘빛계곡,강원도 양양군 서면 설악로 1760 ,38.0728584,128.5356046,010-7276-7835
씨밀레자연관광농원,경기 용인시 처인구 이동읍 이원로601번길 1-5,37.1633605,127.2491161,010-8354-8645
연미향마을 오토캠핑장,경기 용인시 처인구 원삼면 백원로 128-7,37.1562776,127.3304432,031-338-3317
별빛누리 글램핑,경기 가평군 상면 청군로 253,37.7543007,127.4077889,
별밤 차박 캠핑장,충북 제천시 수산면 상천1길 67,36.9696635,128.2402262,010-5289-5151
산청프리미엄캠핑장,경남 산청군 산청읍 웅석봉로154번길 89-17,35.4000608,127.8726850,
대가야역사테마관광지 캠핑장,경상북도 고령군 고령읍 대가야로 1216 ,35.721096,128.2601414,054-954-5279
산타캠핑장,경북 봉화군 소천면 풍애길 9-40,36.9264701,129.0536806,054-679-6843
땡땡이글램핑,전남 장흥군 대덕읍 신흥1길 5-55,34.5051709,126.9101566,
김원장캠핑,경기 가평군 조종면 연인산로 670-458,37.9538902,127.4775335,
골드 오션 글램핑,경기 안산시 단원구 대부해안로 271 (대부북동),37.2519080,126.5636653,032-880-1644
플라워 카라반 펜션,경기도 양평군 석산로 1543-9 ,37.6461649,127.6170725,010-3668-0778
유니의바다 카라반캠핑장,경북 포항시 남구 구룡포읍 일출로332번길 95-10,36.0285635,129.5812811,010-4806-1031
물동네 힐링 야영장,경기 남양주시 수동면 비룡로 945,37.7174539,127.3158468,031-553-0485
명학산 캠핑장,경기도 파주시 파주읍 향양리 4-1,37.8510485,126.8312976,010-6649-2387
링크독 애견캠핑장(Li k dog 애견캠핑장),경기 가평군 설악면 신천중앙로28번길 101-60,37.661018,127.489931,010-5382-1943
가평더스카이글램핑앤카라반,경기 가평군 설악면 한서로 543-31,37.6639708,127.5442955,1688-8614-
달빛그릴캠핑,경기 동두천시 삼육사로 1420 (탑동동),37.8898094,127.1049853,0507-1381-1484
캠핑스테이 청포대,충남 태안군 남면 청포대길 88,36.6418910,126.3023810,
활주로 야영장,경남 밀양시 삼랑진읍 삼랑진로 1051,35.4350045,128.8037992,
린하우스,경북 청도군 청도읍 운산3길 47,35.6816436,128.7753079,
영천 솔롱고 글램핑,경상북도 영천시 금호읍 칠백로 436 ,35.9017672,128.9266030,054-333-0146
트리풀(treefull),대구 군위군 부계면 한티로 1570-9,36.0290486,128.6361438,
남한산 숲속캠핑장,경기 광주시 남한산성면 남한산성로 314-18,37.4597240,127.2206194,
숯숯,충남 천안시 동남구 유량로 107 (유량동),36.8075052,127.1705192,1811-8530-
계곡에풍덩펜션캠핑장,경기 가평군 조종면 명지산로 469,37.9105188,127.3820148,1566-8753-
가화 2372,경기 가평군 북면 가화로 2372-22,37.9538902,127.4775335,
캠핑팜,경북 경주시 산내면 대현동골길 80-70,35.6911525,129.0587274,0507-1395-5279
비치드웨일 카라반야영장,경북 포항시 남구 호미곶면 구만길 182,36.0842733,129.5534205,
아우내관광농원캠핑장,충남 천안시 동남구 병천면 관성3길 267-40,36.8215512,127.3412673,
담터라온글램핑,강원 철원군 동송읍 담터길 352,38.1619799,127.1896317,0504-2016-3960
아산곡교천야영장,충남 아산시 곡교천로 407 (권곡동),36.8063004,127.0009999,041-533-4578
화순정원글램핑관광농원,전남 화순군 백아면 백아로 2280-1,35.1533461,127.087810,0507-1434-5587
해해카라반,울산 울주군 서생면 해맞이로 1236-20,35.3600837,129.3563571,
경주생태원캠핑장,경북 경주시 천북면 물천안길 31,35.8691237,129.281675,054-741-7700
토로캠핑,경기 가평군 북면 화악산로 942,37.9381493,127.5405948,0507-1327-8180
홍천에코밸리 캠핑장,강원 홍천군 북방면 생태공원길 237-56,37.7478890,127.8554608,033-433-0805
소구니캠핑장,강원특별자치도 홍천군 내촌면 용포길 95-48,37.8247406,128.0535286,010-9381-6999
월촌캠핑야영장,경상남도 함안군 군북면 월촌3길 71-13,35.291564,128.3020472,
중바위캠핑장,경기도 가평군 북면 제령아랫말길 70 ,37.8879363,127.5379731,031-581-8000
천사봉 오토 캠핑장,경기 양평군 단월면 고북길 111-10,37.5949800,127.5966175,
캠프도고,충청남도 아산시 선장면 삼봉로 70 ,36.7749553,126.8733281,
청보리오토캠핑장,경상남도 통영시 욕지면 욕지일주로 896-71 ,34.6396511,128.2308605,010-8075-5005
플로렌스 글램핑 & 캠핑,경기 가평군 북면 보안벚꽃길 54,37.8928651,127.550502,
(주)아웃오브파크,강원도 춘천시 남면 가옹개길 52-9,37.7278127,127.5112565,1522-1861-
서건도카라반,제주특별자치도 서귀포시 이어도로 826-51 ,33.2325358,126.5001923,064-739-8012
문장대오토캠핑장,경상북도 상주시 화북면 상오리 573-4 ,36.5441356,127.9247206,054-533-1165
속리산 사내리 캠핑장,충북 보은군 속리산면 법주사로 248-46,36.5309030,127.8254907,
물꽃 캠핑장,경기도 연천군 군남면 청정로 2122 ,38.0375605,127.0292456,010-3627-2781
공주교육가족체험장,충남 공주시 우성면 용봉입동로 524,36.4645591,126.9874125,041-881-9314
돌머리 하우스캠핑,전남 함평군 함평읍 주포로 615,35.0860517,126.4421186,061-320-1942
수원 솔내음 캠핑장,경기 수원시 권선구 칠보로 2 (금곡동),37.2673983,126.9386874,070-7766-8880
몬테비얀코,경기 포천시 이동면 늠바위길 181,38.0294047,127.3864808,
드래곤오토캠핑장,충청북도 제천시 백운면 덕동로 205-4 ,37.2011666,127.9796003,
블루밍,경북 포항시 남구 장기면 동해안로 2816,35.8500432,129.5191407,010-2652-0940
일월관광농원 캠핑장,충남 공주시 이인면 산소골길 82,36.3648353,127.0415022,
우주캠프,강원 원주시 신림면 신림황둔로 676,37.2510174,128.1375783,010-3258-5758
통영에코파크,경남 통영시 산양읍 연대길 123,34.7393126,128.3994167,
예원캠핑장,전라북도 완주군 동상면 송광수만로 1079-126 ,35.9264673,127.2579565,
진안국제 캠핑장,전북 진안군 용담면 와룡길 165-6,35.9654932,127.4611194,063-433-1471
트리독스 애견전용캠핑장,경상북도 고령군 쌍림면 용당길 42-56 ,35.6504808,128.2300669,054-954-1611
백마강레저파크,충남 부여군 규암면 왕흥로 424,36.3021960,126.9159298,02-576-2912
삼원레저타운,충남 서산시 팔봉면 진장서낭골길 203-14,36.7770643,126.3497965,041-663-1111
수타사 힐링 캠프,강원특별자치도 홍천군 영귀미면 수타사로 372-12,37.6926140,127.9564658,010-8872-7679
허브하우스 금오산힐링타운,경북 김천시 남면 우장길 448,36.0998652,128.2764332,010-7402-4555
나주 죽산보 오토캠핑장,전남 나주시 다시면 죽산리 123-3 ,34.9705948,126.6279903,010-7231-9927
CAMP699,강원특별자치도 인제군 북면 진부령로 69-7,38.2212233,128.3675544,033-462-7001
은하수 리조트,경남 밀양시 단장면 표충로 1106,35.5242710,128.9333173,0507-1432-2319
지리산 콤마 612,경남 산청군 시천면 삼신봉로 689-8,35.2776011,127.7481081,
힐링빌리지 캠핑장,전남 고흥군 두원면 연강예회길 299-18,34.6843356,127.2775470,
테라피크닉,경기 파주시 탄현면 웅지로110번길 68-13,37.8139428,126.7350518,
주식회사 바비큐팩토리 가수원점,대전 서구 벌곡로 1283 (가수원동),36.2959353,127.3563036,0507-1395-3929
바베큐존파크,경기 포천시 소흘읍 광릉수목원로874번길 16,37.7787465,127.1465113,
바글바글 관광농원,충남 논산시 관촉로 24 (관촉동),36.1930877,127.1145491,
글램탐다오,경기 가평군 설악면 묵안로 560,37.6289889,127.5122394,070-4148-2580
머물곶,울산 울주군 서생면 해맞이로 1236-22,35.3599579,129.3565935,0507-1423-8658
간절곶캠프야영장,울산 울주군 서생면 해맞이로 1236-26,35.3600586,129.3570211,0507-1416-7761
메종야영장,울산 울주군 서생면 해맞이로 1236-14,35.3603129,129.3561007,
애플망고,울산 울주군 서생면 해맞이로 1349,35.3684830,129.3532858,
지리산길섶 솔숲야영장,전북특별자치도 남원시 산내면 중기1길 125,35.4286063,127.6366814,
오산야영장,경북 울진군 매화면 망양정로 215,36.9011533,129.4180969,
하월 오토캠핑장,경북 경주시 산내면 오봉로 977,35.8305948,129.0183239,0507-1482-3110
동양원목캠핑장,강원 영월군 무릉도원면 명마동길 13,37.2858252,128.2780739,
힐링빌리지,울산 울주군 서생면 화산발리로 325-62,35.3718011,129.2817082,
사가록캠핑장,강원 춘천시 동면 길골길 63-14,37.8636577,127.8337842,033-241-9522
위드독스i 포천,경기 포천시 관인면 뗏마루길 128-26,38.1206961,127.2523520,
한별마을 야영장,강원특별자치도 양양군 서면 영덕리 455,37.9973426,128.5372627,033-673-3808
삼태기캠핑장,충북 괴산군 청천면 화양로 848,36.6804136,127.8158325,043-832-1426
영월천문대 캠핑장,강원 영월군 북면 사만길 173,37.2636377,128.409898,010-4282-6542
노을진 캠핑장,인천 서구 정서진로 500 (오류동),37.5719021,126.6440687,032-569-7847
깃대 캠핑장,충북 보은군 마로면 세중기대로 261-128,36.3993759,127.8060746,070-7845-3088
별빛밤바다,전남 장흥군 회진면 가학회진로 1020-21,34.4509530,126.9379465,
퀘렌시아,경북 울진군 온정면 삼덕로 799,36.6920146,129.3804112,0507-1327-6790
담양 금성산성 오토캠핑장,전남 담양군 금성면 새덕굴길 135-88,35.3677149,127.0344605,061-383-7272
좋은외박캠핑장,전북 부안군 변산면 격포로 453-10,35.6054279,126.4848027,063-584-1700
산으로간 니모 캠핑장,경기 가평군 조종면 연인산로 670-321,37.854851,127.396992,031-584-5550
통영 편백숲길관광농원 캠핑장,경남 통영시 천대국치길 297-10 (인평동),34.8384850,128.3901051,
짱아 야영장,경기도 남양주시 별내면 용암리 210번지,37.737558,127.1284768,031-842-3434
티피 캠핑장,강원 고성군 죽왕면 괘진길 54,38.2959090,128.5486623,010-4097-0803
하마캠핑장,경기도 파주시 적성면 국사로 297 ,37.9608521,126.8693874,
캡틴 카라반 글램핑,경기 가평군 상면 청군로 776-22,37.7806519,127.3713292,010-5334-8883
Camp 1950,경북 김천시 대덕면 남김천대로 160,35.8787838,127.9410435,055-942-5006
마이산 풍혈냉천 캠핑장,전북 진안군 성수면 용포로 345,35.7208543,127.3028273,063-432-1182
상황오토캠핑장,충청남도 홍성군 서부서길 633-60 ,36.5849333,126.4764272,041-634-6867
덕유캠프농장,전라북도 무주군 설천면 구천동로 1262-4 ,35.9246790,127.7594960,
학포야영장,경상북도 울릉군 서면 태하리 420,37.5085178,130.8052421,054-791-6781
해미읍성역사캠핑장,충남 서산시 해미면 동문1길 40,36.7125531,126.5520635,041-688-0999
그린스톤 오토캠핑장,경상북도 문경시 완장길 103-63 ,36.6830162,127.9773911,
해양대국,경남 통영시 욕지면 옥동로 384,34.6341113,128.2931334,0507-1431-7929
내장호야영장,전북특별자치도 정읍시 내장호반로 276 (내장동),35.5074531,126.9058608,
그랜드 파파하우스야영장,경남 진주시 지수면 용봉로 533,35.2508039,128.2294357,010-3776-3762
독립기념관 캠핑장,충남 천안시 동남구 목천읍 독립기념관로 1,36.781872,127.2303981,041-560-0711
글로리아 캠핑장,경남 창원시 마산합포구 구산면 해양관광로 1090-90,35.0959967,128.5476326,
솔밭사이로 캠핑&펜션,강원 영월군 무릉도원면 중방안길 14-2,37.2911507,128.2710403,
감산,경북 경주시 산내면 단석로 1195-2,35.7922169,129.0578405,054-751-9000
충주 목계솔밭 캠핑장,충북 충주시 중앙탑면 첨단산업로 1438,37.0744322,127.8796864,
백허그 캠핑장,경기 가평군 북면 백둔로 61-41,37.8978328,127.4972267,010-9721-1821
라이프위드도그,강원 인제군 인제읍 자작나무숲길 1112,38.0015600,128.2316879,033-461-3377
월아산 자연휴양림,경남 진주시 진성면 달음산로 313,35.1999150,128.1941257,055-746-3673
위드힐링 캠핑장,강원 영월군 주천면 미다리길 74,37.2902186,128.3273375,
별빛테마마을 야영장,경상북도 영천시 화북면 별빛로 681-32,36.1402922,128.9964930,054-330-6400
제암산자연휴양림 야영장,전남 보성군 웅치면 대산길 330,34.6998159,126.9874841,061-852-4434
송호국민관광지 야영장,충북 영동군 양산면 송호로 105,36.1297370,127.6763588,043-740-3228
수승대야영장,경상남도 거창군 위천면 강천리 3번지 ,35.7587062,127.8315083,055-940-8530
안산화랑오토캠핑장,경기도 안산시 단원구 초지동 동산로 268 ,37.3226948,126.8166798,031-481-9801
정읍시 내장산 국민여가캠핑장,전라북도 정읍시 내장산로 390 ,35.5249589,126.8948546,063-538-7955
단호샌드파크 자동차야영장,경북 안동시 남후면 풍산단호로 835-35,36.5556990,128.6302903,054-850-4595
백운산 자연휴양림 야영장,전라남도 광양시 옥룡면 백계로 337 ,35.0559529,127.5930809,061-797-2655
백운산 자연휴양림 자동차야영장,전라남도 광양시 옥룡면 백계로 337 ,35.0559529,127.5930809,061-797-2655
광명도덕산캠핑장,경기 광명시 밤일안로42번길 69 (하안동),37.4592422,126.8607682,02-2610-7370
프로방스 캠핑장,경기 파주시 월롱면 송화로 170-27,37.7807259,126.7761514,070-8778-3100
용인 대장금파크 글램핑 카라반,경기 용인시 처인구 백암면 용천드라마길 25-10,37.1204456,127.3403361,0507-1497-8688
홍천도새울캠핑장,강원 홍천군 북방면 도사곡길 778,37.6874632,127.8031484,010-6231-6101
도토리 캠핑장,강원 홍천군 서면 가일길 198,37.6568611,127.5965402,010-6235-2953
펀펀오토캠핑장,경북 상주시 화서면 문장로 425-5,36.4713360,127.9639491,0507-1308-3338
새솔캠핑장&펜션,강원 영월군 무릉도원면 무릉법흥로 968-9,37.3438290,128.2800377,010-7669-6526
캠프 우든브릿지,강원 영월군 무릉도원면 두산길 299-8,37.3048111,128.1647883,
온더비치 글램핑,인천 옹진군 영흥면 선재로306번길 27-125,37.2570984,126.5169094,
여유캠핑장,강원 삼척시 근덕면 내평길 261,37.3251008,129.2320081,010-5639-8209
여수 작금캠핑장,전남 여수시 돌산읍 돌산로 649-12,34.5928427,127.7600050,
별드림캠핑장,경기 가평군 가평읍 당목가일길 515,37.8724804,127.5657964,
타이거스피드 안녕오토캠핑장,경상남도 창원시 마산합포구 구산면 안녕로 329,35.1078798,128.6006434,055-242-7942
DS Camp 캠핑장,충남 금산군 남일면 금산로 79,35.9896047,127.5119907,
나봄야영장,전라북도 무주군 설천면 삼공리 449-3 ,35.8937903,127.7769061,
월든캠프,강원특별자치도 양양군 현남면 갓바위1길 154,37.9360329,128.7844806,0507-1402-1974
영월 엄둔밸리 계곡캠핑장 ,강원 영월군 무릉도원면 엄둔길 145,37.3097666,128.2350495,010-3244-3968
포천아르테미스 글램핑,경기 포천시 영중면 호국로 3226-37,38.0272702,127.2625110,010-3087-3227
영월가자 펜션&캠핑장,강원 영월군 무릉도원면 무릉법흥로 852-24,37.3335821,128.2828521,033-375-8505
안석관광농원,경기 화성시 남양읍 안석길140번길 2,37.1693374,126.8267051,010-9804-6622
힐링 글램핑,경북 칠곡군 동명면 기성5길 27,36.0002465,128.5955528,010-9574-9268
종달 바베큐 캠핑,제주특별자치도 제주시 구좌읍 세종로 353,33.4987885,126.8907010,
스테이 그린,충남 아산시 시민로180번길 71 (법곡동),36.7616614,127.0002569,
더 봄날 캠핑장,충북 음성군 삼성면 대양로 71-13,37.0380662,127.4837649,
캠프(camp)301,대구 군위군 산성면 산성가음로 996-2,36.1460718,128.7140726,
육백캠핑장,충남 금산군 남이면 휴양림로 1129,36.0704293,127.3885077,
산타 야영장,경북 봉화군 소천면 풍애길 211-1,36.9398801,129.0494160,
스마트24 FG,전북 전주시 완산구 학봉1길 39 (서서학동),35.8019984,127.1515172,0507-1389-9294
화야 캠핑장,경기 가평군 설악면 유명로 1907-41,37.6808405,127.4689423,010-5123-7281
화성시 향남 오토캠핑장,경기도 화성시 향남읍 도이2길 113-26,37.138245,126.928181,031-8059-4763
화성시 매송 오토캠핑장,경기도 화성시 매송면 어천리 164 ,37.25773422847022,126.91615647964286,031-293-9923
포천 비둘기낭 캠핑장,경기 포천시 영북면 비둘기낭길 116,38.0771566,127.220635,1666-9260-
아이에프에이 캠프운악,경기도 포천시 화현면 화현리 1090-2 ,37.8946656,127.3058131,010-2923-8141
더세븐글램핑카라반,경기 포천시 이동면 화동로 2496-22,38.0650584,127.3896367,
옥수온천캠핑랜드,경남 고성군 회화면 남해안대로 4065,35.0892776,128.3772088,010-2385-2565
핫도그342애견글램핑카라반 주식회사,경기도 포천시 일동면 수입리 700-8,37.9954235,127.3159267,010-7226-0430
유곡리 평화마을 캠핑장,강원 철원군 근북면 유곡로 545,38.3012236,127.3989901,033-455-3904
세라핌 글램핑 캠핑장,경기 가평군 설악면 묵안로 626-17,37.6236274,127.5139088,
고성라벤더 캠핑장,강원특별자치도 고성군 간성읍 꽃내마루길 54,38.3511506,128.4286002,
군위전투전승기념공원 캠핑장,대구 군위군 삼국유사면 동부로 81,36.1106110,128.7494632,054-383-9480
이스턴모스트카라반,경북 포항시 남구 구룡포읍 땅끝마을길 47,36.0169429,129.5809176,
앵봉산 가족캠핑장,서울 은평구 통일로 1053 (진관동),37.6358864,126.9158491,02-350-5233
별품은 숲속 캠핑장,경북 칠곡군 동명면 구남로 309,36.0050839,128.5761186,
진동리 국민여가캠핑장 by zapza,강원도 인제군 기린면 진동리 618번지,37.970409,128.421977,033-463-6510
휘게포레스트,강원 평창군 용평면 이승복생가길 114,37.6978701,128.4753860,0507-1305-5661
청풍호오토캠핑장,충북 제천시 금성면 청풍호로39길 103,37.0287008,128.1867546,010-5577-6941
한탄강 소나무 캠핑,경기도 연천군 전곡읍 선사로286번길 37,38.0166750,127.0775474,
가리왕산 자건재,강원 정선군 정선읍 청량길 14-2,37.4232491,128.5767607,033-563-0303
캠프 파지립,강원특별자치도 춘천시 동면 춘천순환로 923,37.9201844,127.7499632,033-910-1000
칠곡보 오토캠핑장,경북 칠곡군 약목면 관호리 8,36.0202574,128.395463,054-972-0100
빈투어 주식회사,서울 중구 퇴계로 36 (남창동),37.5573093,126.9770507,
이 밤,경북 포항시 북구 청하면 해안로2000번길 33-20,36.1811265,129.3917834,
파랑새 캠핑장,전남 장성군 북하면 백양로 447,35.4260534,126.8473535,0507-1403-2556
와우바베큐캠핑장,충청남도 천안시 동남구 목천읍 서흥리 373-3 ,36.8082957,127.229622,
달문관광 농원,경북 칠곡군 지천면 지천로 487-21,35.9737120,128.4819870,0507-1371-3389
팜 스프링캠프,경북 김천시 봉산면 광천4길 232-24,36.1978065,127.9983845,0507-1479-1306
금천계곡 야영장,전남 광양시 다압면 대청길 15,35.1569293,127.652178,010-7930-0071
의령나루캠프,경남 의령군 화정면 화정로14길 16-5,35.2582718,128.2705036,
자연밸리 관광농원,경기도 포천시 관인면 사정리 38 외 3필지,38.1081491,127.2526322,031-534-5656
해월카라반앤캠핑,충남 공주시 사곡면 해월길 60-60,36.5151423,127.016365,
가자우리집,충북 괴산군 칠성면 쌍곡로 503,36.7454056,127.9012172,043-834-7888
새울림오토캠핑장,경남 통영시 욕지면 욕지일주로 742-20,34.6471472,128.2331304,
메이플글램핑카라반2호점,경기 포천시 이동면 화동로 2206-2,38.0427027,127.3735639,
스테이700,대구 군위군 삼국유사면 화산길 619-64,36.0962389,128.7766447,
몽돌바다캠핑장,전남 신안군 암태면 진작지길 139-63,34.8744903,126.1374313,061-262-8872
더 빌리지,충북 진천군 문백면 봉죽2길 20-78,36.7850795,127.4238732,
메이플글램핑&카라반,경기 포천시 이동면 화동로 2236-25,38.04441628383899,127.3750053687656,
두밀 노천스파 글램핑,경기 가평군 가평읍 태봉두밀로 421-28,37.8151834,127.4538035,0507-1328-9028
516 글램라반,경기 가평군 가평읍 북한강변로 516,37.7722779,127.5361162,
코뿔소글램핑,강원 평창군 방림면 삼형제길 279-61,37.4726116,128.2890865,010-3795-9243
아름드리 캠핑장,경북 경주시 외동읍 방어북토길 178,35.7445467,129.2802864,
캠핑7604,경기 연천군 신서면 윗대광길 49-7,38.1977884,127.1246676,031-834-5693
포천 리버빌캠핑&카페,경기 포천시 이동면 성장로 1024-116,38.0075884,127.353803,
덕두글램핑,강원특별자치도 춘천시 서면 박사로 257-12,37.8489507,127.6697009,033-255-2225
벌곡 산속 캠핑장,충남 논산시 벌곡면 만어1길 105,36.1850495,127.3118837,0507-1314-9955
옥화 포시즌캠핑장,충북 청주시 상당구 미원면 운암계원로 819,36.6112807,127.7423345,
달산포진주캠핑장,충남 태안군 남면 달산포로 121-32,36.6540259,126.2973171,
굿모닝오소재글램핑,전남 해남군 북일면 오소재로 174-22,34.4723121,126.6607552,
수룡캠핑장,전북 완주군 운주면 금고당로 914,36.0372997,127.3423037,
자호천생태학교,경북 영천시 자양면 신방로 626,36.0665764,129.0735873,
캠핑클라쓰,충북 옥천군 청성면 묘금3길 11,36.2766530,127.7323400,
뚜띠아모 캠핑장,전남 고흥군 동일면 성두구룡길 88,34.5246163,127.4411212,061-832-5555
청풍레이크 카라반,충북 제천시 수산면 옥순봉로 967,36.9748222,128.2102598,
진천명품휴미락캠핑장,충북 진천군 백곡면 용암2길 108-36,36.8744595,127.3667318,0507-1446-2221
이비가에프앤비야영장(A),충청남도 태안군 소원면 파도리 산 202-1 ,36.7416289,126.135522,
동학사힐링캠핑장,충남 공주시 반포면 사봉길 71-31,36.3678084,127.2626171,
자이언트레저,경기 가평군 설악면 유명로 2570,37.7208791,127.4275823,031-584-2446
아침가리 계곡 캠핑장,강원도 인제군 기린면 조침령로 1156,37.9646985,128.4127341,033-463-7342
라온캠핑장,경기 가평군 청평면 호반로 740,37.7086466,127.4657831,
비토 국민여가캠핑장,경남 사천시 서포면 용궁로 124,34.9656309,127.9825479,070-8988-4000
동강글램핑,강원도 영월군 영월읍 동강로 124-10,37.1938451,128.5032752,033-375-1112
문화관광농원청소년야영장,경상남도 거제시 동부면 가배오송길 123,34.7894635,128.5795813,055-633-5955
영암 들소리 키즈 글램핑,전라남도 영암군 신북면 들소리로 384-14 ,34.9286847,126.6789939,
원남지야영장,충청북도 음성군 원남면 조촌리 930,36.8729004,127.5978647,043-872-8801
좋은하루캠핑장,전북 완주군 운주면 금고당로 367-80,36.0667530,127.3190091,0507-1344-2474
경호강 캠핑장,경상남도 산청군 단성면 방목리 627 ,35.357555,127.9162539,010-7587-5864
덕동리301캠핑장,충북 제천시 백운면 덕동로2길 63,37.2198938,127.9556303,043-644-8266
하늘하루자연관광농원,경남 밀양시 단장면 고례4안길 30,35.4976845,128.9320507,010-6812-1817
홍천불멍멍글램핑캠핑장,강원특별자치도 홍천군 화촌면 군들길 20,37.7479794,128.0350186,0507-1373-7738
을수골 별빛계곡,강원 홍천군 내면 을수길 127,37.8178687,128.4577053,
별애드림 캠핑장,충북 영동군 심천면 난계로 712-42,36.1999273,127.7386744,
캠프공존,경북 영천시 금호읍 가라골1길 90,35.9209623,128.8610101,0507-1322-4294
중앙캠핑장,충남 태안군 원북면 구례포길 47-20,36.8863666,126.1985040,
월악아지트캠핑장,충북 제천시 덕산면 월악산로 178,36.9061982,128.1184176,
프라이빗캠핑장,충청남도 태안군 원북면 방갈리 515-31 ,36.8984529,126.211951,
청솔글램핑장,경북 고령군 덕곡면 백리로 40-18,35.7951045,128.2163740,
봄빛 글램핑 앤 바비큐,전북 김제시 금구면 대율2길 41,35.7886960,127.0331502,0507-1403-6606
문스 글램핑,대전 동구 산내로 243 (하소동),36.2086218,127.4399213,0507-1370-3077
인더밸리,충북 제천시 봉양읍 명암로 740,37.1945884,128.1608406,
이포보 오토 캠핑장,경기도 여주시 대신면 여양로 1935-177 ,37.3865253,127.5491891,031-881-6384
이포보 웰빙 캠핑장,경기도 여주시 대신면 여양로 1935-67 ,37.3929435,127.5473431,031-883-6384
트리앤캠프스토리,강원 양구군 양구읍 성곡로 849,38.1604288,127.9636198,
화진해수욕장마을번영회야영장,경북 포항시 북구 송라면 동해대로3218번길 62,36.2535863,129.3721474,
우니메이카 문경점,경북 문경시 산양면 덕암길 6,36.6009392,128.2561852,010-5413-4224
곽지몬스터캠핑,제주특별자치도 제주시 애월읍 일주서로 6083-3,33.4547608,126.308072,064-799-6083
474오토캠핑장,충북 옥천군 이원면 의평길 74-47,36.2109716,127.6192622,
파라독스 애견펜션 / 돔글램핑&오토캠핑장,충남 태안군 남면 마검포길162-31,36.6201728,126.304464,010-8916-6652
졸드루오토캠핑장,강원도 정선군 북평면 졸드루길 31-57 ,37.4512545,128.6396167,010-2737-8357
레스트,강원 춘천시 사북면 화악지암길 600-112,37.9767025,127.6278216,010-8747-6416
파인트리캠핑장,강원 정선군 남면 광락로 349-30,37.3161381,128.6937206,010-8879-2470
민트초코캠핑장	,강원특별자치도 양구군 양구읍 석현리 49,38.0489863,127.972804,010-7250-5010
우니메이카 장흥점,전남 장흥군 회진면 회진로 732-10,34.4739184,126.963439,0507-1346-1577
양양한스오토캠핑장,강원특별자치도 양양군 강현면 용호길 11,38.1294784,128.6201176,
왕피천하늘담야영장,경북 울진군 근남면 왕피천로 555-110,36.9202253,129.3424568,010-3804-9193
불국사 한옥 글램핑,경북 경주시 진티길 5-50 (진현동),35.7827705,129.3279152,
가평 밤나무숲캠핑장,경기 가평군 북면 화악산로 686-57,37.9380392,127.562190,010-4330-8834
태라 글램핑,충북 제천시 봉양읍 제원로8길 21-26,37.1741582,128.1086979,043-645-7688
제주 산내들 여행사,제주특별자치도 서귀포시 남원읍 남조로 861-83,33.3431403,126.6960408,
비건캠핑,강원 영월군 산솔면 송운길 69,37.13196048630606,128.72473231183943,033-251-8900
I(아이)캠핑,강원도 양양군 서면 서림리 280-7 ,37.9723155,128.5215231,
수레의산 국민여가 캠핑장,충북 음성군 생극면 차곡리 151,37.0393686,127.6526551,043-878-2013
제주베스트힐,제주특별자치도 제주시 조천읍 남조로 2109-36,33.4540559,126.6575251,070-4400-3300
청도군 자전거공원 캠핑장,경북 청도읍 유호리 39-5,35.587208,128.7662481,054-373-2425
산내들 패밀리 어드벤처파크,경북 김천시 지례면 부항로 109-38,35.9771001,128.0156817,054-436-9555
선달산계곡캠핑장,경북 영주시 부석면 영부로890번길 61-50,37.0357641,128.6765205,010-4910-1181
성덕댐 수달 캠핑장,경북 청송군 안덕면 성덕댐로 1291-70,36.2435603,128.9643954,
광주시민의 숲 야영장,광주광역시 북구 월출동 968번지,35.2343087,126.8672217,062-613-6467
교동아일랜드,인천 강화군 교동면 교동남로 275,37.7728422,126.3009741,032-934-5856
노르딕 민박,충북 충주시 중앙탑면 반천안길 55,37.0382746,127.8566003,010-7574-6692
물소리 캠핑장,경기 포천시 관인면 담터길 239,38.1557453,127.1978921,010-5224-5500
별헤는 밤,제주특별자치도 제주시 애월읍 광상로 348,33.443689,126.396876,
보경사힐링캠핑장,경북 포항시 북구 송라면 보경로 307,36.2381167,129.3425505,
산과별 관광농원,충남 공주시 사곡면 부곡산성로 187-15,36.5935184,127.0183811,041-841-8201
마의태자캠핑장,강원 인제군 상남면 엄달골길 165,37.8670983,128.2416632,033-461-6625
하조대캠핑카,강원도 양양군 현북면 하광정리 618-2 ,38.0234338,128.7227502,033-673-3322
소휴,전남 화순군 화순읍 백천로 632,35.0847548,127.0183567,010-2670-6883
형제섬캠프타운,전남 고흥군 동일면 우주로 2468-12,34.5104408,127.4570399,
경산 모골캠핑장,경북 경산시 남천면 모골길 221-13,35.7721165,128.7134537,
춘천 더숲 캠핑장,강원도 춘천시 남산면 산수리 513-5,37.6937569,127.6460339,
가리왕산 정원 캠핑장,강원특별자치도 정선군 북평면 오대천로 570-19,37.4704315,128.6215362,010-3087-2244
문경새재국민여가캠핑장,경북 문경시 문경읍 새재1길 47,36.7547637,128.0756159,054-572-3762
가은달빛캠핑장,경북 문경시 가은읍 옥천길 47,36.6544719,128.0468929,010-3254-9471
몽고몽고글램핑,강원 홍천군 남면 남노일로 1162,37.6801882,127.7561728,010-5700-2446
캠프그라운드 화온,충남 아산시 영인면 고룡산로 512-37,36.8844225,126.9820089,0507-1373-3109
봉평해수욕장,경북 울진군 죽변면 울진북로 1180,37.0438232,129.4128910,
마검포힐링캠핑장A,충청남도 태안군 남면 신온리 952-32,36.6088176,126.2899661,
힐포레 글램핑장,경북 칠곡군 왜관읍 봉계3길 13,36.0054494,128.4559729,0507-1362-2186
하이스트 글램핑장,경북 칠곡군 왜관읍 봉계3길 11,36.0051571,128.4560067,0507-1367-2186
스페이스 영덕,경북 영덕군 영덕읍 영덕대게로 587,36.3940776,129.4148096,0507-1331-9742
(주)스노우라인캠핑빌리지,충남 예산군 예산읍 간양길 242-9,36.7247607,126.8769929,0507-1385-4940
보은국민여가캠핑장,충북 보은군 보은읍 속리산로 30,36.4896200,127.7557935,043-540-3393
돌머리 해변 글램핑 야영장,전남 함평군 함평읍 주포로 624,35.0857752,126.4407403,
주식회사 더블루밍,경기 수원시 팔달구 효원로 303 (인계동),37.2613186,127.0351481,
용암산성오토캠핑장,대구광역시 동구 도동 712,35.9188480,128.676743,0507-1406-0009
춘천 신촌 캠프장,강원특별자치도 춘천시 동내면 순환대로 808-42,37.8520329,127.7791226,010-8430-7454
(주)밀모 빨강치마 야영장,전라북도 무주군 적상면 밀모길 79-30,35.9314436,127.6701883,063-322-7000
속리산 시어동 캠핑장,경북 상주시 화북면 장암리 982-2,36.5703996,127.8971079,054-537-7120
옥샘캠핑장,경상남도 밀양시 산내면 얼음골옛길 197-4,35.5793953,128.9698066,010-6437-3760
용추그린하우스,경상남도 함양군 안의면 용추계곡로 13-1,35.6449079,127.8060680,055-964-0056
웅천친수공원 야영장,전라남도 여수시 웅천동 1692번지 ,34.7420050,127.6763960,061-685-3314
웰리힐리파크 오토캠핑장,강원특별자치도 횡성군 둔내면 고원로 451-1,37.4908373,128.2505391,1544-8833-
코레일 낙산연수원,강원특별자치도 양양군 강현면 동해대로 3457 (KORAIL연수원),38.1463477,128.6096511,033-820-7700
하늘숲글램핑 파크,경기 가평군 북면 화악산로 254-38,37.9045226,127.5620894,010-2889-8238
무거카라반,제주특별자치도 제주시 조천읍 조함해안로 352,33.5487967,126.6549076,064-900-4151
섬진강향가오토캠핑장,전라북도 순창군 풍산면 향가로 575,35.3390801,127.1920558,063-652-9001
소풍정원 캠핑장,경기도 평택시 고덕면 새악길 43-42,37.0167678,127.0206434,070-8915-2261
어라운드빌리지,충청북도 보은군 탄부면 사직1길 34,36.4456179,127.7532375,070-8650-6375
엘포리글램핑,경상북도 포항시 북구 기계면 학야길215번길 59,36.0491404,129.1985946,054-246-7778
땅끝바다낚시터&글램핑,전라남도 해남군 송지면 갈산길 95,34.3055472,126.5166229,
만정캠핑장,인천광역시 중구 중산동 1850-7번지 ,37.5160908,126.5481618,032-747-1144
박석 캠핑장,경기도 파주시 탄현면 동오리길 135-48 (박석농원),37.8412567,126.7215514,
별다리 캠핑,경기도 가평군 북면 꽃넘이길 23-7,37.8948639,127.5285241,1644-7140-
장수 자연관광농원,경기 용인시 처인구 원삼면 보개원삼로1462번길 14-22,37.1245426,127.3130942,
플랜 시그니처,경북 포항시 남구 구룡포읍 일출로 242-84,36.0142960,129.5801063,
하옥 가람캠핑장,경북 포항시 북구 죽장면 죽장로2419번길 14-6,36.2774084,129.2390807,010-5352-0151
라운드힐 905,대구 달성군 가창면 주리2길 42,35.7529930,128.6239986,0507-1344-9795
에이스캠프,경북 청도군 각북면 낙산1길 159,35.6838315,128.5654393,0507-1392-6017
행운캠핑장,강원특별자치도 춘천시 동산면 윗성골길 6,37.7574788,127.8432822,0507-1410-2326
정원캠핑장,강원특별자치도 강릉시 주문진읍 신리천로 1191-13,37.8795930,128.7096230,
달빛 계곡 캠핑장,전남 장흥군 유치면 봉덕신덕길 371,34.8300302,126.8667308,
디캠 고흥,전남 고흥군 점암면 여도진로 670,34.6616320,127.4242171,010-6887-1444
캠프리카캠핑장,경기 양주시 백석읍 기산로440번길 127,37.7701966,126.9389785,
합천은하수글램핑&카라반,경남 합천군 용주면 고품길 42,35.5377239,128.1012225,010-2925-6199
미리내캠핑장,경북 상주시 모서면 백화로 780,36.3341531,127.9014806,
가로림글램핑&풀빌라펜션,충남 서산시 팔봉면 범머리길 80,36.8345114,126.3294267,041-663-6690
이밤에캠핑장,전북 정읍시 입암면 구마석길 79-20,35.5387315,126.8077215,010-9633-0162
경주쿠키오토캠핑장,경북 경주시 양남면 석읍길 17,35.7290229,129.4138679,
다온 오토캠핑장,전남 해남군 화원면 화봉길 192-10,34.6647893,126.2664896,010-8855-8545
쿼크밸리 캠프,경기도 남양주시 화도읍 가곡리 401번지 일원,37.6913112,127.294079,
이천농업테마공원 국민여가캠핑장,경기 이천시 모가면 공원로 48,37.1796066,127.4453065,070-4941-3945
위고고 남해점,경남 남해군 이동면 남해대로 1645,34.7721472,127.9551627,070-4186-3100
소금강 장천마을 캠핑장,강원특별자치도 강릉시 연곡면 삼산리 1377 ,37.8465243,128.7045774,010-2204-9986
더파크12 글램핑카라반,강원특별자치도 홍천군 서면 밤벌길2번길 35,37.6948941,127.6022686,033--
춘천별빛캠핑장,강원 춘천시 동내면 원창고개길 96-3,37.8173974,127.7669911,010-8294-3466
팔공마루오토캠핑앤캠프닉,대구 군위군 부계면 원효길 30,36.0488597,128.6565965,010-7566-2871
개네집캠핑장,경기 양주시 장흥면 권율로 156-116,37.7288319,126.9531195,
소풍캠핑장,경기 용인시 처인구 이동읍 경기동로785번길 30,37.1336407,127.2056205,010-4707-0331
하늘구니,대구 군위군 삼국유사면 화산길 712-2,36.1013298,128.7684592,
원더풀 글램핑 앤 카라반,경기 가평군 상면 임초밤안골로 117-27,37.7591209,127.3725169,010-4631-2954
안양 산마을캠핑장,경기 안양시 동안구 평촌대로 452-2 (비산동),37.4104862,126.9518385,0507-1379-7772
담양오랑쥬마을,전남 담양군 담양읍 메타세쿼이아로 146,35.3296866,127.0173997,0504-1481-0394
산외 글램핑,충북 보은군 산외면 속리산로 1718-22,36.5722008,127.7698861,0507-1385-0547
인터뷰카페,대전 서구 장안로 454 (장안동),36.2217620,127.3390233,
캠프마징가,경북 청도군 청도읍 청매로 283-20,35.5764507,128.7931208,0507-1470-0826
하이스토리 캠핑장,경북 경주시 양남면 갈골마을길 41-1,35.7023140,129.4185342,
땅끝고구마글램핑,전남 해남군 화산면 평호길 296,34.4426912,126.475008,0507-1349-7968
마니또 오토캠핑장,인천 강화군 길상면 장흥로 76-30,37.6135950,126.5166116,
오로라 캠핑장,충북 보은군 내북면 성암길 59-28,36.5755100,127.6730254,0507-1364-7708
충주호더쉼캠핑장,충북 충주시 동량면 미라실로 730,37.0067656,128.0515245,
바람이좋은저녁,대구 군위군 삼국유사면 화산산성길 65,36.1051530,128.7802935,
군위 솔밭야영장,대구 군위군 부계면 원효길 59-1,36.0471676,128.6614092,
느티담길 캠핑장,대구 군위군 산성면 부흥로 362-33,36.1173500,128.6904033,
동산오토캠핑장,대구 군위군 부계면 원효길 40,36.0485005,128.6580419,054-382-9990
팔공 쉼터 야영장,대구 군위군 부계면 원효길 57-1,36.0472331,128.6594282,
러브팜캠핑장,강원 화천군 사내면 화악산로 938-14,38.0577562,127.5324547,010-8489-2479
해인캠핑장,경상남도 합천군 대병면 대지리 296번지,35.5393762,127.9778434,
유명산밸리캠핑장,경기 가평군 설악면 유명산길 79-28,37.5933173,127.4899222,031-584-3114
파파스 캠핑장,충남 천안시 동남구 북면 대평1길 292-1,36.8734041,127.2975208,
무주구천동카라반,전북 무주군 설천면 백련사길 20,35.8956261,127.7757384,063-322-2772
코코숲 바베큐&글램핑,경기 포천시 내촌면 매봉길 61-1,37.7607420,127.2313421,031-536-7890
산내들캠핑,충청북도 제천시 국사봉로 260-0 ,37.114044,128.1120619,043-647-4889
자작나무뜰 오토캠핑장,경남 함양군 서상면 부전계곡로 257,35.6484205,127.6704457,010-5055-1917
오가네캠핑,충북 제천시 하소천길 292-8 (신월동),37.1609691,128.1973707,0507-1355-3004
장흥숲길캠핑장,경기 양주시 장흥면 권율로 156-116,37.7287518,126.9531337,010-8949-5257
푸르미르 관광농원,충남 당진시 대호지면 4.4만세로 391-67,36.8854153,126.536504,010-8780-1122
알로프랑스,전북 무주군 무풍면 구천동로 559-12,35.9016555,127.8113717,063-322-5700
십이선녀탕캠핑장,강원 인제군 북면 십이선녀탕길 83,38.182806,128.301110,033-462-7135
힐사이드인가평 글램핑&캠핑,경기 가평군 북면 화악지암길 360,37.95405796984223,127.58129109940917,0507-1463-2109
오스테이,경남 산청군 시천면 남대길 7-11,35.2700839,127.7537386,0507-1450-2034
거제GO캠핑,경남 거제시 일운면 거제대로 2253,34.8163764,128.7019496,055-681-1071
솔가람 캠핑장,경상북도 성주군 수륜면 수성리 954-1,35.86562400769073,128.19035423546308,010-5354-3468
은석힐링마을캠핑장,강원도 정선군 신동읍 곰봉길 120,37.2694614,128.6647383,033-378-4040
도모 횡성,강원 횡성군 둔내면 경강로궁종1길 121-7,37.5093163,128.1442403,0507-1358-2916
드루왈 캠핑장,강원 홍천군 내촌면 광석로 153-9,37.8273432,128.095433,010-4656-5618
천안밤나무골 가족캠핑농원,충남 천안시 서북구 성거읍 보명사길 74-13,36.8599935,127.1999627,041-555-1888
서천 오션플레이스,충남 서천군 마서면 원한성길104번길 23-20,36.0812193,126.634098,041-951-2030
경상북도교육청 포항산누리오토캠핑장,경북 포항시 북구 죽장면 죽장로 2805,36.3030333,129.2486000,054-261-3520
양양 별밤캠핑장,강원특별자치도 양양군 현북면 부연동길 1893,37.9426583,128.663712,
남양주 별빛 캠핑장,경기도 남양주시 수동면 비룡로1742번길 3-16 ,37.7661333,127.2838625,
레인보우,경기 포천시 신북면 청신로1059번길 115,37.9639612,127.140283,031-544-3575
라리비에르,경기 가평군 청평면 북한강로 1945,37.6912133,127.3886840,
풍경소리캠핑장,전북 정읍시 산내면 산호수길 208-30,35.5333003,127.087763,
다시캠핑장위드펫,경상북도 고령군 덕곡면 노리 434-2 ,35.7988881,128.195115,0507-1429-2297
제천 클라우드글램핑,충북 제천시 봉양읍 옥전길 303-1,37.1814969,128.080192,
제천 참!좋은 글램핑,충북 제천시 봉양읍 옥전길 303,37.1814532,128.081036,
서해랑83,충남 당진시 신평면 매산로 92-135,36.9125604,126.813747,0507-1489-8384
아람말 야영장,경기도 양평군 개군면 자연리 83-19 ,37.4331091,127.565011,
대둔산글램핑캠핑장,전북 완주군 운주면 원장선로 42-209,36.0768729,127.2826543,
운문산군립공원 소머리 야영장,경상북도 청도군 운문면 신원리 2087 ,35.6744938,128.9552361,
농업회사법인에덴동산캠핑장,전북 완주군 경천면 오복대석길 102-13,36.0130043,127.2536811,
충북대학교 천문대천문체험학교,충북 진천군 문백면 은진로 29,36.7815397,127.4754290,043-532-2341
별밤캠프,경북 영천시 화북면 천문로 2149-127,36.1116710,128.905593,010-6698-2448
캠프게이트 청평 카라반&캠핑,경기 가평군 청평면 호반로 1025-26,37.7124497,127.4874792,
별빛 은하수 캠핑장,경북 경주시 산내면 대현길 172,35.7183814,129.071047,
두송녹색농촌체험마을,경북 경주시 문무대왕면 송전기곡길 15-12,35.7656529,129.427142,054-775-0966
금오산 힐링캠프,경북 김천시 남면 우장길 442-15,36.0991128,128.276601,
금오산 풀타운,경북 김천시 남면 우장길 442-15,36.0996720,128.276555,
토함산 마이웨이 야영장,경북 경주시 문무대왕면 불국로 1271,35.7679711,129.368254,
생거진천 자연휴양림,충북 진천군 백곡면 명암길 435-135,36.9239600,127.389482,043-539-3552
초롱별 야영장,경북 경주시 보불로 128-102 (하동),35.7982728,129.320158,
몽상핀,충북 제천시 원뜰로 67-25 (하소동),37.1366433,128.191419,043-653-5701
리썸글램핑,충남 청양군 목면 안심길 85-64,36.4204316,126.999075,
잇츠 캠핑,충북 제천시 덕산면 월악산로 340,36.8974135,128.131432,
염전해변캠핑장,경상북도 울진군 근남면 수산리 76 ,37.7296231,127.2915282,054-781-7877
양양 포레스트캠핑장,강원 양양군 현북면 검소길 117,38.0077282,128.6916045,010-2000-4949
멍글멍글바베큐,충북 청주시 청원구 오창읍 오산가좌로 650-28,36.7173510,127.3679277,
블루파크,경기 포천시 화현면 봉화로 267,37.8731556,127.2784140,
횡성군 병지방 오토캠핑장,강원도 횡성군 갑천면 어답산로 516 ,37.5947039,128.0579059,033-343-7639
국립검봉산자연휴양림야영장,강원도 삼척시 원덕읍 임원안길 525-145 ,37.2373646,129.2993868,033-574-2553
무지개 서는 마을,경기도 가평군 북면 가화로 1725 ,37.9105561,127.4934872,031-581-3177
국립용대자연휴양림,강원도 인제군 북면 용대리 산 262-1 용대리자연자연휴양림 ,38.2332334,128.3490597,033-462-5031
누리파크 캠핑장,전라북도 장수군 장수읍 논개사당길 65,35.6438009,127.5227239,
가평황토은글램핑,경기 가평군 설악면 장수로79번길 63-18,37.6076671,127.5102426,031-584-2963
광릉숲 이야기 캠핑장,경기 포천시 소흘읍 직동길 44,37.7664661,127.1706732,010-5694-7994
밸리캠핑장,강원도 양양군 법수치길 259-0 ,37.9405251,128.6459117,010-9537-4600
도사곡자연휴양림야영장,강원도 정선군 사북읍 사북리 447-15 ,37.2243498,128.796431,033-560-3456
천안 트리하우스,충남 천안시 동남구 광덕면 해수길 291,36.6664784,127.024381,010-4944-0894
숲에서 놀자,강원 홍천군 화촌면 풍천새터길 11,37.8092195,127.9043434,
가평랜드 캠핑&카라반,경기 가평군 조종면 대보간선로611번길 479,37.8265290,127.4057819,031-585-8577
네스트캠핑,경기 가평군 북면 화악산로 943-50,37.9363178,127.5412067,010-3889-0443
가평 우리들캠핑장&글램핑,경기 가평군 북면 화악산로 245,37.9028584,127.5586381,010-2261-8138
Base Camp,강원 양양군 강현면 장재터로 337,38.1483564,128.5723214,033-672-0033
스마일캠핑장,경기 포천시 이동면 금강로 6203,38.0818603,127.3904659,
금다래캠핑장,경기 가평군 북면 화악산로 1087-24,37.9500696,127.533725,
포시즌캠핑장,경기 가평군 북면 화악산로 1039-16,37.9464606,127.5358079,
(주)대산기획피케이씨,경기 과천시 대공원광장로 102 (막계동),37.436268,127.0141387,
선바위자연캠핑장,강원 횡성군 갑천면 병지방길 2,37.6014758,128.0854606,070-7722-2548
솔라캠프,경북 안동시 와룡면 농암로 101-44,36.6197633,128.7779531,054-852-6809
풀무골 글램핑장,경기도 안성시 고삼면 쌍지리 151-7번지 ,37.122232,127.286738,
별천지야영장,경기 가평군 북면 화악산로 816,37.9328135,127.5471852,031-581-7796
차밍캠핑,강원 원주시 지정면 지정로 1393,37.3898166,127.7836930,031-771-3440
인디어라운드,경기도 이천시 율현동 이섭대천로941번길 49-44 ,37.2519359,127.4417691,031-633-0700
인제 아리캠핑장,강원도 인제군 인제읍 광치령로 306 ,38.1164566,128.1787967,010-3239-7045
파피루스 캠핑장,경기도 포천시 영중면 성동리 75 ,38.0267957,127.2820284,010-3357-4500
힐스톤 캠핑장,강원도 영월군 주천면 금마리 산2 ,37.2493721,128.2927459,010-8846-6828
두산 캠핑장,강원 영월군 무릉도원면 새막골길 165-13,37.317839,128.1614936,
밤골야영장,강원 영월군 무릉도원면 무릉법흥로 940,37.340913,128.2801227,033-374-8126
운산리 구라이골 캠핑장,경기도 포천시 창수면 운산리 237-15 외 9필지,38.0587353,127.2048979,031-536-0008
내장산국립공원 내장야영장,전라북도 정읍시 내장동 내장산로 800(내장동 92-2),35.4983233,126.9181089,063-538-7886
솔밭캠핑장,인천 옹진군 영흥면 영흥로 708-26,37.2718915,126.4559511,
아산 영인산자연휴양림 숲속야영장,충남 아산시 영인면 아산온천로 16-24,36.8405946,126.9500195,041-538-1958
은행마을,충청남도 보령시 청라면 오서산길 150-65 ,36.4271667,126.6755923,041-934-8140
구름계곡캠핑장,경기도 가평군 북면 제령리 219-2번지,37.8879007,127.5387410,010-4635-7099
쏘쿨이네 글램핑,경기 포천시 이동면 화동로 2359,38.0531922,127.3833335,
알맹이캠핑,경기 포천시 내촌면 금강로3046번길 106,37.8291195,127.2711473,031-535-0990
어울림글램핑,강원 홍천군 화촌면 작은도심리길 4-11,37.7944592,127.9070442,033-435-6959
케렌시아캠핑장,경기 양주시 화합로 1970 (회암동),37.8421743,127.1134456,
골드바베큐 당일캠핑장,경기 안성시 양성면 덕봉서원로 334-11,37.0310242,127.1823351,010-8810-4909
어게인캠핑,충북 충주시 산척면 인등로 584,37.0701474,128.0199999,0507-1349-9751
감동스테이캠프,경북 칠곡군 지천면 황학3길 7,36.0367006,128.4865593,0507-1426-9920
벨캠핑장,경북 청도군 매전면 청매로 418-21,35.5867721,128.8005027,
단양오지캠핑장,충북 단양군 영춘면 사지원2길 39,37.1080544,128.4490245,
메아리 캠핑장,전남 광양시 다압면 대청길 40,35.1542667,127.6515487,061-772-3236
장애인문화예술판,서울 성북구 동소문로20나길 47 (동선동1가),37.5930408,127.0191608,
TITF 카라반,경북 포항시 남구 장기면 동해안로3072번길 23-17,35.8682240,129.5321547,1522-3726-
진안부귀캠핑장,전북 진안군 부귀면 귀상로 708-27,35.8497539,127.4224198,
보니타 카라반,전북 부안군 변산면 변산해변로 799-13,35.6657035,126.5145959,
풍덕 꽃가람 야영장,전라남도 순천시 풍덕동 336-62 ,34.9307316,127.5031350,061-749-5804
효도투어,서울 구로구 디지털로27길 24 (구로동),37.4835081,126.8930021,
숲속의 관광농원,전라남도 장성군 삼계면 수옥리 727-19 ,35.2847680,126.6813909,
경이궁 캠핑카라반,전남 장성군 삼계면 용매골길 46,35.2960133,126.6305853,
아프리카예술박물관 캠핑장,경기도 포천시 소흘읍 무림리 41,37.7756834,127.1390020,031-543-3600
카카오캠핑장,경상북도 안동시 예안면 장갈로 39 ,36.6953994,128.9269001,054-821-1777
상주은모래비치 오토캠핑장,경남 남해군 상주면 상주로 17-4,34.7225315,127.9881562,055-863-3583
동학농민혁명 기념공원 녹두장군 캠핑장,전북 정읍시 덕천면 동학로 742,35.6337037,126.8301179,063-530-9422
봉화별캠핑장,경북 봉화군 소천면 구마동길 513-127,36.9893422,128.960621,010-7302-1150
캠프우아,충북 단양군 영춘면 김삿갓로 138,37.0771392,128.6053621,0507-1474-1355
하늘바라기캠핑장,경북 영주시 단산면 영단로535번길 65-22,36.9802474,128.5748687,010-9935-6656
솔향강릉오토캠핑장,강원 강릉시 경강로 2580 (견소동),37.772860,128.941027,033-651-2030
숲속야영장 횡성대피소,강원 횡성군 우천면 경강로 3770-52,37.4967086,128.1409967,
바다가 보이는 부산항 힐링 야영장,부산광역시 동구 초량동 1185-1,35.1160647,129.0462238,051-400-1205
바다의 별 관광농원,경기 안산시 단원구 부흥로 359-14 (대부남동),37.2139139,126.6104026,010-9943-6229
천태산 오토캠핑장,경남 양산시 원동면 어영길 263-14,35.4320914,128.9275253,
치인야영장,경상남도 합천군 가야면 치인리 산 16-1 ,35.7956874,128.0840614,055-930-8000
성요셉치유마을 야영장,경북 문경시 가은읍 은성로 796-13,36.6341150,128.0624500,
208덕동 캠핑장,충북 제천시 백운면 덕동로 277,37.2047610,127.9734910,
달토 풀 글램핑,경북 영덕군 병곡면 흰돌로 85-32,36.6124802,129.4074708,
늘푸른캠핑장,경북 청도군 운문면 운문로 1430-2,35.6824133,128.9742792,
하버드카라반,인천 옹진군 영흥면 영흥남로 297,37.2434465,126.4517271,
트리팜 관광농원,충남 공주시 이인면 새터1길 27-12,36.3267473,127.0935136,
팝콘야영장,충청북도 괴산군 장연면 충민로 1675 ,36.8710392,127.9309631,043-832-7345
캠프그룬,전남 완도군 신지면 울몰길 51-5,34.3297838,126.8337198,010-7272-2289
패밀리오토캠핑장,경상남도 밀양시 산외면 희곡리 8,35.5462727,128.8588712,010-9461-0031
메타피아 오래캠핑장 & 카라반,경기 가평군 북면 화악산로 233,37.9024575,127.5593183,031-581-5355
드림랜드오토캠핑장,경북 영천시 고경면 고도길 38,35.9840344,129.0005945,010-4664-4887
타닥타닥캠핑장,충북 괴산군 청천면 도경로후영5길 79-5,36.6939061,127.8087993,
계곡메사 오토캠핑장펜션,경기도 포천시 이동면 도평리 498-1  등 8필지,38.0781228,127.3876997,010-3382-7629
가람펜션캠핑장,경남 합천군 봉산면 인덕로 930,35.5873961,128.0576000,010-9704-2582
가산수피아 캠핑장,경북 칠곡군 가산면 학하4길 57-105,36.0863385,128.4866638,054-971-9860
오늘 여기 카라반,경북 포항시 남구 호미곶면 일출로 492,36.0328977,129.5764878,
나인힐스,경기 용인시 처인구 원삼면 보개원삼로1372번길 41,37.1177422,127.3131954,0507-1344-8823
월등도 캠핑장,경남 사천시 서포면 월등도길 36,34.9739587,127.9957531,010-9533-7672
사과꽃향기,경북 영주시 봉현면 소백로1411번길 26-30,36.8310947,128.5130384,010-9508-1220
대저 캠핑장,부산광역시 강서구 대저1동 1-5번지,35.215809,128.9718533,051-941-0957
동호 국민여가캠핑장,전라북도 고창군 해리면 동호리 782-4 ,35.5135935,126.4811778,063-560-8695
(주)더사칠공 야영장,인천 옹진군 영흥면 영흥서로380번길 101-89,37.284197386270556,126.47175630797285,
라포레소호,울산 울주군 상북면 소호와리길 71-1,35.6693397,129.0816594,010-7235-7726
오션힐즈 숲속야영장,전남 고흥군 동일면 우주로 2933-5,34.4817019,127.4618492,
더파크캠핑,경상북도 청도군 운문면 마일리 244-1 ,35.8324884,128.9915757,
풍경캠핑장,대구 달성군 가창면 가창동로4길 84-6,35.7836280,128.6676391,
밴프 야영장,강원 양양군 서면 구룡령로 3080-70,38.0533806,128.5706554,
곡성 들말 야영장,전남 곡성군 목사동면 평리2길 11-5,35.1226860,127.3012562,061-363-1150
The Stay 309,전남 여수시 돌산읍 백초길 62,34.7304758,127.7497766,
뉴얼리글램핑,충남 천안시 동남구 목천읍 서흥1길 54,36.8029027,127.2396589,
진도 카멜리아 힐즈 오토캠핑장,전남 진도군 의신면 초전길 113,34.4472001,126.3278481,
쭌카라반 캠핑장,강원 고성군 토성면 화원길 13,38.2847032,128.5465830,
매물도야영장,경남 통영시 한산면 당금길 50-9,34.6472025,128.5764801,010-8554-8324
원삼오토캠핑장,경기도 용인시 처인구 원삼면 문촌로 174 ,37.1597968,127.2957113,
에브라임캠핑장,경기도 연천군 신서면 연신로 866,38.1592666,127.1047292,031-834-8408
영천 구룡산 오토캠핑장,경북 영천시 북안면 상리중앙길 50-21,35.8532067,128.9893957,010-8866-8343
별하글램핑,충남 공주시 유구읍 구계연종길 108,36.5789883,126.9854872,
김삿갓계곡캠핑장,강원도 영월군 김삿갓면 김삿갓로 216-26 김삿갓계곡캠핑장,37.0795251,128.6022969,033-373-5558
숲스토리야영장,전북 진안군 정천면 봉학로 419-30,35.8891897,127.3947272,010-6538-8799
산우물 북 캠핑장,경기 안성시 양성면 산정산우물길 138,37.0819697,127.1958115,
캠프 인더숲,강원 홍천군 내촌면 가령폭포길 34,37.8248474,128.1548976,
별이빛나는밤에 글램핑,강원 영월군 무릉도원면 무릉법흥로 1090,37.3540972,128.2790521,010-8317-3824
두랭이해변 오토 캠핑장,전남 여수시 율촌면 두언길 106-51,34.8286759,127.5336159,
럭셔리풀빌라 글램핑 풀램핑,경기 가평군 청평면 남이터길 52-35,37.6894493,127.3726809,0507-1322-0249
웻 자켓,경기 포천시 이동면 늠바위길 201-3,38.0293388,127.3879245,0507-1493-0421
광양 해뜰 오토 캠핑장,전남 광양시 봉강면 신촌길 140,35.0629621,127.5536210,
반달곰이 살던 숲,경기 화성시 정남면 정송길23번길 18,37.1635651,126.9576251,
햇살아래 캠핑장,충청북도 충주시 대소원면 창현로 809 ,36.9229836,127.860459,010-5153-7331
캠핑중DOG,강원 홍천군 북방면 팔봉산로 1802,37.7204822,127.7524583,010-8768-1191
플로라 캠프,경남 의령군 낙서면 낙서로 553-13,35.4806945,128.3791190,
낭만팩토리,경기 평택시 안중읍 덕우리 115-30,37.0057297,126.9110960,010-3845-3478
오샤,경기 가평군 북면 소법리 627-54,37.8973678,127.5542861,
양평힐링계곡 오토캠핑장,경기 양평군 서종면 중미산로 772-27,37.6010371,127.4230682,031-772-9999
태안노을과바다캠핑앤글램핑,충남 태안군 원북면 신두해변길 122,36.8355206,126.1825790,
백운썬밸리캠핑장,충북 제천시 백운면 구학산로 600,37.1789641,127.9925747,010-6203-3303
자장캠핑장,경기 파주시 적성면 국사로 303,37.9611752,126.8692810,010-5151-7177
상사호 오토 캠핑장,전남 순천시 상사면 땅고개길 111,34.9394629,127.4620787,
가평더캠프카라반글램핑,경기 가평군 설악면 한서로156번길 12-62,37.6688396,127.5037181,0507-1309-3917
돔 아일랜드 304,경기 가평군 조종면 명지산로 137-56,37.8873231,127.3623971,031-584-0033
풀꽃이랑 캠핑장,경북 성주군 가천면 포천계곡로 238,35.8722271,128.1552055,0507-1488-2045
태양&바다 카라반,경북 포항시 남구 호미곶면 해맞이로 82,36.0714577,129.5689344,
숲 나들이 야영장,강원 횡성군 서원면 신평석화로 459,37.4421860,127.8493021,
잭슨글램핑,충북 충주시 금가면 김생로 1179,37.0405193,127.8665003,
아라캠프,강원 고성군 죽왕면 동해대로 6130-2,38.3462352,128.5113873,0507-1338-4756
법수치오토캠핑장,강원 양양군 현북면 법수치길 965,37.9100292,128.6180510,
캠플336캠핑장,전남 화순군 동복면 연동길 75,35.0419301,127.1154886,
칠갑산관광농원,충남 청양군 화성면 구숫골길 105-19,36.4356073,126.7257635,041-942-8110
빌리풀램핑,경기도 양평군 단월면 산음리 852-9 ,37.5928418,127.5851717,
스톤브룩 캠핑장,경기 연천군 군남면 진은로606번길 110,38.0441198,127.0575714,
옥당걸숲속관광농원,경북 김천시 부항면 안간1길 700,36.0055626,127.9559383,054-434-7773
벤캠프(Be  Camp),경기 포천시 영북면 산정호수로 834-12,38.0760751,127.3237208,
일영Star캠핑장,경기 양주시 장흥면 유원지로 406-144,37.7146682,126.9498966,
THE쉼오토캠핑장,충남 태안군 태안읍 안도내길 58-9,36.8132835,126.3285545,
가평다온캠핑장,경기 가평군 조종면 운악청계로 351-42,37.8463503,127.3536065,
루체른,경기 가평군 조종면 운악청계로333번길 19,37.8449803,127.3534311,
윈드밸리 야영장,강원 양양군 서면 구룡령로 1158,37.9144025,128.5012960,
이스트 몽 블루 카라반 캠핑,제주특별자치도 제주시 구좌읍 종달동길 73-1,33.4915495,126.9071173,064-783-7569
대양 야영장,경북 칠곡군 가산면 호국로 1252-21,36.0507939,128.4952388,054-972-4062
가나캠핑장,경북 경주시 내남면 안심길 357,35.7320462,129.1401446,010-3511-4487
캠핑 굄성,충남 홍성군 홍북읍 홍북로 810,36.6569912,126.7183498,
GO(지오)글램핑,충북 괴산군 청천면 대티길 284,36.6960025,127.8005961,0507-1427-0350
노섬브리아 야영장,강원 횡성군 둔내면 청태산로154번길 220-40,37.5087582,128.2575596,
비니비니글램핑,경기 포천시 내촌면 금강로 2625-37,37.8044709,127.2445513,010-2437-5018
하동노량투다리오토캠핑장,경남 하동군 금남면 노량해안길 129,34.9477998,127.8699072,0507-1306-0174
비토애 럭셔리글램핑 나주점,전남 나주시 산포면 산남로 67-47,35.0459985,126.8219644,
레이크202 캠핑장,경기 안성시 죽산면 용설호수길 202,37.0529475,127.4447534,0507-1320-7285
낭성 캠핑장,충북 청주시 상당구 낭성면 호정전하울길 99-50,36.6127895,127.6052664,
하늘아래 캠핑,충남 보령시 오천면 원산도6길 47-70,36.3650148,126.4182310,
스토리숲(story숲),경기 포천시 화현면 봉화로 201-80,37.8660745,127.2753721,
웰빙문화테마마을,경상북도 영덕군 남정면 남호리 296-1 ,36.3274290,129.3717950,054-730-6513
세제골농원 숲속야영장,충남 아산시 영인면 윤보선로 52-16,36.8822361,126.9985978,
가평 아이섬 풀 글램핑,경기 가평군 북면 꽃넘이길 115-115,37.8998714,127.5127458,
아인글램핑,경기 가평군 북면 제령아랫말길 67-30,37.8869977,127.5403662,02-2157-2844
안면도힐링캠핑장,충남 태안군 안면읍 갯개길 39,36.5501728,126.3345879,
다도해해상국립공원 구계등야영장,전남 완도군 완도읍 구계등길 47-1,34.2983381,126.7092746,061-550-0900
하늘숲 오토캠핑장,전북 완주군 동상면 대아수목로 439-2,35.9941126,127.3276265,
한솔 스테이,경기 연천군 장남면 장백로278번길 4,37.9853995,126.8864997,
더 코지 캠핑장,충남 논산시 노성면 노성로322번길 42-10,36.2779356,127.1036840,
일랑일랑 애견캠핑 앤 카라반,경북 칠곡군 왜관읍 강변대로 723,35.9426485,128.4020206,
이편한캠핑,강원 평창군 봉평면 흥정계곡4길 211,37.6608898,128.3109510,
경안글로브,경북 경주시 강동면 새마을로 1124-50,36.0517864,129.2574974,010-3837-7613
라곰,경기 연천군 신서면 합내로 493-1,38.1577398,127.0658856,0507-1312-5246
산가원글램핑,경남 산청군 금서면 쌍재로 117,35.4141119,127.8194656,0507-1312-9016
캠프위드펫&애견글램핑,경기 가평군 청평면 호명리길 57-60,37.7241632,127.4609008,031-584-5043
가보세캠핑장,경기 포천시 이동면 포화로 274-4,38.0737456,127.4143506,
메이드캠퍼스,경기 포천시 신북면 청신로1196번길 359-12,37.9331022,127.1658136,
홍성 캠프인코지 글램핑 카라반,충남 홍성군 서부면 홍보로 1316,36.5284795,126.4899021,
자유로캠핑장,경기 파주시 탄현면 자유로 3902-66,37.8291163,126.7207168,0507-1326-5017
(주)더술컴퍼니아카데미,서울 종로구 창경궁로 229 (명륜4가),37.5825402,126.9979229,
잭스캠프,경기 포천시 신북면 청신로1196번길 359-18,37.9329672,127.1662273,0507-1410-0928
타이니포춘,경기 포천시 신북면 청신로1196번길 359-17,37.9334444,127.1659957,0507-1337-0930
하소담캠핑장,경기 포천시 영중면 삼산마을길 20,38.0237775,127.2625021,0507-1433-9596
남이섬 마리나 카라반,강원 춘천시 남산면 북한강변길 142,37.8394502,127.5327943,033-264-5778
해밀365 야영장,경기 양평군 용문면 용문산로 576-12,37.5422071,127.5882184,031-772-6883
주식회사 대부도펜션시티,경기 안산시 단원구 공마루길 68-97 (대부동동),37.2340931,126.5892138,
디엠지라운지(DMZ LOUNGE),경기 파주시 탄현면 새오리로161번길 90,37.8004048,126.6835875,031-959-2353
어깨동무 카라반 캠핑,인천 강화군 길상면 동검길65번길 88-8,37.5883546,126.5185456,
호수도도글램핑장,전라남도 광양시 봉강면 지곡리 산 3-1 ,35.0002458,127.5934749,
서산버드랜드 야영장,충남 서산시 부석면 천수만로 655-73,36.6295138,126.3783232,
Moo 글램핑,경기 안산시 단원구 대부황금로 90 (선감동),37.1998281,126.6451584,0507-1480-8765
딥포레스트캠핑장,경기도 포천시 신북면 심곡리 704-3,37.9236539,127.1742228,
슈필라움글램핑,경기도 화성시 서신면 제부리 3-68,37.1740382,126.6270087,
재오개캠핑장,충북 충주시 살미면 충주호수로 1872,36.9509289,127.9813463,
용장 글램핑,경북 경주시 내남면 용장1길 18,35.7749306,129.2022859,
물왕호수캠핑,경기 시흥시 물왕수변로 178 (산현동),37.3786646,126.8415456,
월송리캠프,강원 춘천시 서면 월송길 381-21,37.9235042,127.6688754,
리버위드 글램핑,강원 춘천시 남면 박암관천길 899,37.7212947,127.5098162,
금동휴양림캠프2,경기 포천시 신북면 탑신로1112번길 7-40,37.9436828,127.1290861,
달리도 오토캠핑장,전남 목포시 달리길 329 (달동),34.7770717,126.3281211,
포레스트 캠핑장,충남 논산시 벌곡면 수락로 903-11,36.1962419,127.2629587,
까치고개,충남 천안시 동남구 수신면 장산서길 14-1,36.7301815,127.2973329,
숲속의쉼터 키즈,경기 연천군 전곡읍 양원로 318,37.9714390,127.0360446,
주암2123,울산 울주군 상북면 배내주암길 56-1,35.5680597,129.0187367,
홍천 뜨란 오토캠핑장,강원 홍천군 서면 개야마을길 144-10,37.6968083,127.6362740,
아이월관광농원,경기 포천시 창수면 한탄강1로 134-119,38.0556465,127.2092814,0507-1476-5587
로드 96 캠핑&카라반,전남 영광군 백수읍 해안로 672-31,35.3307461,126.3828791,0507-1340-2758
캠프달링,충남 공주시 정안면 개티길 20,36.6327707,127.0788538,010-4417-7777
관악산 계곡 캠핑장,서울특별시 관악구 신림동 205-1 관악산공원 내 ,37.4620698,126.9481674,
합천 머물당 글램핑,경남 합천군 가회면 황매산로 1070-6,35.4829619,128.0238690,
반딧불 캠핑장,경기 안성시 금광면 연내동길 138-37,36.9714608,127.3823246,
다올숲,경기 포천시 신북면 청신로1059번길 78-22,37.9607164,127.1438105,031-534-6712
우리고향 캠핑장,전남 곡성군 오곡면 섬진강로 2075-15,35.2651561,127.3326378,
햇골글램핑,경기 용인시 처인구 백옥대로1191번길 63-7 (유방동),37.2467383,127.2064444,
유성야영장 뱀브스힐,대전 유성구 갑동로15번길 32 (갑동),36.3623491,127.2868240,
해목글램핑,경기 가평군 조종면 운악청계로371번길 74-36,37.8532276,127.3489979,0507-1424-8245
더뷰인비토,경남 사천시 서포면 거북길 290,34.9709678,127.9651140,
오손도손캠핑장,충북 제천시 장자터길 17 (자작동),37.1231026,128.2860107,043-653-3331
라온캠프닉,경기 화성시 남양읍 송림로68번길 30-13,37.2208029,126.8261961,0507-1375-1399
에스원캠프,경기 포천시 영북면 대회산길 79-28,38.0669588,127.2383825,
더 플래츠 글램핑,경기 가평군 상면 수목원로 181-28,37.7622603,127.3645338,0507-1333-8008
도그팰리스 애견동반글램핑,충남 당진시 고대면 탕주막길 116-11,36.9752915,126.5426451,010-3533-5292
지투(G2) 캠핑장,경기 포천시 소흘읍 부흥로 370,37.8079803,127.1559589,031-541-0727
라구나캠프,경기 연천군 전곡읍 선사로 203-11,38.0101030,127.0690482,
포천 땡큐247 캠핑장,경기 포천시 신북면 청신로 1240,37.9532504,127.1524255,
테라스527 캠핑장,경기 포천시 영북면 산정호수로 529,38.0571123,127.3217751,
달그린캠프,경기 연천군 미산면 청정로771번길 113-257,38.0523882,126.9431204,
가평 구름산 카라반,경기 가평군 상면 수목원로 238-81,37.7573547,127.3579710,010-4501-2277
지금쉬다,경기 가평군 조종면 연인산로 453,37.8467359,127.3729656,010-3447-7473
우디안캠핑,경기 가평군 가평읍 태봉두밀로406번길 93-17,37.8218531,127.4541370,
일루 글램핑 스파,경기 가평군 북면 멱골로 116-6,37.9007892,127.5683107,
캠핑가는 날,경남 김해시 인제로 436 (삼방동),35.2670743,128.8957684,
바다랑 캠핑장,경남 통영시 용남면 원평길 916,34.9099682,128.4440710,
더 상상 글램핑,경기 가평군 가평읍 경반안로 357-5,37.8313781,127.4699249,
(주)구들택 겨울숲 지점,경기 가평군 설악면 봉미산안길13번길 176-51,37.6301797,127.5361730,
태양힐링숲,경기 파주시 적성면 설마천로 372,37.9467693,126.9415457,
평화누리체험장,경기 연천군 장남면 원당로87번길 34,37.9810263,126.8836625,
소설악 가족 캠핑장,경기 광주시 남한산성면 남한산성로 407,37.4605232,127.2124415,
캠핑온유,울산 울주군 삼동면 보삼길 134-1,35.4875384,129.1171908,
산달바다 캠핑장,경남 거제시 거제면 거제남서로 4091,34.8352047,128.5440850,055-632-6644
(주)드윌,경상남도 함안군 산인면 모곡리 809-4 ,35.2806678,128.4514642,
한탄강 카누 캠핑장,경기 연천군 전곡읍 선사로 270,38.0133697,127.0758112,
별보다글램핑,경남 합천군 가회면 황매산로 1060,35.4826548,128.0233297,
485캠핑장,경기 가평군 설악면 다락재로485번길 162-69,37.6491169,127.4508378,
알프스펜션 캠핑&글램핑,경기 가평군 설악면 어비산길 24,37.5989515,127.4949341,
북두칠성,경기 가평군 가평읍 태봉두밀로 493-24,37.8133765,127.4480165,
캠프99,경기 가평군 조종면 명지산로 327-131,37.9012897,127.3692762,031-584-9599
JIAN,경기 가평군 설악면 유명산길 31,37.5986275,127.4930571,031-585-8511
휴 오토 캠핑장,경기 가평군 상면 녹수계곡로 125,37.7742312,127.3939722,
달별캠핑,경기 양평군 양동면 고송길 32-12,37.4862336,127.6996429,
아르테오스 빌리지,경기 용인시 처인구 이동읍 백자로260번길 6-2,37.2018971,127.1756001,
현대야영장,경남 합천군 용주면 합천호반로 613,35.5591898,128.0458768,
스테이온디엣지,경기 가평군 청평면 남이터길 52-35,37.6894493,127.3726809,
지리산 가는길 903 캠핑장,경남 함양군 휴천면 지리산가는길 903-3,35.4650670,127.6976066,
화왕산오토캠핑장,경남 창녕군 계성면 계성화왕산로 235,35.4934736,128.5328649,055-521-2001
블루밍 캠핑장,경기 포천시 신북면 청신로 1046-1,37.9561221,127.1360710,070-4159-0933
인디언숲 캠프닉,경기 동두천시 천보산로 537 (탑동동),37.8797108,127.0976424,031-865-2466
고라니 오토캠핑장,강원 고성군 토성면 신평골길 29-1,38.2301706,128.5066759,070-8098-7231
여울카라반,경기 포천시 이동면 여우고개로 658,38.0482848,127.3775787,
포도밸리 캠핑장,경기 가평군 상면 임초밤안골로 83,37.7620205,127.3729465,
울미숲야영장,경기 포천시 군내면 꽃배산2길 73,37.8635216,127.2319768,031-536-9070
도그랜드 캠핑장,경기 가평군 조종면 운악청계로 238-84,37.8355250,127.3559449,
신박힐링캠프,경남 하동군 적량면 삼화실로 759,35.1385259,127.7586309,055-884-0558
헤이캠프클럽,울산 울주군 서생면 잿골길 72,35.3684247,129.3486329,052-239-3388
캠핑플레이,경기 가평군 북면 논남기길 468-33,37.9686787,127.4157684,
홀리데이캠핑파크,경기 안산시 단원구 서위매봉길 14 (대부북동),37.2842002,126.5685955,032-885-4461
가평캠핑장,경기 가평군 상면 임초밤안골로 205,37.7521716,127.3680093,
레저빌봉산,경남 합천군 봉산면 서부로 4344-11,35.6277091,128.0443549,
반딧불이,강원 영월군 무릉도원면 황정길 165-9,37.2982221,128.1443930,
캠프원,경기 포천시 이동면 새낭로 621-13,38.0321686,127.3263447,
슈가스파글램핑,경기 가평군 북면 가화로 1422-14,37.9003800,127.5110176,
엣더몬,경기 가평군 상면 원흥길 52-127,37.8202538,127.3222053,
우니메이카 강화점,인천 강화군 하점면 창후로228번길 26-16,37.7691141,126.3641106,010-2380-1189
잣숲캠핑장,경기 포천시 신북면 지동길 114-13,37.9379521,127.1205729,031-535-5399
파인벨리펜션 글램핑,경기 포천시 화현면 봉화로 315-97,37.8750647,127.2740640,
여우하우야영장,경기 시흥시 하우로94번길 39 (대야동),37.4632034,126.7878976,
히든캠프,경기 안성시 죽산면 용설호수길 170-1,37.0553303,127.4472319,
신불산 베이스캠프 오토캠핑장,울산 울주군 삼남읍 자수정로 125,35.5381194,129.0976705,
캠핑가는 날,경남 밀양시 산내면 얼음골로 134-48,35.5794765,128.9812267,
아우어캄푸스,경기 양평군 청운면 신론로 360,37.5606254,127.7752245,
한천관광농원야영장,전남 화순군 한천면 죽헌로 376-34,34.9739417,127.0098302,
용바위야영장,전라남도 곡성군 목사동면 구룡리 293 ,35.1366774,127.3137391,
하동하늘숲캠핑장,경남 하동군 청암면 안양로 118,35.1637549,127.8060107,
홍스랜드 글램핑,제주특별자치도 제주시 애월읍 어음13길 25-45,33.4029030,126.3472261,
안성 별숲 캠핑장,경기 안성시 죽산면 곰내미길 11,37.0101674,127.4244674,
따봄,경기 하남시 서하남로576번길 119 (교산동),37.5186743,127.2063617,
유명산밸리 캠핑장,경기 가평군 설악면 유명로 626,37.6021815,127.4935246,
나아정,경기 가평군 상면 축령로 183-102,37.7723317,127.3527468,
숲속에 머물다,강원 춘천시 서면 툇골길 349,37.9360606,127.6675007,
캠프 오어즈,강원 영월군 무릉도원면 백년계곡길 116,37.3746937,128.2718472,
엉클킴스 캠핑장,경기 포천시 신북면 탑신로 940,37.9336603,127.1406908,
곡성달빛 야영장,전남 곡성군 죽곡면 남양마을1길 239-5,35.1875396,127.3412483,
리틀 포레스트 캠핑,경기 가평군 상면 임초밤안골로 230,37.7510684,127.3663017,
유명산 258,경기 가평군 설악면 유명산길 61-12,37.5964304,127.4922293,
둥근돌캠핑장,경기 양평군 양동면 몰운고갯길 732-9,37.4920834,127.7418036,010-8631-5435
청계호수 자작나무숲 캠핑장,경기 포천시 일동면 운악청계로1480번길 22,37.9382538,127.3397259,
주원캠핑장,경기 용인시 처인구 원삼면 보개원삼로1415번길 11-14,37.1206426,127.3074110,
리버앤캠프,경기 연천군 청산면 백궁길 27,38.0260281,127.1369629,
한산도 충무공교실 야영장,경남 통영시 한산면 한산일주로 622,34.7807499,128.5010068,055-647-0708
썬오브글램핑,경기 포천시 이동면 금강로6263번길 14-2,38.0880425,127.3897429,
양평온누리캠핑장,경기 양평군 서종면 갈문길 29-1,37.6472432,127.4336580,
두부삼촌캠프,경기 파주시 파평면 청송로652번길 44,37.9406758,126.8803426,
아린 글램핑,경기 가평군 설악면 유명로 2150-14,37.6985680,127.4597874,
반가운캠핑장,경상남도 거제시 동부면 구천리 647-8,34.7980689,128.6272159,055-637-4747
지맨 카라반파크,경기 안양시 만안구 예술공원로 213 (석수동),37.4205599,126.9291516,031-473-8800
호노골 캠핑장,경남 진주시 지수면 용봉로 561,35.2504886,128.2272471,
오롯하다 키즈글램핑 가평,경기 가평군 북면 가화로 1364-55,37.9020740,127.5137764,
옥천1382,경남 창녕군 창녕읍 전평길 15-807,35.4946002,128.5486027,
까치산 체험관광농원,경기 용인시 처인구 모현읍 초부로54번길 40,37.3099413,127.2456067,
달사랑 캠핑장,경기 포천시 신북면 아트밸리로 196,37.9235414,127.2343096,010-9240-9560
어썸캠핑장,인천 강화군 화도면 마니산로 808-11,37.6336404,126.4084801,032-937-1580
철원포레스트,강원 철원군 갈말읍 순담길 69,38.1710191,127.3012336,
매향 오토 캠핑장,경기 화성시 우정읍 궁평항로 81-22,37.0527371,126.7592065,
우리오토캠핑장,경기 연천군 연천읍 동내로 304,38.0891730,127.1116051,
트멍 캠핑장,경기 포천시 소흘읍 광릉수목원로 932-2,37.7794961,127.1415921,
호랑이캠핑,경기 포천시 영북면 새낭로 919,38.0556940,127.3251217,
캠프627,경남 산청군 단성면 호암로1320번길 90-31,35.3550812,127.9176326,
더파인캠핑,경기 포천시 소흘읍 죽엽산로 515,37.7884288,127.1660184,
초리풍경,경기 파주시 법원읍 초리골길 180,37.8538897,126.8914930,031-958-0164
오블리비아테,경기 가평군 가평읍 당목가일길 410-68,37.8661486,127.5565451,
윤 오토캠핑장,경기 양평군 청운면 비룡1길 49-19,37.5451490,127.6988015,031-775-5229
강변글램핑,경기 김포시 금포로 1202 (운양동),37.6516116,126.7008778,010-2872-9584
카사비앙카,강원 삼척시 근덕면 부남해변길 15,37.3586101,129.2503816,
이숲e랜드 야영장,전남 장성군 북하면 병풍로 782-11,35.3253017,126.8693491,061-395-8388
라라플레이스,강원도 양양군 현북면 하광정리 608-6 ,38.023764846219564,128.72009165750654,
폴라데이 캠핑장,경기 포천시 군내면 선정비로 58,37.8870540,127.2155059,031-535-5001
남해 힐링국민여가캠핑장,경남 남해군 이동면 성남로 105,34.7786958,127.9499272,055-862-2227
스칼라캠프장,강원 춘천시 남산면 추곡고개길 326-121,37.7651221,127.6476322,
가평 리오카라반,경기 가평군 상면 축령로70번길 44-61,37.7794989,127.3629559,
라온힐야영장,경기 가평군 상면 수목원로 224,37.7585268,127.3610824,
해밀터,충북 괴산군 청천면 이평4길 23-14,36.6634019,127.8688233,
산마루카라반,경기 포천시 이동면 화동로1724번길 124-14,37.9952108,127.3747122,
위더스글램핑,경남 창녕군 남지읍 박진로 627,35.4259846,128.4043502,
우니메이카 당진점,충남 당진시 고대면 온동로 1-21,36.9595439,126.5506463,1688-3972-
호미곶 고래마을 캠핑장,경북 포항시 남구 호미곶면 고래마을길 8,36.0322311,129.5775102,
그자리 야영장,강원 홍천군 서면 노일로 478,37.6952997,127.7238698,033-433-1580
우니메이카 안동점,경북 안동시 남후면 무릉1길 20-46,36.5205595,128.6756395,
우니메이카 밀양점,경남 밀양시 단장면 국전로 78-5,35.5087379,128.8753088,
하늘빛,인천 옹진군 영흥면 영흥서로 527-26,37.2744568,126.4536388,010-2496-6796
르쏠레이475카페 야영장,강원 양구군 양구읍 박수근로365번길 84-11,38.1054957,127.9727437,
경상북도교육청김천오토캠핑장	,경북 김천시 증산면 증산1로 163,35.9097778,128.0254889,054-434-5255
호두마루글램핑,경남 사천시 서포면 선창부두길 11-2,34.9910550,127.9742009,
관광농원금산만악리수목원오토캠핑장,충남 금산군 진산면 초미동길 138-10,36.1547058,127.4371752,041-752-5525
그린앤블루,경남 밀양시 단장면 고례로 805-25,35.4894615,128.9234833,055-351-2200
카라반파크 아마존,전북 완주군 구이면 항가리 1203,35.7194782,127.1088124,063-279-9282
밀양 도깨비방망이 캠핑장,경남 밀양시 단장면 단장로 1055,35.4859449,128.8497855,055-355-1300
명덕농원,경기 포천시 화현면 봉화로 400-134,37.8862519,127.2852868,031-531-5651
종이섬 야영장,경남 통영시 용남면 지도해안로 303,34.9143563,128.4724198,
교육가족체험장,충남 부여군 세도면 인세로 40-3,36.1670413,126.9726951,041-832-1996
김천실내테니스장 & 김천오토캠핑장,경북 김천시 남면 초곡길 287-97,36.1407786,128.1779613,054-432-9000
김천맑은계곡 오토캠핑장,경북 김천시 부항면 대야길 307,36.0192538,127.9184282,054-433-1832
화순돔아일랜드,전남 화순군 화순읍 학포로 2653-20,35.0462361,126.9612612,061-373-4556
라라캠핑장,경남 양산시 원동면 원동로 1899-30,35.3959128,128.9242567,
선장포협동조합,충남 아산시 선장면 선장로 121-10,36.7903534,126.8595945,070-7797-0104
더존 관광농원,경기 포천시 이동면 화동로2076번길 125,38.0327484,127.3803955,010-8883-8902
물바람캠핑장,전북 완주군 동상면 송광수만로 1079-61,35.9291573,127.2641587,
을왕리 솔트 캠핑장,인천 중구 용유서로423번길 38 (을왕동),37.4576530,126.3689413,033-751-9300
(주)백동소풍가는길,경남 양산시 백동길 128 (소주동),35.4037221,129.1443610,055-389-0127
오아시스정글,강원 인제군 인제읍 필례약수길 84-10,38.0762331,128.3690179,033-463-0901
별밤 글램핑,경기도 가평군 상면 원흥리 514-13,37.82130459998124,127.32096795765152,
글램인스타,강원도 정선군 고한읍 고토일길 210-15,37.2186396,128.8585657,
둥그레휴양마을,충북 보은군 보은읍 강신1길 3,36.5003063,127.7480850,043-544-5735
캠프 고토일,강원 평창군 봉평면 흥정계곡3길 60,37.648236953685156,128.32869532961703,
마을야영장  침산추월,세종특별자치시 조치원읍 침산6길 13,36.6004221,127.2937900,070-7777-8649
정선 도원펜션&캠핑장,강원 정선군 북평면 어도원길 165,37.4392957,128.6255169,033-563-0548
캠프여주,경기 여주시 북내면 중암2길 19-22,37.3571279,127.7102973,010-9252-8762
메기의 추억,경기 가평군 조종면 연인산로 296,37.8378812,127.3660601,
아름다운 농원,경기 포천시 영북면 북원로 281,38.1223184,127.2682375,031-531-8281
(가)꽃향기,충남 부여군 은산면 충절로2883번길 13,36.3131271,126.8457645,
자연과힐링,강원 횡성군 청일면 봉덕로299번길 65,37.5756095,128.1834990,033-342-4888
카캠 그라운드,경기 가평군 조종면 세곡로 155,37.8341998,127.3315589,
솔잎향캠핑파크,경기 시흥시 수인로2107번길 52 (조남동),37.3698228,126.8711247,031-402-7732
스테이 272,경기 이천시 마장면 이장로60번길 34-42,37.2600280,127.3855754,031-0272-0001
솔부엉이 캠핑장,충북 음성군 음성읍 음성로826번길 6-9,36.9727539,127.6250899,043-882-6682
영흥소장골야영장,인천 옹진군 영흥면 영흥남로191번길 58-76,37.2376842,126.4622162,
사발소캠핑장,강원 횡성군 갑천면 어답산로 60-15,37.5692609,128.0415219,
영흥도십리포캠핑장,인천 옹진군 영흥면 영흥북로 360,37.2796838,126.4867324,032-886-0700
스테리움 제천,충북 제천시 백운면 구학산로 1038,37.2046656,128.0094154,1670-0556-
봄봄캠핑,강원 춘천시 사북면 화악지암길 576,37.97985036620364,127.62052191040594,
산속에 관광농원,경기 동두천시 안흥로26번길 283 (안흥동),37.9381304,127.0380781,
화양숲노리캠핑장,충북 괴산군 청천면 화양로 834-9,36.6808591,127.8132441,
별내린캠핑,경기 남양주시 수동면 축령산로 121-1,37.7389116,127.3050404,
스톤 캠핑장,인천 강화군 하점면 고려산로377번길 33,37.7546590,126.4090458,
드론스포츠코리아,전남 고흥군 금산면 돈청길 25-17,34.4662464,127.1300413,
평화숲,충남 청양군 대치면 비끼내길 171-6,36.4787323,126.8669527,041-943-7772
파주 눌노리 체험 캠핑장,경기 파주시 파평면 청송로432번길 99,37.9282308,126.8653481,
산앤호반 캠핑장,경남 합천군 봉산면 서부로 4107-4,35.6138643,128.0268115,
몽리치,경기 가평군 가평읍 당목가일길 574,37.8746584,127.5718981,
운악184,경기 포천시 화현면 화동로184번길 35-1,37.8838672,127.3071702,
나무야나무야캠핑장,충북 괴산군 연풍면 유상길 85,36.7798828,127.9758850,
우니메이카 철원점,강원 철원군 근남면 하오재로 1656-4,38.2021448,127.4723327,
그리심 글램핑장,충남 공주시 정안면 어물길 395,36.5891498,127.1477909,
리틀보이 캠핑장,경남 고성군 회화면 옥수길 13,35.0982368,128.3759571,
가평 글램핑 사그막 끝마을,경기 가평군 가평읍 석봉로3번길 167-54,37.8236270,127.4906980,
아틴마루 야영장,경기 양평군 서종면 가마봉1길 18-27,37.6196124,127.4345481,
보물나라캠프,경기 연천군 신서면 동내로 1359,38.1544029,127.1429015,
무수캠핑장,경기 평택시 포승읍 홍원길 14,37.0180415,126.8682820,031-682-6075
세븐캠핑장,강원도 양양군 서면 서림리 353-9,37.963669171307856,128.5164003282732,
엠와이힐링캠핑장,경남 밀양시 활성로 296 (활성동),35.4892834,128.8039245,
지리산365오토캠핑펜션,경남 산청군 시천면 지리산대로 605,35.2887320,127.7590729,
달빛정원글램핑&카라반,경기 가평군 설악면 유명산길 118,37.59307690727609,127.4871936860097,
산내956,경북 경주시 산내면 문복로 956,35.7136156,129.0551044,0507-1382-0128
포천 라온글램핑&오토캠핑장,경기 포천시 영중면 성장로55번길 15,38.0282881,127.2655595,031-535-5720
둥지캠핑장,충북 보은군 내북면 회인내북로 874,36.5663155,127.6489785,
또바기 스파글램핑,경기 가평군 북면 멱골로 205-10,37.9085334,127.5731245,
에코팜 부설 오토캠핑장,경북 포항시 북구 죽장면 합석길 7,36.2026459,129.0953690,
한별 도그파크,경남 함안군 법수면 이묵골로 135,35.3365951,128.3562584,
양양 솔바다 캠핑장,강원도 양양군 손양면 송전리 220-1 ,38.0926872,128.6519241,
곰섬캠핑장 2구역,충남 태안군 남면 곰섬로 500-12,36.5878439,126.2921150,
별밤캠핑장,전남 나주시 다시면 고막원길 20,35.0275028,126.6092813,061-337-5111
글램핑포엠,경북 청도군 매전면 능소화길 6,35.6380123,128.8526897,
캠프파크 자동차 야영장,경남 창녕군 유어면 우포1대로 285-1,35.5179743,128.3816442,0507-1403-9334
다울관광농원 야영장,충청남도 서산시 성연면 오사리 658-2,36.835198453370595,126.41814699990738,
라피,강원 평창군 봉평면 흥정계곡4길 71-70,37.6473441,128.3137995,
아리아리 숲속의 야영장,강원 영월군 주천면 솔치로 240-70,37.2636765,128.2126356,
느루 캠핑장,충남 부여군 장암면 장암로 67-28,36.2376362,126.8876918,
우니메이카 단양점,충북 단양군 가곡면 새밭로 820,36.9885564,128.4573274,
수리바위 캠핑정원,충남 부여군 외산면 만수리 산25-3,36.3031571,126.7018560,041-830-6422
더오창호,충북 청주시 청원구 오창읍 화복로 780-106,36.7516400,127.4151417,
숲속의아침,강원 영월군 무릉도원면 무릉법흥로 1115,37.3561756,128.2777782,033-372-8181
대룡산 오토캠핑장,강원 홍천군 북방면 성동로 1612,37.8267701375988,127.83666968722491,
무수아취,서울 도봉구 도봉로169길 249 (도봉동),37.6764256,127.0330822,02-954-0249
캠프 올모,경기 가평군 설악면 장수로 156-50,37.61790481221619,127.50922063498082,
스타밸리캠핑장,충북 진천군 백곡면 배티로 425,36.9107444,127.3402684,
천지 글램핑,전남 순천시 상사면 선동길 112,34.9022155,127.4360997,061-742-5532
사천 케이블카 자연휴양림,경남 사천시 실안길 242-45 (실안동),34.9502390,128.0576440,055-835-9524
진악산오토캠핑장,충남 금산군 남이면 진악로 138-2,36.0571240,127.4351636,
라라캠핑장,경북 경주시 양남면 서왕길 381-14,35.6877237,129.3963360,010-5045-1512
오색 산새소리캠핑장,강원 양양군 서면 설악로 1044,38.0774961,128.4661922,
파주캠핑장,경기 파주시 탄현면 방촌로628번길 25-45,37.79774498308247,126.72195005905982,
이천 인휴 글램핑,경기 이천시 모가면 진상미로1385번길 221-6,37.1723396,127.4706034,031-635-9500
바다다 캠핑장,인천 강화군 화도면 해안남로 2739-36,37.63651621991254,126.38161498354388,
가리벨리캠핑장,강원 인제군 인제읍 대목리길 137,38.0731303,128.3383524,033-463-1212
에이미캠핑장,강원 영월군 김삿갓면 영월동로 1107-1,37.1320289,128.5353337,033-372-3229
비토애글램핑2호점(BITOLUV GLAMPING Seaso 2),경남 사천시 서포면 토끼로 217,34.9812708,127.9647885,0507-1390-8217
캠핑679,경기 가평군 북면 화악산로 162-21,37.8966864,127.5609183,
더모스트 글램핑,경북 문경시 문경읍 문경대로 2259-9,36.7312958,128.0960354,054-572-1300
아이프로방스,충북 청주시 상당구 미원면 남부로 6774,36.6133644,127.6791950,
숲이야기,강원 춘천시 남산면 서백길 691-77,37.7998205,127.5886920,
큰빛내 야영장,경상북도 울진군 금강송면 소광리 127-3 ,37.0260152927312,129.21124849222645,
노마드글램핑,경기 가평군 상면 원흥길 46-12,37.8186686,127.3261880,033-261-1185
하얀보트,제주특별자치도 서귀포시 막숙포로 66-1 (법환동),33.2356330,126.5145116,
은하수 관광농원,경북 김천시 부항면 안간1길 760,36.0030208,127.9548573,010-8818-8740
백암온천마을 영농조합법인 야영장,경북 울진군 온정면 온정리 665-2 ,36.7078708,129.3411442,054-788-4490
알로프랑스,경북 김천시 어모면 은림로 62-11,36.1795215,128.1270051,054-434-6677
야한 캠핑장,경기 이천시 마장면 이섭대천로155번길 100,37.2199766,127.3913725,
소노팜,강원 홍천군 서면 개야로 357-32,37.6921803,127.6403781,033-432-3579
파인벨리펜션 글램핑 2호점,경기 포천시 화현면 봉화로 382-1,37.8831404,127.2783471,
민트글램핑,경기 포천시 이동면 금강로 5846,38.0531117,127.3749216,031-535-1100
에프앤에프캠핑,충북 제천시 봉양읍 명암로 635,37.1947287,128.1474917,043-653-3456
카이로스오토야영장,충북 충주시 동량면 미라실로 603,37.0091397,128.0405932,0507-1318-3045
남해금산오토캠핑장,경남 남해군 상주면 남해대로796번길 54,34.7350843,127.9839126,010-2554-1903
노마드 캠프,경기 남양주시 경춘로611번길 11-44 (일패동),37.6180665,127.1760692,
서리실 힐링 가족캠핑장,충남 천안시 동남구 광덕면 서리실길 147,36.6704133,127.0872809,
하늘땅카라반,전북 무주군 설천면 구천동로 966-12,35.9072958,127.7705951,
노랑카라반,경남 남해군 이동면 남해대로 1607,34.7694045,127.9523716,
화천드림캠핑장,강원 화천군 화천읍 한묵령로 504,38.2022770,127.7662366,
담터오지글램핑,강원 철원군 동송읍 담터길 350,38.14723980921425,127.21129971468025,010-5011-1400
박달재초록꿈캠핑체험장,충북 제천시 백운면 구학산로 690,37.1867152,127.9927471,043-651-1233
읍내리 75-1 캠핑장,경기 가평군 가평읍 물안산길 42-143,37.8552141,127.5140734,010-4056-8312
바다야영장,전북 부안군 진서면 곰소항길 22-25,35.5888625,126.6024098,
천주봉 캠핑장,경북 문경시 동로면 금천로 2117,36.7395200,128.3122334,
FLOW 11 야영장,경남 창녕군 길곡면 내외동길 11,35.3996009,128.5387171,
우니메이카 산청점,경남 산청군 시천면 세석길 67,35.2818190,127.7323369,
운악산 글램핑,경기 포천시 화현면 화동로432번길 92-131,37.9013458,127.3111947,
월악파머스캠핑장,충북 제천시 덕산면 월악산로 450-5,36.8926692,128.1386782,
캠프고일리,경기 포천시 신북면 포천로2337번길 38-29,37.9617314,127.1889864,0507-1395-2997
하늘아래 야영장,대구 수성구 진밭길 420 (범물동),35.7981105,128.6735804,053-782-1133
경주 캠핑573,경북 경주시 현곡면 새안현로 507-19,35.9157633,129.1494315,
월성자연캠핑야영장,경남 거창군 북상면 덕유월성로 1170-19,35.7689379,127.7198616,055-943-4282
백석탄골부리캠핑장,경북 청송군 안덕면 백석탄로 541-21,36.3495338,128.9955915,054-873-8678
빗소리야영장,경북 청도군 각북면 삼평1길 90-11,35.6679831,128.5940172,
캠핑느루,강원 고성군 토성면 미시령폭포길 64,38.2090526,128.4819689,
오렌지캠프,충북 보은군 속리산면 속리산로 995-35,36.5240131,127.7877966,
태그하우스,인천 강화군 길상면 동검길154번길 24-19,37.5916047,126.5069619,
우리들캠핑장,강원 양양군 현북면 법수치길 1168-2,37.8967836,128.6148794,
청춘캠핑장,경기 가평군 가평읍 호반로 1700,37.7467558,127.5124645,031-581-9977
단아한,전북 순창군 팔덕면 산동신흥길 6,35.3894687,127.0925441,
다시캠핑장,경북 고령군 덕곡면 덕운로 1043-64,35.7989783,128.1962787,
산내들캠프,경북 경주시 산내면 대현길 405,35.6996961,129.0778380,
포에스카라반파크,경북 포항시 남구 구룡포읍 동해안로 4166-17,35.9406112,129.5304770,
학암포글램핑,충청남도 태안군 원북면 방갈리 515-26 ,36.89812817760888,126.21020146611339,041-674-5113
캠프더포레,경남 함양군 서상면 부전계곡로 245,35.6493103,127.6714130,
힐링피아 카라반 글램핑 풀 캠핑장,경기 가평군 설악면 유명산길 61-75,37.5978864,127.4947241,010-3148-9970
우니메이카 태안점,충남 태안군 소원면 산간이길 158-24,36.7796484,126.1890914,043-1668-3972
뇌운계곡글램핑,강원 평창군 평창읍 뇌운계곡로 659-6,37.4156933,128.3820960,033-332-0009
충주 비내캠프 체험학습장,충북 충주시 앙성면 학교말2길 50,37.1629594,127.7519787,
솔비치캠핑장,충남 태안군 남면 몽산포길 63-23,36.6716010,126.2896689,
가온오토캠핑장,경북 포항시 북구 죽장면 새마을로 3351,36.1473337,129.0777706,
림스 글램핑,전남 강진군 강진읍 해강로 1038-30,34.6030215,126.7367324,
호미곶유니의바다 카라반캠핑장,경북 포항시 남구 호미곶면 해맞이로46번길 134,36.0588372,129.5751877,
예손캠핑장,경북 고령군 덕곡면 가륜장길 20-7,35.7931527,128.2141499,
(주)웨이브파크,경기 시흥시 거북섬둘레길 42 (정왕동),37.3241008,126.6806875,031-431-9600
승암159캠핑장,충북 괴산군 청천면 후평도원로 484,36.6621178,127.7834883,
그린필로우,강원도 홍천군 서석면 검산리 106 ,37.736115,128.249164,
우니메이카(연천점),경기 연천군 중면 합내로 458,38.155825,127.062549,031-1668-3972
노을길 야영장,전남 무안군 망운면 조금나루길 128-68,35.0052793,126.3542371,061-453-8399
두미리관광농원,강원 홍천군 서면 개야로 304-229,37.6769805,127.6427910,
파크킹,경북 김천시 어모면 은림로 62-11,36.1795215,128.1270051,054-434-6677
봉즈살롱,강원 횡성군 서원면 서원서로102번길 3-18,37.48049694689978,127.8240705696189,033-345-3336
포천캠핑마을,경기 포천시 신북면 청신로1196번길 293-57,37.935762,127.169413,
고창군 선운산 국민여가캠핑장,전북 고창군 아산면 선운사로 158-62,35.5025416,126.5829374,0507-1406-4082
양평숲 비룡캠프장,경기 양평군 청운면 목내미길 83-215,37.5232034,127.7135440,010-3169-9571
우니메이카(가평점),경기 가평군 가평읍 경반안로 223,37.827955,127.482918,
을전56오토캠핑장,충북 단양군 가곡면 을전길 56-1,36.9870043,128.4647920,
꽃길글램핑,경남 산청군 금서면 왕등재로 160,35.3972971,127.8240390,0507-1442-6676
네잎클로버 캠핑장,경기 가평군 설악면 장수로 156-20,37.6176708,127.5087776,070-8859-8800
달무리 캠핑장,경기 가평군 조종면 연인산로 595-1,37.8554016,127.3842559,
어썸비치,강원 삼척시 근덕면 초곡길 380,37.3094320,129.2876139,
사르데냐 오토캠핑장,인천 강화군 길상면 장흥로101번길 63-9,37.6099453,126.5080185,
보성 지중해 야영장,전남 보성군 회천면 공룡로 206-42,34.6933694,127.1440077,
낭도야영장,전남 여수시 화정면 여산길 150,34.6004057,127.5416254,061-661-0606
평암189 야영장,경남 창원시 마산합포구 진전면 평암로 372-8,35.1590776,128.4013007,055-272-0667
두루웰 캠핑장,강원 철원군 갈말읍 지경1길 69,38.2279939,127.3532474,033-450-5198
크리스월드,경기 가평군 가평읍 북한강변로 360-93,37.760111,127.541447,
캠핑주막,경기 여주시 북내면 당전로 470,37.3485790,127.7165822,
몽산포감성캠핑장,충남 태안군 남면 몽산포길 65-5,36.6712936,126.2888488,
오색허브농원 캠핑장,강원 양양군 서면 송어길 38,38.0700174,128.5386938,033-672-0462
합천호 문워크 카라반 캠핑,경남 합천군 대병면 신성동1길 19,35.5210912,128.0158329,
강화 버팔로 캠팜,인천 강화군 하점면 고려산로 329-74,37.7547613,126.4151787,
낭추골캠핑장,충북 청주시 상당구 낭성면 단재로 1890,36.5978879,127.6181322,043-297-1122
운악산진우네캠핑장,경기 포천시 화현면 화동로 218-18,37.8875324,127.3030521,
젤코바 캠핑장,경기 용인시 처인구 양지면 송주로236번길 82-19,37.2353432,127.2622995,
대둔산캠핑펜션오토캠핑장,전북 완주군 운주면 대둔산로 2100-25,36.1079249,127.3372780,
거북선마을 캠핑장,경남 사천시 용현면 사천대교로 75-61,34.9985104,128.0406001,
연종 캠핑장,충남 공주시 유구읍 구계연종길 473,36.5997585,127.0022497,
소풍,경북 경주시 천북면 새터흥림길 1-27,35.9228913,129.2899191,054-774-1301
보라보라카라반 캠핑장,경북 포항시 북구 청하면 해안로 2264,36.1951350,129.3727450,
밀양 가보자 캠핑장,경남 밀양시 단장면 단장로 905,35.4735266,128.8559059,055-353-7998
프로미스,경기 포천시 이동면 여우고개로242번길 21-27,38.0512047,127.3480943,
섬진강권역 거북이야영 캠핑장,전북 순창군 동계면 장군목길 352,35.4463545,127.2059440,063-652-0352
더설렘,경기 포천시 일동면 윗갈기1길 60,37.9665922,127.3190643,
거림캠핑장,경북 청도군 운문면 운문로 1158-10,35.6732866,128.9989692,
탄금호 야영장,충북 충주시 금가면 오미기2길 62-1,37.0020676,127.8800431,
청도글램핑,경상북도 청도군 화양읍 동천리 603-1 ,35.644006,128.713591,
파머스글램핑,전북 고창군 상하면 상하농원길 11-23,35.4477389,126.4503709,070-4493-5525
모짜르트,경기 양평군 단월면 윗고북길 33-23,37.5874413,127.5879971,
청평사 국민여가 캠핑장,강원 춘천시 북산면 오봉산길 630,37.9829674,127.8179918,033-240-1626
가반나야영장,경남 남해군 창선면 서부로 892-9,34.8850980,127.9840157,055-867-8806
금강뷰,충남 금산군 제원면 낙안길 107-13,36.1150355,127.5805848,
곰취향 가득한 팔랑골 캠핑장,강원도 양구군 동면 팔랑리 1278-1,38.210938,128.058564,033-481-8887
내를 건너서 숲으로 캠핑장,경북 청도군 매전면 청려로 3470,35.6789224,128.8409911,
수승대체험휴양마을,경남 거창군 위천면 원학길 410,35.7526736,127.8310418,
범바위캠핑정원,경기 김포시 대곶면 종생로 154,37.6422062,126.5998912,
살롱드캠핑,경기 양평군 양동면 활거리길 16-19,37.4078157,127.7481829,
의성펫월드 오토캠핑장,경북 의성군 단북면 안계길 255-13,36.3921844,128.4272886,054-830-6616
웨이브 글램핑,경북 포항시 남구 구룡포읍 일출로 465,36.0314708,129.5778198,
해피니스 캠핑장,경기 양주시 장흥면 권율로309번길 317-196,37.7494182,126.9370372,
봉황자연휴양림 숲속야영장,충북 충주시 중앙탑면 수룡봉황길 540,37.0565222,127.8297465,043-870-7920
뷰델카라반펜션,경북 경주시 감포읍 감포로 329-34,35.8190501,129.5079727,
달빛담은캠핑장,전남 보성군 벌교읍 장암길 284-37,34.8027738,127.4122294,
계곡 좋은 펜션 야영장,경남 하동군 청암면 아래몰길 24-10,35.2356344,127.7198629,
휴가든 카라반,강원 영월군 영월읍 복덕원길 45,37.1923523,128.5564254,
발자크펜션캠핑장,충북 제천시 백운면 덕동로 207-3,37.2021034,127.9779039,
러빙네이쳐,강원 인제군 남면 설악로 1129,38.0015167,128.1155875,
금계관광농원,충남 공주시 유구읍 문금길 86,36.6376044,126.9836063,041-841-7502
아띠캠핑장,경기 연천군 군남면 군남로 373,38.0812308,127.0166281,031-833-1142
김삿갓삿갓 쉼터,강원 영월군 김삿갓면 강변로 1390,37.1137131,128.5297127,
강가민박캠핑장,경남 거창군 북상면 덕유월성로 2123-15,35.7802922,127.8000493,
우이동 가족캠핑장,서울 강북구 삼양로181길 28 (우이동),37.6654935,127.0114944,02-944-2941
휴먼캠핑장,경기 양평군 양동면 월은길 145,37.4351415,127.7093259,031-774-8877
평창자연속쉼표캡핑장,강원 평창군 봉평면 흥정계곡4길 171-10,37.6568987,128.3085903,
브룩스 캠핑장,경기 가평군 가평읍 물안산길 83,37.8582374,127.5249140,
물가솔솔캠핑장,강원 홍천군 내면 을수길 153-6,37.8172354,128.4611916,
캠핑소사이어티,경남 진주시 내동면 내축로 523,35.1288852,128.0226605,055-795-1600
해마루 캠핑장,강원 평창군 봉평면 흥정계곡2길 75,37.6555202,128.3307973,033-336-6206
캠프오슬로,강원 삼척시 원덕읍 삼척로 1698,37.2640150,129.3259204,033-575-1765
섬진강별빛야영장,전남 광양시 진월면 사평1길 23,35.0112439,127.7816830,061-772-5002
편안캠핑장,경북 경주시 산내면 단석로 655-10,35.7583898,129.0409458,054-751-8090
호수위의하루,충북 충주시 중앙탑면 반천안길 63,37.0386419,127.8567385,
둥지캠핑장,강원 화천군 사내면 돈내미길 183-39,38.0708205,127.5532998,010-5685-5343
안면도스쿨버스캠핑장,충남 태안군 안면읍 안면대로 3356-1,36.4833147,126.3609454,
물의나라 캠핑장,경기 가평군 조종면 명지산로 475,37.9110931,127.3813593,
에코팡팡캠핑장,경북 포항시 북구 죽장면 죽장로 2118-51,36.2591567,129.2317948,
아미캠핑장,경기 연천군 미산면 청정로918번길 121,38.0372524,126.9575307,
일곱식구 캠핑장,전북 정읍시 칠보면 행단1길 153,35.5870258,127.0135087,
산머루농원캠핑장,경기 파주시 적성면 윗배우니길 441-42,37.9602854,126.9591355,031-958-9558
산내 명수관광농원,경북 경주시 산내면 장사길 46-17,35.7901626,129.0506320,
카우보이 캠핑장,강원 횡성군 갑천면 어답산로 135,37.5763075,128.0402570,
글램핑로망,대구 달성군 옥포읍 옥포로111길 85-6,35.7413552,128.4949988,053-611-3285
(주)젠하이더웨이 트로컬하이드어웨이,제주특별자치도 서귀포시 대정읍 형제해안로 284,33.2092329,126.2912734,064-792-1461
주전패밀리캠핑장,울산 동구 주전해안길 300 (주전동),35.5517652,129.4552481,
안림딸기마을 캠핑장,경북 고령군 쌍림면 안림천길 19-6,35.6924395,128.2597125,054-956-2423
보문카라반파크,경북 경주시 경감로 466-311 (천군동),35.8144480,129.2705439,054-773-5780
와룡천 캠핑장,강원 영월군 남면 송정길 53,37.1895832,128.4113992,
돌담 캠핑&가든,인천 강화군 삼산면 삼산북로 397-1,37.7010678,126.3281700,
네이스트 프라이빗 음성,충북 음성군 원남면 덕생로 167-15,36.8943396,127.5982097,
수입리캠핑장,경기 양평군 서종면 화서로246번길 22-6,37.6402856,127.3990492,010-4668-2463
슬로우위켄드,전남 장성군 황룡면 구대해길 3-12,35.2636602,126.7517544,
보개산 야영장,경기 연천군 신서면 동내로 980,38.1293620,127.1360682,
바람숲야영장,대구 동구 팔공로230길 103 (진인동),35.9503920,128.7132547,
별바라기 캠핑 펜션,충남 논산시 벌곡면 수락로 669-54,36.1971733,127.2914421,041-435-7012
산정호수 돌고래 캠핑장,경기 포천시 영북면 산정호수로 510-1,38.0592481,127.3183943,031-531-2007
채움카라반리조트,경기도 가평군 조종면 운악리 542-14 ,37.888414,127.353063,
숲내음카라반캠핑장,전북 완주군 상관면 죽림편백길 143-5,35.7418834,127.2080189,
백제캠핑장,전북 익산시 금마면 도천길 131-20,36.0125202,127.0515478,063-851-2009
갈천힐링캠프,강원 양양군 서면 구룡령로 1103-45,37.9072067,128.5051837,
포게더 카라반 지조개발,경남 거제시 사등면 덕호해안길 147-1,34.8726226,128.4725988,
블루문 오토캠핑,세종특별자치시 연서면 기와말1길 20,36.5585894,127.2498372,044-862-3894
광산구 국민여가 친환경 오토캠핑장,광주 광산구 탑동길 345 (지산동),35.1953233,126.7303820,
도둑골 신규,경남 하동군 옥종면 호계천로 202,35.1950295,127.8582356,055-883-8887
무릉관광농원,경북 경주시 강동면 호국로 3150-56,35.9853791,129.2465925,
솔밭캠핑장,경북 포항시 북구 송라면 해안로 2952,36.2423597,129.3778068,
포시즌오토캠핑장(주식회사 제이에스 글로벌),충남 예산군 덕산면 온천단지3로 10-17,36.6950929,126.6589791,
바다야 놀자,충청남도 보령시 천북면 학성리 242-24,36.4366717,126.4965666,041-642-0556
남작골 농촌체험휴양마을 야영장,경북 성주군 수륜면 보월로 8-23,35.8036361,128.2705664,054-933-0211
우니메이카 고령점,경북 고령군 덕곡면 백리로 391-16,35.8124629,128.1944874,054-1688-3972
힐링오름캠핑장,경북 고령군 덕곡면 덕운로 1081,35.8000760,128.1910034,
글로리아 야영장,충남 홍성군 서부면 서부서길554번길 58,36.5801431,126.4683829,
채계산 구름 관광농원,전북 순창군 적성면 마계길 22-8,35.4098226,127.2359763,
신두리정원오토캠핑야영장,충남 태안군 원북면 신두로 690-57,36.8360368,126.1894419,041-675-8005
무지개캠핑장,경기 파주시 광탄면 부흥로 206-9,37.8016463,126.8703025,010-2434-5121
담터 금학캠핑장,경기 포천시 관인면 담터길 339,38.1609346,127.1894173,
명봉산솔밭관광농원오토캠핑장,강원 원주시 흥업면 승안동길 242-56,37.3051238,127.8736283,010-8824-9480
벨하우스 관광농원,경기 남양주시 수동면 지둔로445번길 98,37.7275960,127.2971914,031-592-6877
탄도호캠핑장,경기 화성시 송산면 송산서로420번길 102-20,37.2094743,126.6673838,
조봉야영장,강원 양양군 서면 구룡령로 1610,37.9496801,128.5035882,033-673-5816
해울림영농조합법인,전남 고흥군 금산면 평산길 94,34.4908482,127.1769650,061-844-5000
가야산백운오토캠핑장,경북 성주군 수륜면 백운2길 51-32,35.7953017,128.1517699,
골드펫리조트,경기 용인시 기흥구 기흥단지로 406 (고매동  골드훼미리콘도),37.2210183,127.1387381,031-286-9111
무주 더 스위트 글램핑,전북 무주군 무풍면 오두재로 96,35.8901936,127.8303093,
강화도 크로바 캠핑장,인천 강화군 길상면 해안남로 497-4,37.5968158,126.5093097,010-9689-9578
그레이스 글램핑,강원 춘천시 남산면 북한강변길 888,37.8283111,127.6094377,
러빙유 카라반 캠핑장,충남 당진시 고대면 삼선산수목원길 50,36.910524,126.584037,
참살이 가족 캠핑장,경기 안성시 보개면 신장길 184,37.0460221,127.2726175,031-676-1009
달빛야영장,경기 양평군 단월면 윗고북길 56,37.5887405,127.5832641,010-8565-2472
행복한 체험 캠핑장,경기 김포시 금포로 1196 (운양동),37.6512549,126.7010576,
캠프1530,경북 청도군 운문면 운북로 235,35.7881772,128.9652078,
다둥이네캠핑장,경기 가평군 북면 화악산로 636,37.9347012,127.5632319,
하기숲 가족캠핑장,대전광역시 유성구 하기동 259 ,36.3931999,127.3323078,070-7727-5500
약사밤나무집 캠핑장,경기 포천시 이동면 금강로 6145-15,38.0770181,127.3896883,
우니메이카 캠핑장 양양점,강원 양양군 현북면 법수치길 1029,37.9048764,128.6154473,010-8786-0937
시골학교캠핑장,충북 제천시 봉양읍 제원로 653,37.1737976,128.1055584,0507-1477-9015
비손관광농원 야영장,경북 포항시 북구 청하면 비학로 1889-157,36.1975644,129.3173947,0507-1311-1266
용인 둥지골 캠핑장,경기 용인시 처인구 원삼면 후평로185번길 39,37.1362166,127.3285569,
연인산 다목적 캠핑장,경기 가평군 북면 백둔로 441,37.9015759,127.4602774,031-8078-8068
아만다키즈글램핑,경기 가평군 조종면 와곡길 120,37.8691786,127.3544156,070-4464-7881
캠프 인디오,강원 홍천군 동면 후동길128번길 53,37.6478264,127.9302618,010-3702-9629
함양라온캠핑장,경남 함양군 서하면 육십령로 2991,35.6259804,127.7744167,010-8486-0855
더 노은로 캠핑장,대전 유성구 노은서로 19 (노은동),36.3630724,127.3156340,
청풍호반 오토캠핑장,충북 제천시 청풍면 용곡길211번길 2,36.9836791,128.1185728,0507-1416-7170
지리산생태체험단지,경남 함양군 마천면 가미동길 67,35.3803462,127.6625993,055-964-0222
인천송도국제캠핑장,인천 연수구 지식기반로 60 (송도동),37.3615967,126.6458827,032-456-2650
가평 워크샵 캠핑장 씨브이,경기 가평군 가평읍 북한강변로 274,37.7531069,127.5356693,
제천카라반 더그린,충북 제천시 봉양읍 박달로 256-21,37.1443354,128.0590462,043-652-9222
더하루캠핑파크,경남 창원시 마산합포구 진전면 일암1길 74,35.1252246,128.3785566,055-271-8111
강화카라반해변,인천 강화군 화도면 해안남로 2669,37.6358904,126.3739803,032-937-0209
우리동네 캠핑장,경북 김천시 아포읍 대성지1길 165,36.1069736,128.2746982,010-8851-8055
트리하우스계곡야영장,강원 홍천군 내촌면 아홉사리로 1740,37.8213597,128.1455255,
아우노펠리스,경북 영천시 상신기길 150 (언하동),36.0035029,128.9564473,
화순 고인돌 오토캠핑장,전남 화순군 도곡면 고인돌1로 139,34.9864608,126.9127905,
성보촌 캠핑장,경북 문경시 호계면 상무로 377,36.6456656,128.1944827,054-555-0001
캠핑소리251,경기 가평군 설악면 묵안로 350,37.6410273,127.5113604,010-9150-3644
새움정,경북 예천군 보문면 옥천길 30,36.7097443,128.5561932,054-652-4733
용인 룰루랄라 캠핑장,경기 용인시 처인구 동부로729번길 97 (해곡동),37.1961334,127.2716484,
보다더캠핑,전북 고창군 부안면 복분자로 531,35.5097208,126.6455291,063-561-2553
한성연수원 야영장,경북 문경시 마성면 하내2길 55,36.6648084,128.0801283,054-571-2244
행운야영장,경기 양주시 마전로212번길 79-72 (마전동),37.7794791,127.0586859,
지리산 호수공원 오토캠핑장,전남 구례군 산동면 산업로 1590-18,35.2807971,127.4184841,061-783-2800
산청펫글램핑,경남 산청군 금서면 화계오봉로 349-35,35.4387977,127.7779484,055-972-1564
백자동 캠핑장,경기 가평군 북면 가화로 2575-22,37.9649434,127.4643036,010-7216-5904
도명산캠핑장,충북 괴산군 청천면 고성4길 4-2,36.6600268,127.7841619,
옥전캠핑장,충북 제천시 봉양읍 옥전길 273-25,37.1800785,128.0827733,0507-1353-2512
늘솔길 캠핑장,강원 춘천시 동면 야시대로 1502,37.8566920,127.9362431,033-251-7722
동두천 자연휴양림,경기 동두천시 탑동가산로 1 (탑동동),37.8898855,127.1371604,031-860-3259
(주)수피아캠핑카라반,강원 홍천군 서면 한서로 2141-16,37.6172649,127.6723802,010-5141-8282
양주 패밀리 캠핑장,경기 양주시 부흥로 2191-46 (삼숭동),37.8087580,127.0955301,
연천리버힐캠핑장,경기 연천군 미산면 숭의전로 520-21,38.0253601,126.9834614,010-5212-4366
욕지도 관광농원,경남 통영시 욕지면 욕지일주로 819-47,34.6411019,128.2396931,010-8520-3107
범도아리아글램핑,경남 밀양시 단장면 아불1길 13,35.5221364,128.9078352,010-9771-3088
양평카라반파파,경기 양평군 단월면 석산로 1413,37.6412141,127.6048907,010-3727-3611
거창서핑파크,경남 거창군 위천면 거차1길 23-18,35.7479674,127.8363500,054-945-8800
강나루야영장,경기 파주시 적성면 어삼로 243,38.0043442,126.9712473,
천보well ess캠핑장,경기 양주시 원학로184번길 142-38 (광사동),37.7712667,127.0696562,010-2878-1671
스카이랜드리조트,인천 강화군 삼산면 삼산남로 991,37.6916102,126.3004618,032-932-2004
커몽 그라운드,경북 경주시 산내면 문복로 956,35.7136156,129.0551044,
리썸카라반,제주특별자치도 서귀포시 대정읍 일과대수로27번길,33.2392388,126.2302799,064-794-2372
고운마을캠핑장,경북 의성군 단촌면 고운사길 203-21,36.4612199,128.7246931,054-833-2446
한탄강둘레길캠핑장,경기 포천시 영북면 소회산길 366,38.0952319,127.2338355,010-2044-8198
솔미캠핑장,강원 정선군 임계면 반천고양로 12,37.4961996,128.8157897,033-562-6241
주식회사비브릿지글램핑,강원 영월군 김삿갓면 영월동로 2295-12,37.1206112,128.6271708,
영월한반도캠핑장,강원 영월군 한반도면 후탄로 826,37.2152567,128.3562488,
산내자연캠프,경북 경주시 산내면 대현동골길 80-19,35.6927008,129.0581193,010-9389-6849
성북구 삼척수련원,강원 삼척시 근덕면 상맹방길 398-4,37.4079387,129.2044514,033-572-9766
별똥별 글램핑,경기 가평군 설악면 유명산길 124-12,37.5923980,127.4865947,010-6848-0853
강동오토캠핑장,울산광역시 북구 당사동 87 ,35.6019885,129.4625747,052-291-3663
몽산포힐링캠핑장,충청남도 태안군 남면 신장리 산 113-46 ,36.6715906,126.2869923,
몽골캠핑장,강원 홍천군 내면 밤바치길 737,37.7972652,128.3482646,010-3002-3335
원주웰빙캠프,강원 원주시 신림면 신림황둔로 714-2,37.2497904,128.1416474,033-764-5200
팔봉참살이오토캠핑장,강원 홍천군 서면 오도치길 32,37.6821490,127.7006340,033-435-1481
럭셔리 안성(M) 글램핑장,경기 안성시 금광면 연내동길 201-13,36.9737004,127.3897496,
답게,강원 화천군 사내면 화악산로 621-6,38.0388402,127.5133225,
축령산 오션파크,경기 가평군 상면 축령로 296,37.7739446,127.3429332,
매미캠프,경남 거제시 장목면 옥포대첩로 1279-3,34.9662563,128.7035298,010-6697-2876
올레야영장,경북 포항시 북구 청하면 해안로2428번길 14,36.2076765,129.3712451,
글렌 252,경기 양평군 양동면 황거길 175,37.4572675,127.7264823,010-3018-0252
자양보오토캠핑장,경남 산청군 시천면 남명로 392-23,35.2669472,127.8563873,055-973-3005
황매산미리내파크 오토캠핑장,경남 산청군 차황면 황매산로1138번길 215,35.4848277,127.9683227,010-4911-2927
돈내미농장,경기 동두천시 천보산로456번길 49-1 (탑동동),37.8746691,127.1113715,011-9660-5310
가평포레스트카라반랜드,경기 가평군 가평읍 상지로 705-38,37.7524955,127.4963774,010-8206-9442
아이사랑캠핑장,충남 보령시 주산면 사작골길 63-13,36.1827085,126.5996532,010-2701-7474
하늘바다글램핑,인천광역시 강화군 길상면 동검리 125-95,37.5842863,126.5158984,010-7615-7801
운일암반일암 국민여가캠핑장,전북 진안군 주천면 동상주천로 1996-13,35.9747101,127.4160844,063-430-2555
성주선바위캠핑장,경북 성주군 금수면 성주로 15-4,35.9061457,128.0607602,010-3527-3249
이화만리캠핑장,경북 김천시 농소면 벽봉로 1651,36.0716813,128.1773292,054-430-8805
도담오토캠핑장,충남 태안군 남면 진산1길 277-112,36.7206407,126.2749722,0507-1319-3396
수림 휴원,충남 보령시 웅천읍 내성1길 117,36.2452616,126.6292142,041-933-1723
백운일출캠핑장,충북 제천시 백운면 구학산로 907-2,37.2000455,127.9963873,043-643-5556
강릉 금진리321카라반,강원 강릉시 옥계면 헌화로 247-11,37.6373503,129.0437725,
별무리,경북 영천시 화북면 별빛로 534-1,36.1263693,128.9857935,
귀촌 관광농원,강원 횡성군 갑천면 병지방길 219-6,37.6169023,128.0810475,033-345-4448
가고파캠핑장,경남 산청군 시천면 지리산대로1478번길 31-10,35.2399991,127.8177290,
모모카라반,인천 옹진군 영흥면 영흥로757번길 176,37.2669773,126.4477959,010-7118-5432
용문산 해와달,경기 양평군 옥천면 용천로306번길 21-33,37.5484842,127.5066901,
풀무산 캠핑장,경기 양평군 청운면 삼백골길 19-14,37.5517524,127.7919428,031-771-7877
아라미르글램핑,인천 강화군 삼산면 삼산북로 332,37.7007401,126.3355743,
보성강 용정권역 어울마당 야영장,전남 보성군 미력면 보성강로 356-30,34.8114230,127.1161497,061-853-2999
양양오색 휴랜드 야영장,강원 양양군 서면 관대문길 99,38.0734460,128.4900341,033-672-9189
숲속야영장,강원 정선군 정선읍 병방치길 225,37.3623256,128.6354472,033-563-4100
대황강 자연휴식체험장 야영장,전남 곡성군 석곡면 주석로 620-40,35.124942,127.254936,061-362-3300
붉은오름 자연휴양림 숲속 야영장,제주특별자치도 서귀포시 표선면 남조로 1487-73,33.4014447,126.6757628,064-782-9171
천사섬캠핑&글램핑,전남 신안군 자은면 한운길 159,34.9228141,126.0746639,
문수산 자연휴양림 야영장,경북 봉화군 봉성면 시거리길 378,36.9451307,128.8325147,054-674-3700
메아리 글램핑장,전남 여수시 소라면 해넘이길 217,34.7913092,127.5669281,061-686-1576
아레나글램핑,강원 홍천군 북방면 노일로 344-13,37.6895066,127.7313256,033-435-6300
진여지야영장,경북 김천시 대항면 작내로 770-12,36.0645954,128.0151517,
모나캠핑파크 카라반,경기 가평군 상면 축령로 151-2,37.7754900,127.3565024,031-584-3969
여울지숲속캠핑장,경기 김포시 하성면 오정동로 121-15,37.6512549,126.7010576,010-7609-5535
영월아트앤캠프장,강원 영월군 김삿갓면 김삿갓로 697-6,37.1151629,128.6039968,010-6677-8829
캐빈,충남 서산시 대산읍 광암4길 129,36.9380525,126.3821380,
사강스마트팜캠핑장,경기 화성시 송산면 송산포도로 194,37.2163033,126.7274535,031-932-8188
소백산 신선펜션 & 캠핑,충북 단양군 가곡면 새밭로 474,36.9958373,128.4228607,010-4963-7169
독스아웃,경기 남양주시 화도읍 북한강로 1546,37.6466317,127.3650741,
왜목오토캠핑장,충남 당진시 석문면 왜목길 16-16,37.0459155,126.5264874,041-363-9229
무주 별빛 카라반,전북 무주군 설천면 백련사길 2-29,35.8943853,127.7758211,
선라이즈글램핑,경북 안동시 길안면 대사로 270,36.3771618,128.9472088,010-2036-1034
청평원레저타운,경기도 가평군 청평면 삼회리 185-8번지 ,37.6999473,127.3948414,031-585-8892
수동시온캠프,경기 남양주시 수동면 지둔로445번길 82,37.7271525,127.2983908,010-5230-6729
레이크문캠핑장,경기 포천시 영중면 호국로3296번길 31-46,38.0340674,127.2656689,010-9520-8136
고재 야영장,경기 양평군 지평면 고재길 108,37.4274529,127.6062388,
빨간집 야영장,경기 양평군 양서면 양수로118번길 69,37.5476522,127.3244271,010-8766-3742
엘리캠핑장,경기 화성시 비봉면 미륵골로 108-17,37.2267142,126.8699570,010-4546-0244
강화무지개글램핑,인천광역시 강화군 송해면 양오리 640-1번지,37.795626,126.456008,010-5351-2760
문경 단산 숲속 캠핑장,경북 문경시 문경읍 활공장길 585,36.7302895,128.1742242,054-572-7273
프라도 캠핑장,경기 가평군 북면 화악산로207번길 5-29,37.8988680,127.5603689,010-6615-8042
몽산포그린캠핑장,충청남도 태안군 남면 신장리 433-10번지 ,36.670059,126.291743,
숲속 캠핑장,전북 진안군 부귀면 귀상로 792-23,35.8529294,127.4299770,010-6455-4207
서울 서초 글램핑 청계산장,서울 서초구 청계산로 140-94 (원지동),37.4484078,127.0464076,0507-1387-3699
코코로망스,인천 옹진군 영흥면 영흥로685번길 76,37.2708458,126.4532204,
밀양캠핑홀릭,경남 밀양시 청도면 조천길 337-64,35.5185140,128.6187256,010-7159-5046
반디품은마을,전북 무주군 적상면 삼방로 476,35.9589589,127.6095727,010-2282-9526
다 그린,강원 영월군 주천면 미다리길 58,37.2915378,128.3265636,010-5123-0156
인제소재골야영장,강원 인제군 북면 냇강효자길 366,38.1600141,128.1671685,
풀내음캠핑장,경기 화성시 봉담읍 도곡1길 20-21,37.1996978,126.9203713,010-5349-8768
화양동야영장,충북 괴산군 청천면 화양로 733-38,36.6830252,127.8065262,010-2368-1544
청송 얼음골 야영장,경북 청송군 주왕산면 팔각산로 453,36.3252526,129.2402977,
따봉캠핑장,경기 파주시 파주읍 통일로 1604-26,37.8520040,126.7901729,010-3016-3540
자두마을,전북 정읍시 종황길 92 (내장동),35.5114766,126.9188000,010-4110-9930
학천야영장,전북 남원시 산내면 지리산로 712,35.3701175,127.5723560,063-630-8950
마노아워터캠핑장,경남 합천군 봉산면 압곡3길 9,35.6424478,128.0578454,010-8667-6051
태백 눈꽃 야영장,강원 태백시 태백산로 4769 (소도동),37.1320802,128.9614483,
상주 가족캠핑장,경북 상주시 외서면 채릉산로 655,36.4639208,128.0649903,
용설호수캠핑장,경기 안성시 죽산면 용설호수길 234,37.0504884,127.4423827,010-8502-2863
너리굴문화마을 캠핑장,경기 안성시 보개면 너리굴길 100,37.0406961,127.2787535,031-675-2171
심천공원 오토캠핌장,전남 장흥군 부산면 심천공원길 25-45,34.7522078,126.8936604,
석갱이오토캠핑장,충남 태안군 원북면 옥파로 1021,36.8866500,126.2019551,
자연카라반 캠핑장,경북 청도군 청도읍 구미길 101,35.6325434,128.7611188,054-371-3700
수리덤 숲속야영장,경북 청도군 운문면 신원3길 138,35.6806033,129.0108383,
가평글램트리리조트,경기 가평군 상면 돌아우길 99-1,37.7851013,127.3206897,010-6279-1599
안목커피거리카라반캠핑,강원 강릉시 경강로 2643 (견소동),37.7714193,128.9478744,010-6373-2575
양주캠핑,경기 양주시 칠봉산로168번길 290 (회암동),37.8469126,127.0929488,031-857-1775
베리굿 오토캠핑장,전남 함평군 신광면 삼무길 137-33,35.1801673,126.4733875,
연천 전곡리유적 구석기 체험숲,경기 연천군 전곡읍 평화로495번길 89,38.0127419,127.0656618,031-839-2564
송계계곡 숙박단지,충북 제천시 한수면 미륵송계로 1868,36.9027859,128.0786992,
J글램핑,경남 사천시 서포면 거북길 468-116,34.9662981,127.9755765,010-4851-5868
힐링스토리펜션야영장,경북 영주시 풍기읍 삼가로 209,36.9059078,128.5209199,
은이골가족캠핑장,경기 용인시 처인구 양지면 은이로 282,37.2059435,127.2779981,010-5447-6380
한반도 솔숲 쉼터,강원 영월군 한반도면 서강로 1159-93,37.2511655,128.3687668,033-375-7935
청송오토캠핑장,경북 청송군 부남면 얼음골로 690,36.2927075,129.1571014,
꿈꾸는 농부 오토캠핑장,대전 동구 산내로 716 (상소동),36.2358283,127.4671202,010-2412-1340
청수가든,경남 양산시 원동면 어영길 202,35.4292435,128.9343904,010-7545-2453
대부도 아라뜰 캠핑장,경기 안산시 단원구 부흥로 232-21 (대부남동),37.2204820,126.6001701,
경호강변오토캠핑장,경남 산청군 생초면 산수로1153번길 92,35.4869357,127.8134582,055-974-4477
마실캠핑장,경기 파주시 적성면 국사로 271,37.9599592,126.8710915,
봄날처럼,경북 경주시 안강읍 호국로 2522-12,35.9971542,129.1858002,
봉스글램핑,경남 거창군 마리면 풍계1길 27-71,35.7354670,127.8566611,055-945-3737
죠스글램핑,경기 동두천시 삼육사로 1422-34 (탑동동),37.8906400,127.1059217,
화기애애 단풍 캠핑장,강원 평창군 봉평면 흥정계곡길 674-38,37.6466279,128.3130102,010-3765-1444
뚜뚜글램핑,경기 가평군 가평읍 태봉두밀로406번길 14-27,37.8185550,127.4577160,
이화야영장,경북 칠곡군 지천면 황학4길 21,36.0395313,128.4892589,054-972-4465
행화촌자연테마파크,경북 칠곡군 지천면 지천로 798-9,36.0003209,128.4840870,
가온빌리지,경남 밀양시 산외면 산외강변로 309,35.4929578,128.8155887,
캠핑i 곡성,전남 곡성군 고달면 고산로 406,35.2955759,127.3738456,
클라인캠프 빌리지,경기 양평군 개군면 추읍로 268-37,37.4279138,127.5681931,010-3637-0828
산내들 야영장,경기 화성시 비봉면 자청로207번길 21-60,37.2094559,126.8943952,031-356-0768
장성잔디로야영장,전남 장성군 삼서면 수양로 100-32,35.2406141,126.6612028,061-392-6661
가야산 캠핑장,충남 예산군 덕산면 윤봉길로 489-8,36.6865015,126.6289255,010-4850-2432
윤제림오토캠핑장,전남 보성군 겸백면 주월산길 222,34.8248542,127.2067015,061-853-6090
가창글램핑장,대구 달성군 가창면 단산1길 47-1,35.7715498,128.6630631,
(유)금강 두승산 글램핑,전북 정읍시 고부면 영원로 222-15,35.5937578,126.7957984,063-536-4441
동강빌리지 야영장,강원 영월군 영월읍 동강로 223,37.2001149,128.5075514,
소회산리멍우리협곡관광농원(캠핑장),경기 포천시 영북면 소회산길 399,38.0925541,127.2340355,
아쿠아베이(주) 글램핑,경북 포항시 남구 운하로 207-21 (송도동),36.0430200,129.3733804,
열두달캠핑장,경기 가평군 북면 멱골로 202-101,37.9040331,127.5707260,
산호야관광농원,경북 구미시 옥성면 선상서로 797,36.2790410,128.2436518,054-456-7900
토리아이글램핑,강원 홍천군 서면 설밀길 190-20,37.6809637,127.5912886,010-9463-1889
에어그라운드,제주특별자치도 서귀포시 남원읍 남태해안로 439,33.2820588,126.7465795,010-9858-4433
포항국민여가캠핑장,경북 포항시 남구 연일읍 중명길 175,35.9809305,129.3139410,054-270-2885
인스타글램,강원 춘천시 사북면 화악지암길 420-11,37.979273,127.606532,033-242-6995
호명산잣나무숲속캠핑장,경기 가평군 청평면 상지로64번길 77,37.762450,127.464119,070-8844-5353
더 포레스트,경기 양평군 지평면 일신리길 134-23,37.4404210,127.6895769,010-9023-2398
연지곤지팜캠핑장,경기 포천시 소흘읍 직동길 48,37.7673365,127.1693863,010-5461-1486
에버그린 캠핑장,충남 논산시 벌곡면 수락로237번길 26-96,36.1718601,127.2938213,041-733-0867
카우 글램핑,경남 사천시 서포면 토끼로 262,34.9844774,127.9683722,
대천용두야영장,충남 보령시 웅천읍 열린바다로 100-50,36.2597940,126.5413686,
얼음골 캠핑장,경남 밀양시 산내면 하양지안길 11-19,35.5984747,128.9528490,010-6563-3122
강화바다관광농원,인천 강화군 화도면 해안남로 2355,37.6138416,126.3824926,032-937-3485
양주 하늘캠핑장,경기 양주시 백석읍 양주산성로737번길 114,37.7844576,126.9684977,
금호강 오토캠핑장,대구광역시 북구 검단동 458-4번지 ,35.918493,128.611644,053-719-3300
가야산오토캠핑장,경북 성주군 가천면 동신로 33,35.8562336,128.1032827,
문앤스타 캠핑장,경기 양평군 용문면 중원산로 478,37.5426652,127.6172013,010-4886-8474
그림책동화마을 품 캠핑장,경기 동두천시 삼육사로 1366 (탑동동),37.8896374,127.0986274,
팜스테이 글램핑 앤 펜션,경기 가평군 청평면 북한강로1636번길 133,37.6701166,127.3946473,
세계캠핑체험존,경기 연천군 전곡읍 선사로 123,38.0073762,127.0621349,031-835-7100
KEROAIN CAMP,강원 영월군 무릉도원면 학산길 26-9,37.3192693,128.1882584,
오지봉커뮤니센터 야영장,전남 곡성군 오산면 오산로 663-17,35.2412753,127.1159315,061-362-1303
덕산해변 캠핑장,강원 삼척시 근덕면 덕산해변길 82,37.3857373,129.2396110,010-3996-2554
맹방 비치캠핑장,강원도 삼척시 근덕면 하맹방리 산 1-7,37.387153,129.233671,033-802-8850
하솜캠프,경기 포천시 일동면 무리울길 40,37.9573141,127.3360145,
집다리캠핑장,강원 춘천시 사북면 화악지암길 594,37.9789481,127.6226827,
마인드 글램퍼스,경기 양평군 단월면 대부록길 37,37.5805759,127.6814533,
더캠프,울산 울주군 상북면 삽재로 420,35.6352059,129.0493222,
여수자매로캠핑장,전남 여수시 화양면 자매로 170,34.6638838,127.5784409,
태백구문소힐링캠프,강원 태백시 태백로 2417 (동점동),37.0820316,129.0483699,033-581-0233
원스캠핑장,인천 강화군 삼산면 삼산남로604번길 37,37.6761396,126.3391250,010-6408-9365
잔야캠핑,충북 괴산군 청천면 도경로 638,36.7198387,127.7996515,1688-4600-
잣향기푸른숲캠핑장,경기 가평군 상면 축령로 183-53,37.7744434,127.3552627,
핀란드캠핑성,경기 가평군 상면 물골길 102,37.8364230,127.3162930,
울산 힐링캠프,울산 울주군 상북면 소야정길 10,35.6164276,129.0536247,052-262-8088
하남 야영장,경기 하남시 검단산로146번길 80 (창우동),37.5282099,127.2304732,031-795-8930
디데이펜션&캠핑,강원 홍천군 서면 안굴업길 39-13,37.6172897,127.6750943,033-432-8829
명도그 오토캠핑장,경남 남해군 설천면 설천로 176-187,34.8860132,127.9087436,055-862-5060
선인장,전남 담양군 월산면 담장로 548,35.3488657,126.9223224,061-382-7779
철이네캠핑장,경기 가평군 설악면 유명산길 79-18,37.5941524,127.4906148,
몽산포오션캠핑장,충청남도 태안군 남면 신장리 433-4번지 ,36.668331,126.291475,
자연에 머물다,강원 춘천시 사북면 화악지암길 186,37.9720851,127.5854661,010-8025-6508
웰컴투캠프,강원 영월군 무릉도원면 무릉법흥로 1128-20,37.3584324,128.2780826,010-5285-2774
다놀자캠핑장,경북 상주시 화서면 문장로 425-5,36.4713360,127.9639491,
블루문캠핑장,경기 가평군 상면 수목원로386번길 43,37.7467579,127.3501337,
영암 글램핑,전남 영암군 시종면 신학1로 47,34.830965,126.590701,
영덕 더스트림 카라반야영장,경북 영덕군 강구면 영덕대게로 579,36.393568,129.414607,010-4830-7410
타요캠핑장,강원도 삼척시 오분동 산 31-18번지 ,37.4211993,129.1945626,
에스글램핑,충남 천안시 동남구 풍세면 호정1길 28-17,36.7173568,127.1295602,041-565-3564
장항오토캠핑장,충남 서천군 장항읍 장항산단로34번길 48-38,36.0247652,126.6648708,
포레스트 캠핑장,경기 포천시 화현면 봉화로 269,37.8735358,127.2783098,
왕피천 숲속 캠핑장,경상북도 울진군 근남면 구산리 산 127,36.9190584,129.3299838,010-8861-4861
서해캠핑장,인천광역시 중구 을왕동 810-308,37.4572174,126.3681550,0507-1326-7640
펫힐링 달빛동물원 캠핑장,강원 영월군 남면 나뱅이길 61,37.1719133,128.4032846,033-373-0995
영월 솔향기 캠핑장,강원 영월군 무릉도원면 무릉법흥로 787,37.3322868,128.2751142,033-374-0177
북극곰 야영장,강원 평창군 봉평면 흥정계곡길 313-3,37.637736,128.3383084,033-333-2019
호랑이캠핑 가평점,경기 가평군 설악면 유명로 2204,37.7011865,127.4545775,010-5414-9635
칠포그린로즈야영장,경북 포항시 북구 흥해읍 암각화길 31,36.1354610,129.3849897,010-6370-8078
도화지오토캠핑장,경북 경산시 와촌면 대한길 45-18,35.9698091,128.7872348,
맑은물소리캠핑장,경기 가평군 설악면 가마소길 17-270,37.6348394,127.4728768,
칠성캠핑장,충북 괴산군 칠성면 중부로 5611-21,36.7845508,127.8783875,
오션포레글램핑,경남 고성군 회화면 회진로 321,35.0571140,128.3907660,055-672-5588
동해 주노글램핑장,강원 동해시 쉬눔길 80 (추암동),37.4719302,129.1538581,033-521-3400
말보로맨 오토캠핑장,강원 고성군 토성면 서신평1길 46,38.2312330,128.5124325,
십리포해수욕장 야영장,인천 옹진군 영흥면 영흥북로 388-1,37.2819431,126.4863227,032-886-6717
어거스트캠핑장,경기 포천시 가산면 우금3길 142-29,37.8181789,127.2275313,
오하브,경기 가평군 북면 꽃넘이길 43,37.8961216,127.5269003,031-582-0002
하늘정원캠핑장,인천 강화군 길상면 동검길 21-1,37.5967264,126.5158549,032-937-5969
꿈꾸는 계곡 야영장,강원 양양군 현북면 어성전길 391,37.9330692,128.6740240,
토일관광농원,경기 포천시 군내면 청군로 2857,37.8670740,127.2496531,010-5248-5912
오시유,충남 천안시 동남구 광덕면 해수길 178-38,36.6753724,127.0291297,041-522-5106
산중호걸 글램핑,경기 포천시 이동면 금강로6263번길 182-73,38.0907243,127.3715966,010-7777-0618
용소캠핑장,경기 가평군 북면 가화로 2411-32,37.9543807,127.4737477,010-4815-7033
문경 카라반파파,경북 문경시 가은읍 왕능강변길 71,36.6491740,128.0616385,
유수암 캠핑장,제주특별자치도 제주시 애월읍 하소로 684-25,33.4228776,126.3938126,064-799-6696
소백산마을 캠핑장,경북 영주시 단산면 소백로 3231,36.9496001,128.6153927,054-631-0047
파라다이스캠프,강원 영월군 무릉도원면 무릉법흥로 1128-10,37.3571502,128.2786804,010-5554-1008
프렌즈캠핑장,충북 제천시 청풍면 청풍명월로 869-9,37.0041734,128.1326002,
범화권역 글램핑장,충청북도 영동군 학산면 도덕리 806-3번지 ,36.0721393,127.7383092,043-743-1109
강릉여행 굿캠핑,강원 강릉시 사천면 해안로 904-8,37.8315351,128.8762615,0505-356-9565
몽산포오토캠핑장 2구역,충청남도 태안군 남면 신장리 353-181,36.669141,126.288251,010-5409-9600
푸른섬 캠핑장,경기 안산시 단원구 연목이길 31-21 (대부북동),37.2696195,126.5589683,
뉴욕카라반,강원 속초시 동해대로 3847-7 (대포동),38.1782720,128.6016773,
금관숲캠핑장,충북 청주시 상당구 미원면 운암계원로 628,36.6205270,127.7257654,
삿갓펜션 캠핑장,강원 영월군 김삿갓면 김삿갓로 362,37.0910858,128.6034693,033-375-3389
히어리캠핑장,강원 영월군 김삿갓면 김삿갓로 587-6,37.1050098,128.6028469,010-2835-2448
넵투누스 카라반,경기 가평군 청평면 고재길 262-123,37.703585,127.515035,
대가야캠프타운,경북 고령군 운수면 물한1길 78-8,35.7951253,128.3174544,054-956-5454
황산도캠핑장,인천 강화군 길상면 해안남로65번길 36-15,37.6213100,126.5383492,
풀앤밸리야영장,강원 양양군 현북면 남대천로 1352,37.9931403,128.6526262,010-8879-8064
서창캠핑장,인천 남동구 운연로 31 (서창동),37.4386179,126.7551527,
자바카라반,인천 옹진군 영흥면 선재로 61-1,37.2347901,126.5303955,010-4045-7823
드위트리 글램핑,강원 정선군 남면 지장천로 146-47,37.2353021,128.7821272,010-6320-0760
하와이언캠프,인천 옹진군 영흥면 영흥서로446번길 46,37.2824736,126.4574380,010-9111-0750
용추솔밭관광농원,경남 함양군 안의면 용추계곡로 494-6,35.6761566,127.7756497,010-6495-4333
광주패밀리랜드 카라반캠핑장,광주 북구 우치로 677 (생용동),35.223736,126.891612,062-607-8088
두레캠핑장,경기 가평군 청평면 상지로 171,37.768817,127.470111,010-2351-5300
마로니에숲 캠핑장,충북 옥천군 이원면 장찬길 159-73,36.2449704,127.5943294,043-732-1910
월드니스 오토캠핑장,강원 영월군 무릉도원면 도원운학로 475-10,37.2999296,128.2206710,010-4081-4653
갈릴리 야영장,경기 평택시 안중읍 안중북로 119,36.999756,126.920887,031-683-8981
외룡송어회 캠핑장,강원 영월군 김삿갓면 직실길 7,37.1168220,128.6422778,033-378-3540
시공간,전남 여수시 남면 솔고지길 105,34.5479582,127.7265031,
달콤이네 캠핑장,강원 원주시 문막읍 취병로 106,37.3115420,127.8006500,010-9244-2704
노을캠핑장,인천 강화군 양도면 해안서로 695,37.6893261,126.3892759,010-5223-4540
어망골 캠핑장,충남 보령시 천북면 사호장은로 638,36.505794,126.490541,010-2935-7977
별곰 캠핑힐,경남 하동군 청암면 사동길 2,35.181077,127.754772,010-2687-3886
해오름 글램핑,경기 포천시 소흘읍 광릉수목원로874번길 5,37.7776325,127.1460759,010-9196-1645
오페라캠핑장,강원 홍천군 내촌면 아홉사리로 104-15,37.8022444,128.0042054,010-4876-9019
stay714,경기 가평군 설악면 가마소길 17-500,37.6335723,127.4751344,
홍천 쁘띠힐링카라반,강원도 홍천군 북방면 노일리 868-2,37.6865314,127.7318824,010-3092-2256
용담댐 오토 캠핑장,전북 진안군 안천면 안용로 539,35.9366966,127.529745,
대부관광농원 오캠핑,경기 안산시 단원구 대남로 642 (대부남동),37.207208,126.546240,010-6547-5005
평화의댐 오토캠핑장,강원 화천군 화천읍 비수구미길 145-145,38.2065288,127.8501067,070-7727-1292
김제 모악산 캠핑파크,전북 김제시 금산면 모악로 476-31,35.716034,127.0419043,063-540-4199
펫 트리파크,충북 충주시 앙성면 둔터로 625-31,37.1029014,127.7103409,010-3066-5353
상주 감꽃마을 서울캠핑장,경북 상주시 낙동면 선상서로 1587,36.3301080,128.2134500,054-535-8914
팜스토리,경북 청도군 운문면 운북로 443-18,35.8041012,128.9764245,
충주커피박물관 글램핑카라반펜션,충북 충주시 살미면 월악로 432,36.9045459,128.0145503,043-855-8304
젤루느린 달팽이,경북 문경시 가은읍 대야로 1290,36.6765653,127.9596959,
아르보리아파크 캠핑장,인천 강화군 길상면 장흥로101번길 65,37.6104188,126.5074352,010-2334-2002
학암포나로야영장,충청남도 태안군 원북면 방갈리 515-175번지,36.8971075,126.203977,010-8407-6663
청주시 미래지농촌테마공원 오토캠핑장,충청북도 청주시 청원구 오창읍 용두리 170,36.7318247,127.4044612,043-201-4436
그라티아 글램핑,경기 가평군 가평읍 태봉두밀로 421-24,37.8152742,127.4547662,
진밭골야영장,대구 수성구 진밭길 112 (범물동),35.8169547,128.6602697,053-666-3477
몽산포오토캠핑장,충청남도 태안군 남면 신장리 353-53번지,36.6707972,126.2863962,041-674-2608
몽산포패밀리데이캠핑장,충청남도 태안군 남면 신장리 353-148,36.6719184,126.2880564,010-4786-3300
솔향기캠핑장,충남 태안군 소원면 모항항길 29,36.7779892,126.1431144,041-672-1255
별빛마루 야영장,충남 논산시 벌곡면 대둔로 970,36.2189407,127.2716460,041-734-9070
아이뜰관광농원,충북 괴산군 장연면 충민로 1193,36.8449284,127.9024629,043-832-8854
진달래 관광농원 캠핑장,충남 부여군 옥산면 봉산로56번길 56,36.1979907,126.7246843,010-5461-1407
라무키즈글램핑,경기 가평군 북면 가화로 2372-42,37.9544513,127.4781441,
전원 오토캠핑장,경북 경주시 산내면 문복로 578,35.6842637,129.0503494,010-6774-5055
내리계곡 솔바람 캠핑장,강원 영월군 김삿갓면 내리계곡로 1039-14,37.1024406,128.6820606,033-378-0180
해자연캠핑장,경기 남양주시 오남읍 팔현로175번길 310-60,37.7017905,127.2640635,010-8307-3800
수덕 캠핑장,충남 예산군 덕산면 노곡길 15,36.6719608,126.6492613,010-2687-6198
디-포레 카라반 파크,제주특별자치도 제주시 구좌읍 송당6길 78-1,33.4648262,126.7811915,064-784-2417
청포대 휴 야영장,충남 태안군 남면 청포대길 63-6,36.6397842,126.3019994,010-3456-3721
나라펜션캠핑장,경기 안산시 단원구 장불길 31-23 (대부남동),37.1997701,126.5603735,010-9041-6557
와우키즈랜드 야영장,충북 청주시 청원구 내수읍 내수로 457,36.7101183,127.5169723,043-235-2177
부에노스아이레스,경기 가평군 가평읍 상지로 949,37.7405169,127.4999437,
비토애,경남 사천시 서포면 토끼로 234,34.9835837,127.9668384,010-4138-8217
파주쇠꼴마을고고캠핑장,경기도 파주시 법원읍 금곡리 321-32,37.8826813,126.8709054,031-959-0123
산책,경기 가평군 북면 화악산로 943-40,37.9364988,127.5408827,
고창갯벌오토캠핑&글램핑장,전북 고창군 심원면 두어1길 55-25,35.5271805,126.5400725,010-4412-5202
고목정,충남 청양군 대치면 칠갑산로 668-21,36.4384282,126.8455177,041-943-3828
사계절 야영장,충북 영동군 상촌면 물한계곡로 700,36.1016081,127.8847483,010-2803-7373
대부도나라캠핑장,경기도 안산시 단원구 대부남동 557-6번지 ,37.1997701,126.5603735,010-9041-6557
별을 다는 아이,경기 양주시 장흥면 권율로309번길 132,37.7440253,126.9526406,010-8899-1628
깊이울마을 야영장,경기 포천시 신북면 깊이울로 234-21,37.9191032,127.1666895,031-533-9787
당진난지도 국민여가캠핑장,충청남도 당진시 석문면 난지도리 701,37.0445491,126.4248087,041-363-9229
다온숲,세종특별자치시 전동면 깊은내길 195,36.642983,127.2537753,044-868-7323
창녕별숲글램핑,경남 창녕군 성산면 구연화길 62,35.6238014,128.5230583,010-9344-2314
남해 더왕 글램핑장,경남 남해군 설천면 설천로 224-79,34.884622,127.9086089,010-9929-7011
신난다 글램핑,경상북도 청도군 각북면 금천리 482,35.7221977,128.5729634,010-8606-0039
상비오토캠핑,경북 고령군 덕곡면 덕운로 1260,35.7991026,128.1745107,010-3821-9241
소망캠핑장,경북 고령군 운수면 대가야로 1850,35.7712834,128.2806814,010-4100-0446
농업회사법인 오송 주식회사,경북 칠곡군 왜관읍 봉계로 348,35.9974629,128.4532302,054-971-9011
이지캠핑,경북 예천군 감천면 충효로 1131-27,36.7056741,128.5104846,054-654-8359
불영계곡 캠핑장,경상북도 울진군 울진읍 대흥리 76,36.9658408,129.3202400,054-781-1002
스카이레저,경북 경주시 보불로 328-7 (하동),35.8119869,129.3076316,010-4099-0282
경주 더숲 관광농원,경북 경주시 내남면 내외로 731-107,35.7089863,129.2566006,
두바퀴로 가는 자동차 관광농원,경북 경주시 산내면 외칠일부길 278-182,35.7541547,129.0008249,
하비리조트,경북 청도군 각북면 지슬길 34-17,35.7121809,128.5881683,010-4736-3811
숲속의드림캠프야영장,경북 포항시 북구 흥해읍 암각화길 31-87,36.1357815,129.3825711,054-261-6330
토함산 락 글램핑,경북 경주시 보불로 190-17 (하동),35.8009614,129.3151923,010-4045-0272
사나래카라반캠핑,경북 경주시 산내면 대현길 349,35.7044909,129.0770552,010-9675-0119
용천수캠핑장,경북 경주시 마동큰마을5길 13-14 (마동),35.7858728,129.3078399,010-7342-2800
덕룡산캠핑장,전남 강진군 도암면 봉황로 617,34.5396797,126.6832373,061-434-7907
톱머리 글램핑장,전남 무안군 망운면 톱머리길 66-5,34.9691293,126.3835195,061-450-5706
회산백련지 오토캠핑장,전라남도 무안군 일로읍 복룡리 203,34.8600889,126.5298981,061-283-1325
캠핑아이,전남 영광군 백수읍 법백로 39,35.3369546,126.4327066,010-7755-0788
솔내음 물댄동산 야영장,전남 장성군 삼계면 자초로 198,35.3027267,126.6545021,061-395-0099
불태산야영장,전남 장성군 진원면 고산로 61-164,35.2868281,126.8366343,010-2680-8437
핫캠핑장,전남 담양군 용면 용소길 131,35.4361901,127.0310162,010-5641-5658
라온야영장,전남 담양군 용면 금성산성길 548,35.3760811,126.9958252,010-2645-7477
하늘나리 캠핑장,전남 곡성군 죽곡면 상한길 255-4,35.1611949,127.3998607,061-363-8546
놀자캠핑,충남 공주시 사곡면 해월길 60-13,36.5145522,127.0120138,010-2305-6011
더반 힐 글램핑,충남 보령시 오천면 오천해안로 555,36.4246923,126.5041884,041-932-9262
팔봉갯벌체험야영장,충남 서산시 팔봉면 범머리길 408,36.859804,126.3378368,010-9778-5639
관리도캠핑장,전북 군산시 옥도면 관리도길 60-19,35.8177416,126.3688876,063-454-2932
수류산골야영장,전북 김제시 금산면 수류로 557-75,35.6896197,127.038719,063-548-0120
비채야영장,전북 완주군 동상면 동상로 1260-13,35.9256368,127.3064532,063-229-0011
로뎀하우스,전북 완주군 운주면 금고당로 1070-14,36.0254826,127.3506666,010-3337-8260
나드리 캠핑장,충북 옥천군 청성면 삼남2길 6,36.2922868,127.7407891,010-5405-4450
솔베이캠핑장,충북 괴산군 감물면 충민로 1083-12,36.8374176,127.9008354,043-832-3638
개차반캠핑장,충북 괴산군 사리면 소매1길 102,36.8379468,127.6668837,010-4063-4111
갈론계곡캠핑장,충북 괴산군 칠성면 칠성로10길 466-3,36.737419,127.8464446,043-832-5300
솔밭캠프,충북 괴산군 칠성면 쌍곡로 322,36.760471,127.8951925,010-2525-1027
한스빌리지,충북 단양군 가곡면 새밭로 393,37.0009739,128.4167961,010-9493-5288
파인 카라반 캠핑장,충북 단양군 가곡면 남한강로 1038,37.0571024,128.4162949,010-7696-7699
캠핑하우스,충남 천안시 동남구 용곡1길 98 (용곡동),36.7925755,127.1445338,041-415-1877
정안 글램핑,충남 공주시 정안면 광정장터길 88,36.6106916,127.1231643,041-856-0030
다솜이 야영장,강원 영월군 무릉도원면 무릉법흥로 852-21,37.3353471,128.2831608,
청풍명월,강원 영월군 무릉도원면 도원운학로 591,37.3014969,128.2113181,
숲속의 작은집,강원 영월군 무릉도원면 새막골길 133,37.2982222,128.1443928,
내리계곡 솔밭캠핑장,강원 영월군 김삿갓면 내리계곡로 1039-18,37.1022085,128.6827757,033-378-0180
평창 태기산 캠핑장 펜션,강원도 평창군 봉평면 진조리 338-11,37.5677373,128.3027752,010-3949-9091
연포분교야영장,강원 정선군 신동읍 연포길 544-6,37.2512651,128.5718856,010-8239-1786
밤개울캠핑장,강원 철원군 근남면 하문수동1길 62-1,38.2103549,127.4712238,010-9442-2038
폭포 캠핑 야영장,강원 인제군 북면 만해로 224-28,38.1904422,128.3266026,010-4466-3015
배론의아침,충북 제천시 봉양읍 배론성지길 167-52,37.1532837,128.0969974,
나우캠핑장관광농원,강원 횡성군 공근면 공근북로 122-100,37.5520732,128.0116812,010-9856-0634
동빈네 캠핑장,강원 영월군 중동면 직동로 970,37.1742216,128.7802343,
스카이 펜션&캠핑장,강원 영월군 무릉도원면 무릉법흥로 852-15,37.3354478,128.2823358,033-372-0399
가람리조트,강원 홍천군 두촌면 부채들길 29,37.8364274,128.0183530,033-434-1080
검산별빛캠핑장,강원 홍천군 서석면 마리소리길 120,37.7330202,128.2435087,010-9497-1974
용오름캠핑장,강원 홍천군 서석면 검산길 263,37.7208787,128.2361555,033-436-0732
예담숲,강원 홍천군 서면 한서로 347-5,37.6692469,127.575983,033-434-2926
몬테리오,강원 홍천군 서면 마곡길 220,37.7287128,127.5797711,033-436-1001
횡성 노다지야영장 불타는 삼촌,강원 횡성군 청일면 춘당로 232,37.6177407,128.1589612,070-4118-1952
개똥이네캠핑장,강원 홍천군 북방면 원소길 25,37.7198633,127.7606899,010-4065-9277
J캠핑장,강원 홍천군 내면 소한동길 301,37.7904455,128.4297522,033-433-8529
홍천 무네미 별마루 관광농원,강원 홍천군 내면 수유동길 635,37.8044943,128.2254517,010-3307-1000
파마스힐 캠핑장,경기도 가평군 상면 항사리 523,37.7932308,127.3585998,010-9174-4484
더휴글램핑,경기 양평군 옥천면 옥천체육공원길 4,37.5230359,127.4614693,031-774-4545
산대분교공공캠핑장,경기 양평군 단월면 섬이길 274-12,37.6293326,127.583799,
제이드별빛카라반 캠핑장,강원 춘천시 남산면 햇골길 62,37.8343408,127.5378473,
강촌밸리,강원 춘천시 남산면 강촌로 145-20,37.8067716,127.6415158,02-749-4122
춘천하늘캠핑장,강원 춘천시 서면 방동1길 315,37.9131856,127.6562197,010-8248-8266
강촌버즈글램핑,강원 춘천시 서면 율장길 122-28,37.8498063,127.5806316,033-262-1100
속초 밤하늘글램핑,강원 속초시 장성천길 151 (장사동),38.214701,128.5471966,033-633-5055
작은쉼터야영장,경기 시흥시 죽율로 25 (죽율동),37.3486282,126.7588777,031-431-6660
물왕숲캠핑파크,경기 시흥시 동서로 706-88 (물왕동),37.3809736,126.8273794,031-486-4700
초리 포레스트,경기 파주시 법원읍 초리골길 456-55,37.8646881,126.9026953,010-9135-1772
자연의꿈,경기 파주시 법원읍 초리골길 248,37.8560377,126.8942588,010-6415-8229
돌산캠핑장,경기 파주시 광탄면 산수골길 151-68,37.8107159,126.8419563,010-2229-2501
헬로우 힐 연인산 캠핑장,경기 가평군 조종면 연인산로 384,37.8421495,127.3719038,010-9559-4418
엄소리오토캠핑장,경기 가평군 설악면 묵안로 29,37.656318,127.4848109,010-9044-0274
블루래빗,경기 가평군 설악면 어비산길 11,37.5998029,127.4943451,031-585-9520
새연 글램핑 카라반 설악2호점,경기 가평군 설악면 유명로 1939-26,37.683224,127.470277,
장경리해변 야영장,인천광역시 옹진군 영흥면 내리 1626-38,37.2726804,126.449977,032-880-0450
해오름 야영장,울산 울주군 서생면 해맞이로 1109-17,35.3581755,129.3449996,010-6666-4886
장안캠프,부산 기장군 장안읍 장안로 18,35.3418247,129.2524677,
바다마을 팬션,인천 중구 대무의로 497 (무의동),37.375269,126.4337878,
뮤즈캠핑장,인천광역시 강화군 강화읍 국화리 740번지 15 ,37.7370897,126.445112,032-934-0110
쥬라기 카라반,인천 강화군 길상면 해안남로 614,37.5998632,126.4969571,010-7206-4566
강화도 아침 숲속야영장,인천 강화군 길상면 해안남로 860-2,37.6144886,126.4784176,010-5669-0749
봉화솔향가득서울캠핑장,경북 봉화군 소천면 홍점길 31,36.9783581,129.0033511,02-2133-3923
클럽레스피아i 삽교바다공원,충남 당진시 신평면 산정길 93,36.8954373,126.8158307,
청주시 현도오토캠핑장,충북 청주시 서원구 현도면 중척리 652,36.4594872,127.4056890,043-270-7388
숲속의야영장,경기 양평군 옥천면 사기점길 49-15,37.542139,127.4680889,010-9069-9670
홍천강 자라바위 오토캠핑장,강원 홍천군 서면 팔봉산로 857,37.6884607,127.6852379,033-430-2490
슬로우캠프,강원 영월군 무릉도원면 고일길 18-5,37.3463527,128.1949015,033-374-0368
여울소리,강원 영월군 무릉도원면 중방길 2-45,37.2933547,128.2687783,033-375-7863
천안시 국민여가캠핑장,충남 천안시 동남구 목천읍 교촌7길 46-13,36.8016541,127.2267849,041-529-5113
테하스랜드 글램핑장,충남 논산시 연무읍 안심로220번길 60-24,36.1411728,127.1056708,041-741-5060
산림청 국립자연휴양림관리소,충남 서천군 종천면 희리산길 206,36.1126287,126.6641472,041-953-2230
사평풍류마을오토캠핑장,전라남도 화순군 남면 사평리 114-6번지 ,35.0041312,127.0947358,061-373-4853
블루마린 캠핑장,경기 여주시 능서면 중부대로 2545-74,37.3035056,127.5813962,070-4633-2899
함평자연생태글램핑앤오토캠핑장지점,전남 함평군 신광면 덕일길 192-91,35.1364256,126.5095177,010-6640-1629
베스트필드,충남 공주시 반포면 동학사1로 65,36.3658213,127.2575499,010-4745-0365
위천수변 테마파크,경북 군위군 효령면 간동유원지길 8,36.1761825,128.5852903,054-380-7354
늘예솔글램핑,경남 거창군 북상면 덕유월성로 1384-5,35.7642845,127.7368797,010-2943-5354
아쿠아마린캠핑장,경기 포천시 이동면 성장로1289번길 204,38.0477085,127.3765695,031-532-3330
힐링가평오토캠핑장,경기 가평군 상면 청군로 316,37.7568926,127.4035868,
더포레스트 연지곤지점,경기 광주시 곤지암읍 경충대로 729,37.3524902,127.3237019,031-763-4114
솔내음 캠핑장,전북 무주군 안성면 칠연로 504,35.839464,127.688830,063-323-2193
계곡과느티나무 캠핑장,경기 포천시 이동면 화동로 1925-47,38.0190200,127.3644750,
청포대숲속야영장,충남 태안군 남면 청포대길 32-8,36.6397846,126.3045466,
하늘땅별땅 캠핑장,경기 가평군 북면 화악산로 1135-47,37.9512003,127.5332378,
홀리데이캠핑장,경기 가평군 설악면 유명로 654-82,37.6034978,127.4945078,010-3722-8513
후평숲캠핑장,충북 괴산군 청천면 후평도원로 129-19,36.6589052,127.7561058,043-832-1511
휴앤락캠핑장,경북 경주시 석현로 110-49 (석장동),35.8632033,129.1836673,
가평설악 하늘계곡 캠핑장,경기 가평군 설악면 봉미산안길 190-27,37.6162787,127.5391017,031-584-6423
파인힐캠프,충남 예산군 덕산면 외라2길 60-24,36.643923,126.6029133,
팡팡캠핑장,경기 용인시 처인구 원삼면 동부로 1041,37.181738,127.2913319,010-5345-8500
포시즌,충북 단양군 가곡면 남한강로 1117,37.0613825,128.4229440,043-422-7070
주작산 별소리캠핑장,전남 강진군 신전면 삼인길 102-79,34.5143097,126.7030382,
주작산자연휴양림 야영장,전남 강진군 신전면 주작산길 262,34.5151967,126.6861219,061-430-3306
추월산골드캠핑장,전남 담양군 용면 가마골로 221-4,35.4271059,127.0146694,061-383-9210
캠핑스마일,경기 가평군 조종면 연인산로474번길 91-27,37.8456294,127.3850743,
토토큰바위 캠핑장,경기 가평군 북면 화악산로 1246,37.9621768,127.5278742,031-581-1979
티앤글램핑,경기 가평군 북면 꽃넘이길 55,37.8967245,127.5258699,010-3200-2087
율포오토캠핑장,전남 보성군 회천면 충의로 52,34.671961,127.0929786,061-853-4488
은석캠핑장,경기 가평군 설악면 유명산길 61-75,37.5978837,127.4947152,031-585-8440
은하캠핑장,경기 가평군 가평읍 잎너비길 18-91,37.8428257,127.5087902,
이순신 글램핑,전북 부안군 변산면 궁항로 178,35.6065049,126.4699688,063-582-8845
황정민 글램핑,경기 가평군 조종면 명지산로 523,37.9141083,127.3844978,010-6297-6029
장수방화동캠핑장,전라북도 장수군 번암면 사암리 64 ,35.5706571,127.5309908,063-352-6645
용수 그린랜드,경기 가평군 조종면 운악청계로491번길 87,37.8537932,127.3480863,031-585-9995
유명산라온캠핑장,경기 가평군 설악면 유명산길 124-29,37.5920107,127.485588,031-585-5340
에이스카라반,경기 용인시 처인구 이동읍 이원로 547,37.1650174,127.2437891,031-322-4221
올덴캠핑장,경기 가평군 청평면 고재길 262-64,37.7022064,127.5169624,031-585-5558
올래캠핑장,경기 가평군 설악면 어비산길 203,37.5924611,127.5117841,031-584-8585
싱글벙글 캠핑장,경기 용인시 처인구 이동읍 상덕로 95-62,37.2120767,127.1586644,
아름다운글램핑장,전남 신안군 압해읍 복룡로 669-12,34.9079869,126.3374147,061-271-8633
아트엔체험캠프,경남 고성군 대가면 무량로 251,34.9994631,128.2860981,
알파고글램핑,경기 가평군 상면 청군로 1565,37.8220186,127.3204562,031-585-3949
양달캠핑장,경기 용인시 처인구 원삼면 학일로 100-2,37.1491297,127.2870068,031-334-4567
에뜨유명산캠핑장,경기 가평군 설악면 유명산길 124-17,37.5919751,127.4862949,031-585-4648
솔바람 캠핑장,충청남도 서천군 장항읍 장항산단로34번길 48-44 ,36.0234234,126.6667728,010-2202-6769
솔바람캠핑장,경기 가평군 조종면 명지산로 337-62,37.9041288,127.3746013,
솔밭야영장,강원도 인제군 북면 용대리 1828-1 ,38.1845286,128.3113102,
솔섬오토캠핑장,강원도 평창군 봉평면 수림대길 57-5 ,37.5247325,128.3829514,033-333-1001
숲속에안뜰 캠핑장,경기 용인시 처인구 원삼면 원양로 250-23,37.1830845,127.3083987,031-339-1599
숲속의 정원 캠핑장,경기 가평군 북면 가화로 988-50,37.8815506,127.5508494,
신안우전설레미캠핑장,전남 신안군 증도면 지도증도로 1797-1,34.9675274,126.1388314,061-275-3692
브라보캠핑장,경기 가평군 북면 가화로 2670-71,37.9719504,127.4552605,
선재오토캠핑장,인천 옹진군 영흥면 선재로186번길 86-22,37.2491558,126.5263717,010-8663-0052
소풍캠핑장,경기 가평군 설악면 어비산길 184-147,37.5951487,127.5084698,010-5273-6445
별빛야영장,강원도 삼척시 덕풍길 928-0 ,37.1020523,129.1793007,010-3240-7984
별헤는 밤,전북 고창군 상하면 명사십리로 298,35.4709267,126.4550901,010-2613-0872
보리산캠핑장,경기 가평군 설악면 한서로 421-259,37.6691097,127.5372908,031-585-6050
명돈골 캠핑장,경기 가평군 북면 논남기길 19-36,37.9674803,127.4588927,
명성가족캠핑촌,인천 옹진군 영흥면 영흥로722번길 39,37.2730657,126.4563127,032-885-3366
문수산 캠핑장,경기 용인시 처인구 이동읍 이원로 637-3,37.1622209,127.2534755,
리즈밸리 글램핑캠핑장,경기 가평군 설악면 어비산길 201-34,37.5915122,127.5128059,031-584-2751
마루아라힐링캠프,전북 부안군 줄포면 생태공원로 38,35.5830706,126.6741767,063-580-3171
마운틴캠핑장,경기 용인시 처인구 원삼면 후평로185번길 50,37.1351799,127.3286221,
느티나무 캠핑장,경기도 가평군 북면 목동리 595-2,37.9106422,127.5748372,010-7331-3782
늘푸른쉼터,경기 가평군 설악면 어비산길 76,37.5973391,127.4999888,031-585-7042
다누리골테마파크,경기 용인시 처인구 이동읍 묘봉로277번길 41,37.1293739,127.2435246,031-307-2537
단풍숲캠핑장,경기 용인시 처인구 원삼면 보개원삼로1462번길 14-23,37.1244409,127.3144633,
두밀숲캠핑장,경기 가평군 가평읍 태봉두밀로 655-9,37.8082191,127.4328667,010-5327-3146
들꽃여울캠핑장,경기 가평군 설악면 어비산길 130-6,37.5972741,127.5055741,031-584-3985
계곡풍경캠핑장,경기 가평군 북면 가화로 2389-38,37.952825,127.4758301,
곤달비캠프,경북 경주시 산내면 하신길 58-31,35.7324672,129.0006737,
국립유명산자연휴양림(일반),경기 가평군 설악면 유명산길 79-53,37.5926571,127.49095,031-589-5487
